name,city,address,lattitude,longitude,type
Neelkanth Star DC Charging Station,Gurugram,"Neelkanth Star Karnal, NH 44, Gharunda, Kutail, Haryana 132114 ",29.6019,76.9803,12.0
Galleria DC Charging Station,Gurugram,"DLF Phase IV, Sector 28, Gurugram, Haryana 122022",28.4673,77.0818,12.0
Highway Xpress (Jaipur-Delhi) DC charging station,Behror,"Jaipur to Delhi Road, Behror Midway, Behror, Rajasthan 301701",27.8751,76.276,12.0
Food Carnival DC Charging Station,Khatauli,"Fun and Food Carnival, NH 58, Khatauli Bypass, Bhainsi, Uttar Pradesh 251201",29.3105,77.7218,12.0
Food Carnival AC Charging Station,Khatauli,"NH 58, Khatauli Bypass, Bhainsi, Uttar Pradesh 251201",29.3105,77.7218,12.0
Krishna Hansraj Hotel Una DC charging station ,Una,"Old Hoshiarpur Rd, Una, Himachal Pradesh 174303",31.4668,76.2568,12.0
SG Jabli DC Charging Station,Kasauli,"VPO - Jabli, NH-22, Teh, Kasauli, Himachal Pradesh",30.879,76.9948,12.0
SG Jabli  AC Charging Station,Kasauli,"VPO - Jabli, NH-22, Teh, Kasauli, Himachal Pradesh",30.879,76.9948,12.0
SG Karnal DC Charging Station,Karnal,"131 km Milestone, G. T, GT Karnal Rd, near Karna Lake, Karnal, Haryana 132001",29.7379,76.9756,12.0
SG Karnal AC Charging Station,Karnal,"131 km Milestone, G. T, GT Karnal Rd, near Karna Lake, Karnal, Haryana 132001",29.7379,76.9756,12.0
Neelkanth Star AC charging  station,karnal,"Neelkanth Star Karnal, NH 44, Gharunda, Kutail, Haryana 132114 ",29.6019,76.9803,12.0
Deep Brothers IOCL AC Charging Station,Darbaripur,"Deep Brothers, Palra Road, Darbaripur",28.3861,77.0063,12.0
Synergy Solutions AC Charging Station 2,Pune,"Synergy Solutions, Shop No 9 , Modak Prasad, 410, Narayan Peth,Pune",18.538,73.8485,12.0
IOCL Rajokri Station,New Delhi,"NH 8 Exit 4, Samalka, New Delhi, Delhi 110037",28.5248,77.101,12.0
VEEV A2B Kallar,Mettupalayam,"A2B, Kallar Road, Mettupalayam, Tamil Nadu",11.3217,76.9163,12.0
VEEV Sathya Nursery,Mettupalayam,"Kallar, Mettupalayam, Tamil Nadu",11.33,76.9027,12.0
IOCL Nehru Nagar Station,New Delhi,"10-C, Nehru Nagar, Ring Rd, near Lajpat Nagar, New Delhi, Delhi 110065",28.5682,77.2531,12.0
IOCL Mathura Road,New Delhi,"No A12, Mathura Rd, near Telephone Exchange, Friends Colony East, New Delhi, Delhi 110025",28.566,77.2664,12.0
IOCL Chahar AC Charging Station,Gurugram,"Basai Rd, Vikas Nagar, Sector 9, Gurugram, Haryana 122018",28.456,77.001,12.0
Kothari Enterprises  AC1,Khopoli,"Kothari Brothers, Laxminagar, Khopoli, Maharashtra 410203",18.7876,73.3475,12.0
Windlass River Valley AC Charging Station,Dehradun,"Windlass River Valley, Harrawala/Kuanwala, Haridwar Road, NH-72, Dehradun, Uttarakhand 248005",30.2482,78.0961,12.0
Mindra Polar International AC Station,Ahmedabad,"Rahul Tower, 4,Vraj Vihar -6 B/H, Prernatirth Derasar Rd, Satellite, Ahmedabad, Gujarat 380015",23.0158,72.5178,12.0
Lonavla Wax Museum DC Charging Station,Lonavla,"69/1 near Lonavla College, opp. neeta volvo, Valvan, Lonavla, Maharashtra 410403 M-9766666469",18.763,73.4252,12.0
Heritage City AC Charging Station,Gurugram,"Heritage City 581-600 Flats, Heritage City, Sector 25, Gurugram, Haryana 122022",28.4823,77.0766,12.0
Hotel Fairmont Jaipur AC Station,Kukas,"Hotel Fairmont Jaipur, Riico, 2, Jaipur Engineering College Rd, Kukas, Rajasthan 302028",27.0307,75.8899,12.0
The Westin Pushkar AC Charger,Pushkar,"The Westin Pushkar Resort & Spa, Khasra No. 1242 1243, 1196/1726, Village Surajkund, Motisar Rd, Pushkar, Rajasthan 305022",26.4547,74.5046,12.0
WeWork Circle Demo,Gurugram,"4th Floor, The Galaxy Hotel, Behind 32nd Milestone Off NH 8, Sector 15, Gurugram, Haryana 122001",28.4632,77.049,12.0
Karma Lakelands AC Charger,Gurugram,"Karma Lakeland, NH-8, Sector 80, Gurugram, Haryana 122002",28.3639,76.9607,12.0
Statiq RnD Centre AC Charging Station,Gurgaon,"Statiq RnD Centre, Plot 80A, Phase V, Udyog Vihar, Sector 19, Gurugram, Haryana 122017",28.4997,77.0839,12.0
JMD Gardens,Gurugram,"Unnamed Road, Sector 33, Gurugram, Haryana 122018",28.4336,77.0349,12.0
Mindra Crispy Culture AC Charging Station,Ahmedabad,"Narayan Nagar Society, Narayan Nagar, Ahmedabad, Gujarat 380007",22.9989,72.5594,12.0
IOCL Dhaula Kuan Charging Station,New Delhi,"Ring Rd, opposite Gurudwara, Smriti Vatika, North West Moti Bagh, New Delhi, Delhi 110021",28.5874,77.1713,12.0
Tellus Power DC Charging Station,Pune,"AH47, Maharashtra 415406",17.0749,74.2227,12.0
RSTV Charging Hub Meerut,Meerut,"Meerut, Uttar Pradesh 250001",28.9955,77.7057,12.0
Synergy Solutions AC Charging Station 1,Pune,"office 9. Modak Prasad ,Oppo Rastrabhasha Bhavan",18.5145,73.8489,12.0
Inspacco Circle Station,Pune,"Shreenath Society, Veerbhadra Nagar, Baner, Pune, Maharashtra 411045",18.5619,73.7718,12.0
Circle Test Station Goa,Pune,"Isidorio Baptista Rd, Pajifond, Margao, Goa 403601",15.2735,73.959,12.0
Mindra D S Fasteners Charging Station,Pune,"National Highway 27 (8B), Opp. 80 ft. Road End, Opp. K.S. Diesels, Rajkot-360 003, Gujarat, India",22.473,70.895,12.0
HP Mira Bhayandar DC Charging Station,Mira Bhayandar,"NH-8, Mashachapada, Mira Road, Mira Bhayandar, Maharashtra",19.2747,72.8856,12.0
HP Pitam Pura DC Charging Station,New Delhi,"HP PETROL PUMP - AUTO CARE CENTRE PITAM PURA, Pitampura, Delhi, India",28.6962,77.155,12.0
HPCL Yapral DC Charging Station,Secunderabad,"Hindustan Petroleum Corporation Limited, Jai Jawahar Nagar, Yapral, Secunderabad, Telangana, India",17.502,78.539,12.0
HP Super Service DC Charging Station,Mumbai,"157, Jeevan Bima Marg, Backbay Reclamation, Churchgate, Mumbai, Maharashtra 400020, India",18.9285,72.8255,12.0
Vrundavan Garden DC Charging Station Nashik,Dindori,"Vrundavan Garden, Nashik Dindori Road,Near Shiv Shakti Bharat Petrol pump,Rantale, Dindori, Maharashtra 422202",20.1704,73.8273,12.0
Ganpati Petro DC Charging Station Hisar,Sangli,"Ganpati Petro, Indian Oil Corporation, Opp. Vidut Nagar, Delhi Road, Industrial Area, Hisar, Haryana 125011",29.1332,75.7535,12.0
Ganpati Petro AC Charging Station Hisar,Sangli,"Ganpati Petro, Indian Oil Corporation, Opp. Vidut Nagar, Delhi Road, Industrial Area, Hisar, Haryana 125011",29.1332,75.7535,12.0
Ashnni Pilot Circle Station,Sangli,"Gangaprasad, parshwanath colony, kuthe mala, dhamni road, Sangli, Maharashtra,  416416",16.8433,74.5859,12.0
AMC AC Charging Station,Marunji,"Phase 1, Hinjewadi Rajiv Gandhi Infotech Park, Hinjawadi, Pimpri-Chinchwad, Maharashtra 411057",18.5808,73.7399,12.0
RSTV Saharanpur AC Charging Station,Saharanpur,"Nanak Puram Colony, Pushpanjali Vihar, Numaish Camp, Saharanpur, Uttar Pradesh 247001",29.977,77.5753,12.0
Mindra EV Charger Shott,Shela,"Shott, Sindhu Bhavan Marg, Opposite Saket-3, Next to SANKALP SQUARE, PRL Colony, Thaltej, Ahmedabad, Gujarat 380059",23.0436,72.4825,12.0
Highway King Behror Delhi Side DC Charging Station,Gajraula,"Highway King Behror, NH 8, 3 Kms from behror towards delhi, Behror, Rajasthan 301701",27.9145,76.3146,12.0
Suket Cafe DC Charging Station Sundar Nagar,Gajraula,"Suket Cafe, Pungh, National Highway 21, Sundar Nagar, Himachal Pradesh 175018",31.5153,76.8765,12.0
McDonald Gajraula DC Charging Station,Gajraula,"McDonald Gajraula, NH9-24 Salarpur, Dist, Gajraula, Uttar Pradesh 244235",28.8382,78.2764,12.0
Rani Bagh Resort DC Charging Station,Beawar Khas,"Rani Bagh Resort, N.H.8, By Pass Ajmer Road, Beawar, Rajasthan 305901",26.125,74.3459,12.0
Mke Rental Circle Station,Bengaluru,"Mke Rental Private Limited, NH4, Tumkur Road, next to Himalaya Drugs, Makali, Karnataka 560016",13.067,77.45,12.0
Waterwoods Lodge & Resort AC Charging Station,Metikuppe,"19, Karapura, N.Belthur Post Office, HD Kote Taluk, Nagarhole National Park, Karnataka 571114",11.9377,76.2655,12.0
Kohinoor Altissimo Residential Tower,Mumbai,"Kohinoor Altissimo Residential Tower, Kohinoor Altissimo, Kasaravadi, Dadar, Mumbai, Maharashtra 400028",19.0246,72.8402,12.0
Hotel Pramila DC Charging Station Haridwar,Haridwar,"Hotel Pramila, Near Vishwakarma Ghat, NH-58,Delhi Haridwar ByPass, Road, Haridwar, Uttarakhand 249407, Phone No 9310843937",29.9324,78.1423,12.0
P G Regency Resort Charging Station,Mahad,"PG Regency,Govind Garden,103/1B, Plot no.4, Mumbai Goa HighWay, Mahad-Raigad, Mahad, Maharashtra 402301 Ph no. 7039892236",18.0855,73.4309,12.0
Suket Cafe AC Charging Station Sundar Nagar,Bengaluru,"Suket Cafe, Pungh, National Highway 21, Sundar Nagar, Himachal Pradesh 175018",31.5153,76.8765,12.0
The Forum Fiza Mall AC Charging Station Mangalore,Thane,"Basement parking (B1), The Forum Fiza Mall, Mangaladevi Temple Road, Pandeshwar, Mangalore - 575001",12.8576,74.8383,12.0
MSHSD Gojer Service Charging Station    ,Bengaluru,"Bettadasanapura, Bengaluru, Karnataka 560100",12.8427,77.64,12.0
Evershine Mall Charging Station,Mumbai,"Chincholi Bunder Road, New Link Rd, Malad West, Mumbai, Maharashtra 400064",19.1798,72.8361,12.0
HP Loyal Pump and Pantry Fuel Charging Station,Secunderabad,"42-601, SP NAGAR, ECIL Main Rd, SSS Tower, MJ Colony, Moula Ali, Secunderabad, Telangana 500040",17.4677,78.5641,12.0
Hotel Reddison Square Katra AC Charging Station,New Delhi,"Hotel Reddison Square, near shrine board central office, Katra, Jammu and Kashmir 182301, Phone No 9310843937",32.9867,74.9238,12.0
Hotel Mount View International AC Charging Station,New Delhi,"Hount Mount View International, Jammu Rd, Vaishnodevi, Katra, Jammu and Kashmir 182301",32.9918,74.9306,12.0
Hotel Dolphin AC Charging Station,New Delhi,"Hotel Dolphin, Railway Rd, Katra, Jammu and Kashmir 182301",32.9892,74.9289,12.0
"DMIPL EV Charging Station, Ludhiana",Natt,"Dalbir Makkar India Pvt. Ltd., Ludhiana-Malerkotla Road, Opp. J K Resort, Rania, Ludhiana - 141122 (Punjab), Phone no 9814215411, 9316916147",30.8219,75.8668,12.0
Z Charging Station,Vadodara,"Sai Vihar, Abbas Tyabji Rd, Jayesh Colony, Fatehgunj, Vadodara, Gujarat 390002",22.3213,73.1881,12.0
VEEV Brookfields,Coimbatore,"67-71, Dr Krishnasamy Mudaliyar Rd, Ram Nagar, Coimbatore, Tamil Nadu 641001",11.0096,76.9589,12.0
Lake Pleasant Cottage Charging Station,Bhimtal,"Naukuchiyatal  Bhimtal, Near GD Goenka School 263136 - UK",29.3237,79.5921,12.0
Nandavan DC Charging Station Nagoan,Nagaon,"Nandavan, Mahajan Wadi, Near Bhimeshwar Mandir, At Post Nagaon, Taluka Alibag, Dist. Raigarh, Pin 402204, Phone no Kedar Bane, +919923724004, Prashant Mahajan - +919619174428",18.6184,72.9004,12.0
Uniworld Garden Charging Station,Gurugram,"Plot No 1025, 2nd Floor, C block , sector 47, Haryana 122008",28.4273,77.0389,12.0
Unnati Social Foundation,Pimpri-Chinchwad,"Unnati Social Foundation Jarvari Society, Opposite PK International School, Pimple Saudagar, Pune",18.5948,73.7975,12.0
"HP PETROL PUMP - SAI PETROLEUM,MUMBAI",Bengaluru,"Village Katai gao, Kalyan - Shilphata Rd, Dombivli East, Mumbai, Maharashtra 421203",19.1709,73.0819,12.0
"ShriSamarth DC Charging Station, Beed",Bengaluru,"EV Charging Station, Near Mancott Jining Gevrai Road, NH 61, Phule Pimpalgaon, Maharashtra 431142",19.1779,76.168,12.0
CNV Enterprises - HP Petrol Pump,Bengaluru,"No 65/20,Nallurahalli Siddapura main road,Nallurahalli main rd., Whitefield, Bengaluru,Karnataka-560066.",12.9653,77.7331,12.0
Unity Mall Charging Station Vasai,Vasai-Virar,"Unity Mall, Stella Road, next to Big Bazzar, Bhabola, Vasai West, Maharashtra 401201",19.3593,72.8123,12.0
Advant IT Park DC Charging Station Noida,Greater Noida,"Advant IT Park, Plot No. 7, Noida-Greater Noida Expy, Sector 142, Noida, Uttar Pradesh 201305",28.5007,77.4102,12.0
Trimurtys Ariana AC Charging Station,Jaipur,"Trimurtys Ariana, Khasara No 211-213, Sector 30, Ramnagaria, Tehsil, Sanganer, JDA Colony, Jagatpura, Jaipur, Rajasthan 302017",26.8312,75.8663,12.0
Nandi Park Apartments,Bengaluru,"Nandi Park Apartments Gottigere, Bengaluru, Bangalo Karnataka, Indiare, Bangalore, Karnu0101taka",12.8585,77.593,12.0
Crowne Plaza Jaipur,Jaipur,"Plot No SP 1, Sitapura Industrial Area, Tonk Road, Jaipur, Rajasthan, 302022 ",26.7797,75.8282,12.0
Pendse Garage AC Charging Station,Nashik,"Pendse Garage, At post diveagar tal Shriwardhan dist raigad 402404 Phone: 9423837934",18.1655,72.9929,12.0
Hans Resort DC Charging Station Rewari,Nashik,"Hans Resort, 91 Milestone, Delhi-Jaipur Highway, near Kasola Chowk, Rewari, Haryana 123401",28.1254,76.6368,12.0
Saviruchi Veg DC Charging Station Mysore,Nashik,"Saviruchi Veg, Sri Venkateshwara Arcade, Malavalli, Karnataka 571430",12.3847,77.0532,12.0
ElectriVA Test Station,New Delhi,"3409/1, 3rd Floor, Desh Bandhu Gupta Rd, Karol Bagh, New Delhi-110005",28.6539,77.1905,12.0
Sarode Motors Ac EV Charging Station Nashik,Nashik,"Sarode Motors | Joy eBike, Shop No.01, Beside of Hotel Happy Foods, Sarode Motors, nearby Balbharati, Lekha Nagar, Nashik, Maharashtra 422010",19.9758,73.776,12.0
The Nile AdPod,Gurgaon,"The Nile, Sohna, Gurgaon - Delhi Expy, Rosewood City, Ghasola, Sector 49, Gurugram, Haryana 122018",28.4113,77.051,12.0
Hotel Daulat Nikol Fast Charging Station,Nashik,"Hotel Daulat Food Mall, Mumbai Agra Highway, Shirwade (Vani) Tal: Niphad, Dist: Nashik",20.2137,74.041,12.0
New Udaan Bhawan AdPod 1,Gurgaon,Indira Gandhi International Airport,28.553,77.0944,12.0
New Udaan Bhawan AdPod 2,Gurgaon,Indira Gandhi International Airport,28.5537,77.0943,12.0
Decathlon Anubhava,bengaluru,"Survey No 78/10, A2, Bellary Road, Bangalore Airport Road, Chikkajala,",13.169102,77.632018,6.0
Forum Shantiniketan,bengaluru,"Whitefield Main Road, Hoodi, Thigalarapalya, Krishnarajapura, Bengaluru, Karnataka ",12.9892355,77.7279077,6.0
Park Square Mall,bengaluru,"UB1 Parking.40, ITPB Main Road, International Tech Park, Whitefield Main Rd, Pattandur Agrahara, Whitefield, Bengaluru, Karnataka 560066",12.9872999191284,77.7363967895508,6.0
GT World Mall,bengaluru,"Magadi Main Rd, next to Prasanna Theatre, Cholourpalya, Bengaluru, Karnataka 560023",12.9739999771118,77.551399230957,6.0
Orion Mall,bengaluru,"Dr Rajkumar Road, Rajajinagar,",13.011065,77.554534,6.0
Phoenix Market City,pune,"S No 207, Viman Nagar Road, Phoenix Road, Viman Nagar, Pune, Maharashtra",18.5619189099244,73.9166807269854,6.0
Phoenix Market City,bengaluru,"Whitefield Main Road, Mahadevpura, Bengaluru, Karnataka 560048",12.9970998764038,77.6962966918945,6.0
Patel's Inn,bengaluru,"No 1, 15th Cross, 2nd Block, Govindaraj Garden, R.T Nagar, ",13.0209071,77.5979841,6.0
Coco Jaunt 1728 - Anna Nagar,chennai," t-2, 4th Main Rd, Anna Nagar West, Anna Nagar, Chennai, Tamil Nadu 600040",13.0902004241943,80.2174987792969,6.0
Infinitea,bengaluru,"6,ESI Hospital Road HAL 2nd Stage, 100 feet road, Indiranagar, Doopanahalli, Bengaluru, Karnataka",12.9689998626709,77.6361999511719,6.0
The Only Place,bengaluru,"Siddam Setty Complex, Museum Rd, Next To, Shanthala Nagar, Ashok Nagar, Bengaluru, Karnataka 560001",12.9730997085571,77.6033020019531,6.0
Fab Cafe,bengaluru,"915, Kenchena Halli Rd, Remco Bhel Layout, Kenchenhalli, RR Nagar,560098",12.934100151062,77.5171966552734,6.0
The Moonshine Project restaurant Jubilee Hills,hyderabad,"385, Road Number 82, Film Nagar, Jubilee Hills, ",17.4141998291016,78.4076995849609,6.0
Almond House Banjara Hills,hyderabad,"8-2-350/3/1, Next to Meena Bazar, Rd Number 3, Panchavati Society Colony, AK Enclave, Green Valley, Banjara Hills, Hyderabad, Telangana ",17.4270191,78.4434192,6.0
Go Native,bengaluru,"#64, 10th Main Rd, 4th Block, 5th Block, Jayanagar, Bengaluru, Karnataka 560041",12.922504,77.58476,6.0
TORQ92,bengaluru,"15, 5th Cross Road, Shantivana, Next to Sterling Park Apts, Kodigehalli Main Road, Sahakara Nagar, Bengaluru",13.057629,77.5871507,6.0
AtherSpace Indiranagar,bengaluru,"53, - 3rd main, 100th Feet Road, Defence Colony, Indira Nagar",12.9756002426147,77.6411972045898,6.0
Royal Airavatha,bengaluru," #749/1, Near R V Engineering College",12.9223003387451,77.4954986572266,6.0
Kriyates - Thoraipakkam,chennai,"No.361,Omr Escapade, Mada Koil Street, Okkiam, Thoraipakkam, Vivekananda Nagar, Thoraipakkam, Chennai, Tamil Nadu 600097",12.924971,80.233677,6.0
Phoenix Market City - Velachery,chennai,"142, Velachery Rd Indira Gandhi Nagar, Velachery Chennai, Tamil Nadu 600042",12.9914084,80.2143054,6.0
Forum Vijaya Mall - Vadapalani,chennai," B1 Basement, No. 183, Arcot Road, NSK Salai, Vadapalani, Chennai, Tamil Nadu 600026",13.049952,80.209499,6.0
Ampa Skywalk,chennai,"No:1, Nelson Manickam Road, 627, Poonamalee High Road, Aminjikara",13.0734394,80.2214957,6.0
AtWorks - Guindy,chennai,"39, North Parade Road, Chakrapani Colony, St Thomas Mount, Chennai, Tamil Nadu ",13.0060668,80.1999835,6.0
Cafe Azzure,bengaluru,"No 315, CMR Road, 3rd Block, HRBR Layout, Kalyan Nagar,",13.023563,77.635275,6.0
Almond House Kukatpally,hyderabad,"490, JNTU - Hitech City Road, K P H B Phase 3, Kukatpally, Hyderabad, Telangana",17.485859,78.39042,6.0
Sarath City Capital Mall,hyderabad,"Capital Mall, GF-070 & 071, Sarath City, Gachibowli - Miyapur Rd, Forest Dept Colony, Kondapur, Hyderabad, Telangana ",17.456842,78.364575,6.0
Atherspace Chennai,chennai,"No.153, Wallace Garden 2nd St, Thousand Lights West, Nungambakkam, Chennai, Tamil Nadu 600006",13.060965,80.248509,6.0
Athergrid CP,delhi,"A 221 road no 6, D Block, Connaught Place, New Delhi, 110037",28.633714,77.221904,6.0
The Bangalore Bakery,bengaluru,"No 30, Ground Floor, 1st Cross Road, Malleshwaram, ",12.9941754,77.57121,6.0
Almond House SD Road,hyderabad,"9-1-109/1B, Regimental Bazaar, Shivaji Nagar,",17.441011,78.503158,6.0
Chai Kahani - Sainikpuri,hyderabad,"colony, 1st Cross Vayupuri, Verka Residency, Vayupuri, Sainikpuri",17.486819,78.5431269,6.0
"Swiss Castle, Vidyanagar",hyderabad,"2-1-565/F/4, Nallakunta Main Rd, Vidya Nagar, Adikmet, Hyderabad",17.400595,78.508078,6.0
Bliss Bakery & Cafe,pune,"Narayan Tower, near, Narayan Annaji Shinde Rd, Salunkhe Vihar Society, Kondhwa, Pune, Maharashtra ",18.4788385,73.9013856,6.0
Flip Side,hyderabad,"ISB Rd, Financial District, Nanakramguda, Hyderabad, Telangana",17.4139784,78.3275492,6.0
Taj Mahal Hotel,hyderabad,"5-9-502, Gun Foundry Street Number 1, Gun Foundry, Abids",17.3916834,78.4766724,6.0
Sai Menaka Commercial Complex,bengaluru,"1599/01, BB Main Road, Nehru Nagar, Next to Old Postoffice, Old Town, Yelahanka",13.098157,77.59673,6.0
IDC Kitchen,bengaluru,"No 67, 80 Feet Road, KGEHBS Layout, Devasandra, RMV 2nd Stage, Armane Nagar,",13.028052,77.572997,6.0
Kalinga Veg Gourmet Kitchen,pune,"1st - 3rd Floor, House of Nosh, CTS 1365, Gulawani Maharaj Road, Swaroop Society, Vakil Nagar, Erandwane, Pune, Maharashtra ",18.5050103,73.8316238,6.0
CopaCabana,pune,"Near, Aundh-Wakad Road, Jagtap Dairy Rd, Vishal Nagar, Pune, Maharashtra 411027",18.5887678,73.7825231,6.0
TamTree,pune,"Shop No.5, Pragati Bhavan, Behind Natural Ice Cream shop, Ghole Rd, near Bal Gandharva Chowk, Shivajinagar, Pune, Maharashtra ",18.5231567,73.8476929,6.0
KB's Woodlands,pune,"B J Road Railway Station, Sadhu Vaswani Rd, near Pune, Maharashtra,Sadhu Vaswani Chowk",18.525182,73.8758609,6.0
"Sangeetha Mobiles, Chandra Layout",bengaluru,"Shop #89/A, G Floor, 9th Cross Rd, Chandra Layout",12.9607,77.529186,6.0
SPR CHENNAI FOOD COURT,chennai,"OLD NO: 76 , NEW NO: 112, VANAGARAM, Poonamallee High Rd, Chennai, Tamil Nadu 600095",13.0610823,80.1519339,6.0
VMR Squares,chennai,"No. 5 & 6 Next to Tollgate, 200 Feet Radial Rd, Oggiyamduraipakkam, Tamil Nadu",12.9500859,80.2365626,6.0
"Chai Kings, Porur",chennai,"No - 1/128 Ground Floor, Truck Road Iyyappanthangal, Porur",13.0370409,80.1398795,6.0
Ather Space Hyderabad,hyderabad,"Plot no. 1 & 2, Survey No - 64P, Rohini Layout Opp Shilparamam, Hitech City, Madhapur",17.452666,78.380343,6.0
M's Street,chennai,"N0, 396/1, Mambakkam - Medavakkam Main Rd, Munusamy Nagar, Vimala Nagar, Medavakkam",12.9149592,80.1920666,6.0
Noma Talkies,hyderabad,"3-4-99, Nacharam - Mallapur Rd, May Flower Hights, Vivekananda Nagar, Mallapur, Secunderabad, Telangana",17.447469,78.57175,6.0
Regenta Central Antarim,ahmedabad,"Between Girish Coldrink and Xaviers Corner, Chimanlal Girdharlal Rd, Navrangpura, Ahmedabad, Gujarat ",23.0331669,72.5568133,6.0
"French toast, Panampilly Nagar",kochi,"8th Cross, Street B, Ambikapuram Rd, Panampilly Nagar, Ernakulam, Kerala",9.960854,76.2939207,6.0
"French Toast, Kacheripady",kochi,"Chittoor Rd, near Westend Eye Hospital, Kacheripady, Kochi, Kerala ",9.9878416,76.2827333,6.0
Centre square mall,kochi,"40/6972, Mahatma Gandhi Rd, Rajaji Junction, Kochi, Kerala ",9.9779338,76.2808706,6.0
The Food Drama,ahmedabad,"Besides Geetanjali Party Plot, near sterling cancer hospital Sindhu bhawan road Bodakdev, Ahmedabad, Bodakdev, West, Thaltej, Ahmedabad, Gujarat",23.044056,72.5099616,6.0
Tea Post - The Desi Cafe,ahmedabad,"Nr. Taj Lane Hotel, Sankalp Square Lane Nr. S. P. Ring Road, Sindhu Bhavan Marg, Road, Ahmedabad, Gujarat",23.04574,72.483755,6.0
Smarttron Automations,bengaluru,"4th Floor, 1031, 24th Main Rd, 1st Sector, HSR Layout, Bengaluru",12.917819,77.64921,6.0
Blue Tokai Coffee,mumbai,"Unit 20-22, Laxmi Woollen Mill, Opposite Blue Loft, Dr E Moses Marg, Off, Shakti Mills Ln, Mahalakshmi, Mumbai",18.989356,72.825234,6.0
VR Chennai,chennai,"Jawaharlal Nehru Rd, Thirumangalam, Anna Nagar, Chennai, Tamil Nadu ",13.0805465,80.197132,6.0
DSL Virtue Mall,hyderabad,"Near Rajiv Gandhi International Cricket Stadium, Survey Colony, Industrial Development Area, Uppal, Hyderabad, Telangana ",17.3998101,78.5551167,6.0
Jogo Infinite,kochi,"Louis Line, 3869a, Pandit Karuppan Rd, Perumanoor",9.9447031,76.2925099,6.0
Sixth Avenue Cafe,calicut,"Ground Floor Baby Arcade, PT Usha Rd, near GatewayHotel, Kozhikode, Kerala ",11.2582475,75.7747771,6.0
Dr. Cafe,calicut,"Kozhikode - Mavoor - Areacode Rd, Near Hindustan Petroleum, Velliparamba, Kozhikode, Kerala ",11.2698057,75.8436455,6.0
Cafe Kathaa,pune,"Unnamed Road, Fergusson college campus Rd, Shivajinagar, Pune, Maharashtra 411004",18.5207781331765,73.8405353264273,6.0
"Kumaran Silks, T Nagar",chennai,"12, Nageswaran Road, Parthasarathi Puram, T. Nagar",13.0406526,80.232646,6.0
Subway Aundh,pune,"1 Samar Paradise, DP Rd, Aundh, Pune, Maharashtra 411007",18.5604818759678,73.8050409881093,6.0
"Chai Kings, Sai baba colony",coimbatore,"No. 546 and 567, NSR Rd, Saibaba Colony, Tamil Nadu ",11.0268889,76.9485693,6.0
Adani Shantigram,ahmedabad,"Adani Shantigram, Gujarat 382421",23.1606011,72.5427391,6.0
Mugs And Brews - Cafu00e9 Restaurant,coimbatore,"23A Thudiyalur Road Sivasakthi Nagar, Saravanampatti",11.0809942,76.9911489,6.0
"1944 The Hocco Kitchen, Vaishnodevi ",ahmedabad,"Vaishnodevi Cir, Ahmedabad, Gujarat ",23.1347369,72.541765,6.0
Benjamin Bangalee,kolkata,"P/122, James Long Sarani, Majhipara, Kolkata, West Bengal ",22.4668437,88.3111551,6.0
Richy Rich - Race course,coimbatore,"Race Course Rd, Near Park, Race Course, Coimbatore, Tamil Nadu ",10.9984009,76.9765316,6.0
Suba International,mumbai,"Plot No. 211, Chakala, Sahar Rd, Opposite Cigarette Factory, Andheri East, Mumbai, Maharashtra",19.106207,72.860261,6.0
MCGM Parking || Runwal Anthurium,mumbai,"Runwal Anthurium Rd, opposite Veena Nagar, Vardhman Nagar, Mulund West",19.1806661685396,72.9468472363647,6.0
DLF Chennai,chennai,"Mount Poonamallee Rd, Manapakkam",13.0223,80.1749,6.0
Kabra Metro One,mumbai,"14, JP Rd, Aram Nagar, Seven Bunglow, Andheri West",19.1303012111998,72.8222972342668,6.0
Lumber Jack,pune,"TechKaTech Innovation Hub, Karve road, Opp to Vandevi Temple, above Hotel Marathi Bana, Mavale Basti, Hingne Budrukh, Karve Nagar, Pune, Maharashtra ,Karve Nagar",18.4931152837874,73.8154865931648,6.0
AtherSpace Pune,pune,"805, Bhandarkar Rd, Below Kung Apartments, Deccan Gymkhana, Pune, Maharashtra ",18.5186726,73.8302965,6.0
OMAXE Gurgaon Mall,gurugram,"71, Shanti St, Block S, Uppal Southend, Sector 49, Gurugram, Haryana ",28.4109579,77.042484,6.0
MCGM Parking || Club Aquaria,mumbai,"Devidas Lane, Shanti Ashram Borivali West, Near St.Lawrence High School, Mumbai, Maharashtra ,Borivali",19.2402364,72.8481819,6.0
Focus Mall,calicut,"Rajaji Road, Calicut-  Kerala, India",11.2586377,75.7857046,6.0
GM Cycle Parking Stand (Opp to sevai maiyyam),chennai,"No 43/G, Station Road, Thirumalairajapuram, Avadi, Chennai, Tamil Nadu ",13.117155,80.09997,6.0
"Grand Mall, Kochi",kochi,"Panvel - Kochi - Kanyakumari Hwy, Toll Junction, Edappally, Kochi, Kerala ",10.0244123,76.3089558,6.0
Hotel House Inn,noida,"BS-100, Basai, Sector 70, Noida, Uttar Pradesh ",28.5952291,77.3822213,6.0
Kotak Mahindra Bank,indore,"580, Mahatma Gandhi Rd, near Indraprastha Tower, Infront of, Race Course Road, Indore, Madhya Pradesh ",22.7229189,75.8793613,6.0
Dosa Magic,indore,"147 B, Moon Palace Colony, Near Annapurna Police Station, Annapurna Road, Indore",22.6959754,75.8422103,6.0
The blue roof Cafe,indore,"236, Bhawarkua Main Rd, near Anand Super 100, Indrapuri Colony, Bhanwar Kuwa, Indore, Madhya Pradesh ",22.689781,75.866902,6.0
Oyo Townhouse 118,delhi,"20, Gagan Vihar, Krishna Nagar ",28.646011,77.296796,6.0
Oyo Townhouse 381,delhi,"D/59, New Seemapuri Rd, Pocket E, Dilshad Colony New Simapuri, Dilshad Garden",28.68902,77.323102,6.0
Nukkad Tea Cafe,raipur,"75, Jalvihar Colony Rd, Civil Lines, Raipur, Chhattisgarh",21.2404762,81.6574975,6.0
Aaranyam Restaurant & Cafe ,raipur,"near Vedanta Balco Medical Center, Sector 24, Nawagaon Parsatti, Naya Raipur, Chhattisgarh ",21.134229,81.7723096,6.0
Ather Space Ahmedabad,ahmedabad,"Shop No. 01, Ground floor, 3rd Eye Vision Opp. Shivalik Plaza, near AMA, Panjrapole CharRasta, Ahmedabad, Gujarat ",23.0281973,72.5432892,6.0
"Cake Bee, Cantonment",tiruchirappalli,"3/A, Bharathidasan Salai, near Campion School, Cantonment, Tamil Nadu, Trichy",10.8024024,78.6824181,6.0
"Cake Bee, Singaram Nagar",tiruchirappalli,"Ground Floor, No.7, Singaram Nagar, Kattur, Trichy Tamil Nadu, Trichy",10.7967137,78.7563467,6.0
Aspire - Step Inn Sector 27,gurugram," opposite Jan Pratinidhi Apartments, Sector 27, Gurugram, Haryana 122009",28.4672823,77.0927632,6.0
Veg Aroma,nashik,"Gangapur Rd, Kale Nagar, Viveka Nand Nagar, Anandvalli, Nashik, Maharashtra ,Gangapur Road",20.0120574,73.7461884,6.0
The Cobble Street,nashik,"Gangapur-Savargaon Rd, Nashik, Maharashtra ",20.0144062,73.6983448,6.0
Brown Bites II,jaipur,"B-42, Sarthi Marg, Bhan Nagar, Jaipur, Rajasthan ",26.901567,75.751926,6.0
Lodha Florenza,mumbai,"On Western Express Highway, adjacent to Hub Mall, Cama Industrial Estate, Goregaon, Mumbai, Maharashtra ,Goregaon",19.1538114182866,72.8557957193731,6.0
"Ather Space, Coimbatore",coimbatore,"357, Patel Rd, Ram Nagar, Coimbatore, Tamil Nadu ",11.0113482,76.9598159,6.0
K Star Chembur,mumbai,"VN Purav Marg Diamond Garden, Basant Garden, Chembur Mumbai, Maharashtra,Chembur",19.052316305376,72.9016358109368,6.0
IIT Madras (ICSR),chennai,"Near Gajendra Circle, Opposite to Admin Building, Indian Institute Of Technology, Adyar, Chennai, Tamil Nadu ",12.9917014,80.232102,6.0
"Ather Space, Kochi",kochi,"Ponnurunni-Chalikkavattom Rd, Ponnurunni East, Ponnurunni, Vyttila, Ernakulam, Kerala ",9.98014,76.3173646,6.0
Treehouse Queens Pearl,gurugram,"SH 15A, Shanti Nagar, Shivaji Nagar, Sector 11, Gurugram, Haryana ,Gurgaon",28.4493495,77.0315967,6.0
Kala Ghoda Cafe,mumbai,"10, Rope Walk Ln, Kala Ghoda, Fort, Mumbai, Maharashtra ",18.9284545096609,72.8320303138997,6.0
UB City,bengaluru,"No 24, Vittal Mallya Road, KG Halli, D' Souza Layout, Ashok Nagar,",12.971406,77.595799,6.0
Trichi Kaveri Foods Private Limited,tiruchirappalli,"19, Main road, Annamalai Nagar",10.8330993,78.6845337,6.0
Signature Mall,ghaziabad,"Shop No. 2. Ground Floor Signature Street, G-Block, Govindpuram, Ghaziabad, Uttar Pradesh ",28.6910142131536,77.486384992674,6.0
 Hotel Noida International,noida,"Nagar Complex Noida Road Opposite Mercedes Showroom, Sector 11, Noida, Uttar Pradesh ,Noida",28.5967575,77.3282689,6.0
Carnival Cinemas Imax,mumbai,"Carnival Cinemas Imax, Anik Wadala Link Rd, Bhakti Park, Wadala, Mumbai, Maharashtra ,Worli",19.0313299,72.8809653,6.0
Hotel Parktel ,ghaziabad,"Omaxe Plaza, 583, Vijay Laxmi Pandit Marg, Near, Shakti Khand 2, Indirapuram, Ghaziabad, Uttar Pradesh",28.6463665,77.36784004418,6.0
Ardas Televentures Pvt Ltd,jaipur,"#147, Rathore Nagar, Amrapali Road, Vaishali Nagar",26.911545,75.74876,6.0
Cue Campus,hubli,"B 4 chetan complex opp kims main gate Vidhyagar, PB Rd, Vidya Nagar",15.360651,75.126774,6.0
Sony Center Bellad and Company,hubli,"Sony Center, Lamington Rd, Deshpande Nagar, Hubli",15.351334,75.141651,6.0
Bellad Towers,hubli,"Ground Floor Bannigida Stop, Gokul Rd ",15.351171,75.126191,6.0
Uma complex,chennai,"No 14, Professors colony extn, Indian airforce road, East Tambaram",12.9149033,80.1266472,6.0
"Coffee King, Adajan",surat,"1,2. Abhinandan Heights, Nr.madhuvan circle, LP Savani Rd, Adajan Gam, Adajan, Surat, Gujarat ",21.1917016,72.7900328,6.0
Oyo Townhouse 278 Rohini,delhi,"6-A, Pocket 27, Sector-24, Rohini, Delhi, 110085, New Delhi, Delhi",28.7328878,77.0841225,6.0
Ather Space Jaipur,jaipur,"BL Tower, 2, Tonk Rd, near Sanghi Farm, Durgapura",26.854201,75.794615,6.0
"Ather Space, Lajpat Nagar",delhi,"A-32, Feroze Gandhi Rd, Lajpat Nagar II, Delhi ",28.5705131,77.2368888,6.0
HiLite Mall,calicut,"G1003, NH 66, Kozhikode Bypass, Poovangal, Kozhikode, Kerala ",11.248533,75.8334487,6.0
Zozoz Pizzeria,hyderabad,"Rd Number 45, opposite Khazana, CBI Colony, Jubilee Hills, Hyderabad, Telangana ",17.4306503,78.4020035,6.0
"Heart Cup Coffee, Gachibowli",hyderabad,"Old Mumbai Hwy, next to HP Petrol Pump (Venkatadri Fuel Point, FCI Employees Cooperative Housing Society, Indira Nagar, Gachibowli, Hyderabad, Telangana ",17.4453566,78.3556014,6.0
NAKSHATRA PURE VEG,chennai,"No.93, Bazaar Road, Madipakkam Main Rd, Ram Nagar South, Madipakkam",12.9644294,80.2118897,6.0
Pepper & Tarragon Club Caffe,hyderabad,"Opposite to Aparna Sarovar, Nalagandla, Telangana ",17.46377,78.3088,6.0
"Ather Space, Trichy",tiruchirappalli,"20/C113, 5th Cross, Thillai Nagar,Trichy - 620018",10.8240776,78.684925,6.0
Narahari Silk House,hyderabad,"18-6-828, Lal Darwaza Rd, Balagunj, Lal Darwaza South, Lal Darwaza, Hyderabad, Telangana ",17.34763,78.475397,6.0
VR Surat,surat,"Dumas Rd, Magdalla, Surat, Gujarat ",21.1451737,72.7569487,6.0
WeFix Automobile,pune,"Plot no.27(Residential, PCNTDA, Sector 10, Shriram Colony, Bhosari, Pune, Maharashtra ,Bhosari",18.648377246379,73.8298662608401,6.0
The Vizag Drive In,visakhapatnam,"4-72-12, Beach Road, next to BPCL Petrol Bunk, Lawsons Bay Colony, Visakhapatnam, Andhra Pradesh ",17.7314545,83.3405749,6.0
"Ather Space, Visakhapatnam",visakhapatnam,"Railway New Colony Rd, Sri Siddi Enclave, Railway New Colony, Visakhapatnam, Andhra Pradesh ",17.727627,83.2957312,6.0
Hotel Yogi Midtown,mumbai,"Plot No DX 12,Thane - Belapur Road D' Zone Bonsari, Village, TTC Industrial Area, Turbhe, Navi Mumbai, Maharashtra ,Thane",19.0640261000026,73.0197154300262,6.0
"Breadworld, Jawahar Nagar",kochi,"Subhash Chandra Bose Road,  Jawahar Nagar, Kadavanthra,  Ernakulam, Kerala ",9.9721366,76.3020765,6.0
"Host The Hospitality Store (Breadworld, Thykoodam)",kochi,"Thykoodam Service Rd, Vyttila,  Thykoodam, Kochi,  Kerala ",9.96185111999512,76.31884765625,6.0
"Breadworld, Mavelipuram",kochi,"7/5 1 6- 1, 2, 3,  Seaport u2013 Airport Rd, Mavelipuram, Kakkanad, Kerala ",10.0231762,76.3411644,6.0
"Breadworld, Petta",kochi,"50/698 pushpamangalam Heritage, petta Maradu Road Near Gandhi Square",9.9449301,76.3354211,6.0
"Ather Space, Kozhikode",calicut,"MCC Cross Rd, Vellayil, Kozhikode, Kerala ",11.264453,75.7773662,6.0
AtherSpace JP Nagar,bengaluru,"292, Outer Ring Rd, J P Nagar Phase 5",12.9062039682694,77.5908095423095,6.0
Kohinoor MCGM parking,mumbai,"Kohinoor Square, Kasaravadi, Dadar, Mumbai, Maharashtra ",19.0246088948704,72.842820210728,6.0
AtherGrid - Bhavsar,nashik,"Shop No. 5, ITI Ambad Road Kartikey Nagar Stop, Kamatwade, Nashik, Maharashtra,Kuthwad",19.9782307026474,73.7468528059045,6.0
Bhavsar's AtherGrid 2,nashik,"18/08, Rajratna Nagar, Pawan Nagar, Nashik, Maharashtra ",19.9714488737097,73.7559054108409,6.0
BMC Parking Runwal Greens,mumbai," Nahur West, Industrial Area, Bhandup West, Mumbai, Maharashtra",19.1593952,72.945112,6.0
BMC Market Bhandup ,mumbai,"320, 3rd Floor, BMC Market, Station Road, Bhandup West, next to Dreamz Mall, Bhandup (W, Bhandup East, Mumbai, Maharashtra",19.1447758224472,72.9371466284051,6.0
Trichy Sarathas,tiruchirappalli,"No. 45, NSB Rd, Teppakulam, Tamil Nadu ",10.8267085,78.6959116,6.0
"Ather space, Indore",indore,"TBC Tower, Geeta Bhawan, AB Road",22.7194463,75.884181,6.0
DISHKO Eatery,trivandrum,"TC 26, Taj Arcade, 860(1, Bakery Jct Rd, Bakery Junction, Panavila, Thycaud, Thiruvananthapuram, Kerala ",8.4997772,76.9542647,6.0
Charminar Chowrasta Cafe,visakhapatnam,"12-43/4 GF, R K Nagar, Pothinamallayya Palem, Visakhapatnam, Andhra Pradesh ",17.8000838,83.3473927,6.0
Best Western Ramachandra Hotel,visakhapatnam,"8-8-36, GNT Rd, Medical Center, Gajuwaka, Visakhapatnam, Andhra Pradesh",17.6861805,83.2065285,6.0
Cygnett Inn Ramachandra,visakhapatnam,"31-2-4/5, NH16, opp. All India Radio Station, Kurmannapalem, Visakhapatnam, Andhra Pradesh ",17.6851429,83.1578664,6.0
Moondru Kambam Nellai Muthu Vilas Sweets & Bakes,coimbatore,"#422 A, Palakkad Main Rd, near Cassino Furniture, Kuniyamuthur, Tamil Nadu ",10.9611662,76.954832,6.0
"CakeBee, Sulur",coimbatore,"322/2 DEFENCE COLONY 2nd STREET, KADAMBADI VILLAGE, Sulur, Tamil Nadu ",11.024978,77.1667265,6.0
Tiruppur Sree Annapoorna,coimbatore,"Road, Rayan Kovil, Avinashi, Tamil Nadu ",11.1750315,77.2634385,6.0
Aastha Talkies,indore,"Near 452010, Patni Pura Rd, Nanda Nagar, Indore, Madhya Pradesh ",22.7431448,75.8841123,6.0
Ather Space Nashik,nashik,"Ather Space - Ather Energy's Experience Centre ( Patwa Auto Drive), Patwa EV Zone, Trimbakeshwar Rd, opp. Sebel Hotel, Nashik, Maharashtra",19.9944454848697,73.764436759524,6.0
"Just Loaf, Kozhikode",calicut,"Beach Rd, opp. Kozhikode Corporation Office, Mananchira, Kozhikode, Kerala , India",11.2541077,75.7712783,6.0
"Just Loaf, Perinthalmanna",malappuram,"Just Loaf, Perinthalmanna Jubilee Bypass, Road, Perintalmanna, Kerala , India",10.9882867,76.2250874,6.0
"Hocco Eatery, Vastral",ahmedabad,"MADHAV 99 19, Nirant Cross Rd, Mahadev Nagar Tekra, Ahmedabad, Gujarat ",22.9992398,72.6594584,6.0
Prestige Falcon Towers,bengaluru,"No 19, Brunton Rd, Craig Park Layout, Ashok Nagar,",12.971272,77.614552,6.0
Reliance Digital Kamlanagar,delhi,"37 Bunglow Road Kamla Nagar, opp. Amitabh Guest House, Civil Lines, New Delhi",28.6839369,77.2022968,6.0
Food Sixteen Restaurant,delhi,"Metro Station, A-16, Grand Trunk Rd, near Adarsh Nagar, Indira Nagar, Azadpur, New Delhi",28.7169145,77.168538,6.0
Abhay Graphics II,pune,"D-II, Plot no 32, Unit B - Near Kia Showroom, In front of HDFC Colony, Chinchwad",18.6532425324259,73.8034013253093,6.0
Miramar Residency - Blive,goa,"Miramar Beach, Miramar, Panaji, Goa",15.4845196013223,73.809121797395,6.0
Old Goa Residency- Blive,goa,"Near Old Goa Fire Brigade, Goa",15.5000488654027,73.9141273127392,6.0
Eham Digital,calicut,"2nd Unison Tower, Thondayad Junction Thondayad Bye Pass, near Star Care Hospital, Kozhikode, Kerala ",11.2648469,75.8109713,6.0
Darshan super market,chennai,"Chitrakoot Complex,No.91/18A,OMR,Egattur opp to Flsmidth,Chennai-603103,Chengalpattu, District, Chennai, Tamil Nadu ",12.8291702,80.2298531,6.0
Mall of Mysore,mysore,"No.C-1, M.G Road Indira Nagar, Nazarbad Mohalla, Extension",12.298036,76.663958,6.0
"Cafe Coffee Day, Gokulam Road",mysore,"6th Main, Gokulam Road, V V Mohalla Ground Floor, C/O Star Wing Building",12.326612,76.626866,6.0
CarTuneZ,chennai,"Mount Poonamallee Rd, Swaminatha Nagar, Goparasanallur, Chennai, Tamil Nadu ",13.0416621313573,80.1264474028141,6.0
Shree Shanthi's the garment shop,chennai,"1, 10th Cross St, near water tank. Customer care: 9940169111, 9789964111, Indira Nagar, Adyar, Chennai, Tamil Nadu ",12.9966632,80.2517792,6.0
The Smith's Cafe & bakery,chennai,"Balaji Nagar 2nd Cross St, Balaji Nagar, Ponniammanmedu, Chennai, Tamil Nadu ",13.125599,80.2241501,6.0
Sri Murugan Stores,chennai,"9&10, Tejraj colony, Agaram Main Rd, Selaiyur, Chennai, Tamil Nadu ",12.9056714,80.1421391,6.0
Firewood Restaurant,jaipur,"B-136A, RAJENDRA MARG, near JANTA STORE, CROSSING, BapuNagar",26.8898540600064,75.8089775422449,6.0
Oyo Silverkey 42750,gurugram,"170, Medicity, Islampur Colony, Sector 38,  Gurugram",28.434959,77.0442743,6.0
Amrit Residency,gurugram,"Opposite Ayyappa Temple, Dundahera, Surya Vihar, Sector 21, Gurugram",28.5184277,77.0719022,6.0
"Cafe coffee day, Kazhakootam, Trivandrum",trivandrum,"Queen Tower, Kazhakootam, Thiruvananthapuram, Kerala ",8.549333,76.877257,6.0
Peep Kitchen ,goa,"Risara Luxury , Ground Floor , Taliegao Market Road , Near Taliegao Near Taliegao Community Centre Taliegao, Panaji, Goa",15.4701676,73.8261271,6.0
Blive HO,goa,"Plot No. 22-B, GF-1, Happy Home Co-op. Soc, La Campala Colony, Miramar, Panaji, Goa",15.4853333,73.8135871,6.0
Karkhana - The Food Garage,raipur,"SHOP No. 12 JAI SHADARAM MARKET DHAMTARI ROAD, NH30, Raipur, Chhattisgarh ",21.1889342,81.7015232,6.0
Jyoti Guest House,jaipur,"8/238, Sector 8, Malviya Nagar, Jaipur",26.8433189,75.8037396,6.0
Xperia,ahmedabad,"Opposite Radhe Fortune, Bhat Circle, S.P Ring Road, Ah,edabad",23.1168523,72.6288522,6.0
Ather Space - Gujranwala Town,delhi,"A 11, GT Karnal Rd, near Vinayak Hospital, Block A, Gujranwala Town, Delhi, 110009",28.6990084,77.1833274,6.0
Navneet Institute,ahmedabad,"101-102, Prarthana Complex, nr. Kakadia Hospital, opp. Dinesh Chambers, Bapunagar, Ahmedabad, Gujarat ",23.040249,72.6307112,6.0
Shri Laxmi Kedar Jewellers,nashik,"Jijamata Rd, Bhandi Bazar, Saraf Bazar, Panchavati, Nashik, Maharashtra",20.0052029021044,73.791297380718,6.0
The Emerald Resort,pune,"Lonavala Annexe,Somatne, Old Mumbai - Pune Hwy, Near Pioneer Hospital, Tukaram Nagar, Talegaon Dabhade, Maharashtra ",18.7077154040181,73.6822930730169,6.0
Inox Bund Garden Road,pune,"Plot No.D, Bund Garden Rd, Pune, Maharashtra",18.5267515,73.8779382,6.0
Black Spate,jaipur,"G-6, Shreenath Tower, Sector 2, Central Spine, Vidyadhar Nagar",26.963612,75.7810224,6.0
Barista,pune,"Shop 1-6,82/2/2a, Sahkarnagar, Parvati, Pune, Maharashtra ",18.4845962800607,73.8496819997945,6.0
Precision Path Lab,jaipur,"72/2, Shipra Path, Patel Marg, Mansarovar, Jaipur, Rajasthan",26.8547202,75.7731708,6.0
Ather Space Goa,goa,"Betim-Pomburpa Rd, Alto- Betim Porvorim, Penha de Franu00e7a, Goa",15.5230657,73.825913,6.0
Ather test ride centre,hyderabad,"160/1, Patny Center, Sardar Patel Rd, Hyderabad, Telangana ",17.4435458,78.4798274,6.0
Prestige Khoday Tower,bengaluru,"No 5, Raj Bhavan Road, Vasanth Nagar",12.982728,77.594179,6.0
Prestige Saleh Ahmed,bengaluru,"No 24, Lady Curzon Road, Tasker Town, Shivaji Nagar,",12.980553,77.603318,6.0
Mama Panda,vijayawada,"Royal arcade, beside sweet magic , opp to dvmanor, MG Rd, Vijayawada, Andhra Pradesh ",16.4992397,80.6481963,6.0
AtherSpace Mysore,mysore,"#1A, A1, Hunsur Main Rd, Hinkal",12.325053,76.611337,6.0
Bamboo & Biryani,vijayawada,"40-3-18, Kalyanam Ramarao St, Venkateswara Puram, Sidhartha Nagar, Labbipet, Vijayawada, Andhra Pradesh ",16.5009139,80.6472927,6.0
Lodha Venezia CPL,mumbai,"GD Ambekar Marg, Lal Baug, Parel, Mumbai, Maharashtra",18.9917205,72.841513,6.0
Cafe Peter,pune,"Waman Ganesh Heights, Pashan Rd, Bavdhan, Pune, Maharashtra",18.5105106,73.7819022,6.0
Throttle Shrottle Moto Cafe,gurugram,"Faridabad - Gurgaon Rd, Baliawas, Bandhwari, Haryana 122102",28.428213,77.1405458,6.0
Inox R21,ahmedabad,"Plot No 145, 2nd Floor, Royal Honda Showroom, Sector 21, Gandhinagar, Gujarat ",23.2316208,72.6682058,6.0
Inox R16,ahmedabad,"Cluster_gandhinagar 2 Office, Sector 16, Gandhinagar, Gujarat ",23.2310524,72.648583,6.0
Acre Bengaluru,bengaluru,"No 63 , International Airport Road, Meenugunte, Jala Hobli, Yelahanka, Taluk",13.189056,77.644524,6.0
AtherSpace Hubli,hubli,"P. B. Road, Bhairidevarkoppa",15.387875,75.1016179,6.0
Antares Restaurant and Beach Club,goa,"Small Vagator, Ozran Beach, Vagator, Goa ",15.5940487274399,73.7349023341238,6.0
The Wood Apple Cafe,siliguri,"SONARTORI VILLAGE, Patel Road, Ward 2, Pradhan Nagar, Siliguri, West Bengal 734003",26.7286006,88.4163575,6.0
The Cindrella Hotel,siliguri,"3rd Mile, Sevoke Rd, Chayan Para, Salugara, Siliguri, West Bengal 734008",26.7555785,88.4418232,6.0
Cafe Cornucopia,mysore,"22nd Cross, 14th Main Rd, C Block, Vijay Nagar 3rd Stage, Garudachar Layout",12.316689,76.603223,6.0
Ather Space Raipur,raipur,"EC Location:  Atherspace Raipur, Shop No.2, Ground Floor, Plot No. 11/5, Block No. 94, Beside Hotel Mayura, Jai Stambh Chowk, Raipur, Chhattisgarh",21.243932,81.6347283,6.0
Ather Space - Janakpuri,delhi," Ground floor, BF-1, Janakpuri, Jail Road, New Delhi 110058",28.6255909,77.1009332,6.0
Ather Space Surat,surat,"G1 and G2, Milagro Milestone, opposite UM Road, Someshwara Enclave, Vesu, Surat, Gujarat ",21.1529496,72.778545,6.0
Ather Space - Lalbagh,lucknow,"38 A Foresith Road, Near Novelty Cinema, opp. Daya Nidhan Park, Lalbagh, Lucknow, Uttar Pradesh 226001",26.8458895,80.9379184,6.0
Magenta House - Mumbai,mumbai,"TTC Industrial Area, MIDC Industrial Area, Sanpada, Navi Mumbai",19.0687045429028,73.0229869206999,6.0
"Ather Space, Trivandrum",trivandrum,"Sycamore Complex, Plamoodu Junction, Pattom",8.5145049,76.9437173,6.0
"Ather space, Guindy, Chennai",chennai,"Near 111-110, Mount Rd, Guindy Institutional Area, Little Mount, Guindy, Chennai, Tamil Nadu ",13.0124771297175,80.2206032896631,6.0
Ranthal Gardens Restaurant,trivandrum,"near post office, Nemom, Kerala ",8.45477423944579,77.0024490353778,6.0
Kalikkalam Sports,trivandrum,"Opposite Infosys/UST, On Road Opposite Infosys Main Gate, behind Al Saj Arena, Poundukadavu",8.53396462982223,76.8807341186971,6.0
Ather Space Nagole,hyderabad,"Near Sunrise cars, Plot no.64/B, Mamatha Nagar, Nagole X Road, near Supraja Hospital, Hyderabad, Telangana ",17.377497,78.5580849,6.0
MGS Tata Autofab,lucknow,"C 52, Tedhi Pulia, Ring Road, Near Jagrani Hospital, Lucknow - 226022, Uttar Pradesh, India",26.8979557,80.9664589,6.0
The Hazelnut Factory,lucknow,"B 192, Niralanagar, Lucknow - 226020",26.8727547,80.9407119,6.0
"The Hazelnut Factory, Alambagh",lucknow,"LGF & UGF RB Tower, B-172, Kanpur Rd, Behind iDelta | Phoenix Mall, Lucknow, Lucknow, Uttar Pradesh 226005",26.7991124,80.8982589,6.0
Woods Cafe Indira Priyadarshani Park,ghaziabad,"Indira Priyadarshani Park, Arthla, Mohan Nagar, Ghaziabad, Uttar Pradesh 201001",28.6749316,77.3982382,6.0
Ansal Plaza Mall,noida,"ANSAL PLAZA MALL SHOPPING COMPLEX, Pari Chowk, Greater Noida, Uttar Pradesh 201310",28.4646154,77.5080343,6.0
MR Hypermarket,calicut,"Wayanad Rd, Moozhikkal, Kozhikode, Kerala ",11.296198,75.8307817,6.0
Ather Space Siliguri,siliguri,"Sevoke Rd, opposite Vishal Cinema Hall, Ward Number 13, Bankim Nagar, Siliguri, West Bengal ",26.7321074,88.4322712,6.0
Mitraa Super Market,visakhapatnam,"BRTS Rd, A Zone, Sujatha Nagar, Pendurthi, Visakhapatnam, Andhra Pradesh ",17.799256,83.210797,6.0
Patanjali Mega Store Sakkardara,nagpur,"205, Sakkardara Police Chowki Rd, Anand Nagar, Azamshah Layout, Nagpur, Maharashtra",21.129812213883,79.1148607177335,6.0
Patanjali Store Wardhaman Nagar,nagpur,"36-65, Nagpur - Bhandara - Rajnandgaon - Raipur Hwy, Chapru Nagar, Shashtri Nagar",21.148294,79.128434,6.0
"Throttle Shrottle Moto Cafe, Noida",noida,"Village rohillapur. Opposite step by step school sector-132, Noida - 201304",28.5123936,77.3743113,6.0
"Sangeetha Mobiles, HBR Layout",bengaluru,"No 54, 80 Feet Main Road, Next to Muthoot Finance, HBR Layout,",13.025618,77.629122,6.0
Hyatt Raipur,raipur,"National Highway 6, Jivan Vihar, Labhandih, Chhattisgarh ",21.239994,81.6840898,6.0
Vasant oasis ,mumbai,"Borosil Plot,off, Makwana Rd, Marol, Andheri East, Mumbai, Maharashtra",19.1146146,72.8840941,6.0
NMR Enclave,bengaluru,"7/22, NMR enclave, Ejipura main Road , Near Ejipura signal",12.942047,77.631059,6.0
Cafe Labasa Goa,goa,"590/III-A, Caramorod, Chinchinim, Goa",15.2251264,73.9795328,6.0
The Coffee Stories,pune,"2, Meher classic, shop no:2, opp N.K.Ashiyana society, Marketyard, pune, near unity bakers, Pune, Maharashtra ",18.4879225398295,73.8727627039089,6.0
"Sulaimani Club, Kottakkal",malappuram,"XXMX+J2F, Palathara, Kerala ",10.9841315056431,75.997859110154,6.0
Shree Purohit Thali ,nashik,"bus stop, Andhashala, Nashik - Pune Rd, Nashik, Maharashtra",19.9615119,73.8272912,6.0
Morning Star Car Accessories,goa,"Jackni Vaddo, Parra, Goa",15.5706252229647,73.7915868619433,6.0
"Magenta, Hosur Road",bengaluru,"Pattalama Layout, Hosur Rd, Singasandra ",12.876703,77.646505,6.0
"OFFROAD, Motorcycle Accessories Shop",trivandrum," Vazhayila - Kallayam Rd, Vazhayila, Padmanabha Nagar, Thiruvananthapuram, Kerala ",8.5513563,76.9726234,6.0
"The Chocolate Room, Bangalore",bengaluru,"No 412, 4th G Main Road, 2nd Block, HRBR Layout, Kalyan Nagar,",13.022915,77.639338,6.0
AtherSpace Nagpur,nagpur,"Ojas Building, Beside Batukbhai Jewellers, West High Court Road, Dharampeth",21.1393999805338,79.0604764831562,6.0
Xavier Institute of Engineering,mumbai,"Opposite S.L.Raheja Hospital, Mahim Causeway, Mahim (West), Raheja Hospital Marg, Mumbai, Maharashtra ",19.0452082935871,72.8415417466136,6.0
Purnima Sweet's,nashik,"Takli Rd, opp Vishwabharti society, Swanand Society, Dwarka, Nashik, Maharashtra ",19.9962790389959,73.8033591842543,6.0
"CADD Centre, RK Salai",chennai,"Yellow Pages Building, 25, Dr Radha Krishnan Salai, Dwarka Colony, Mylapore",13.044485,80.268708,6.0
"Adyar Ananda Bhavan, Navakari | Zeon",coimbatore,"285, Palakkad main road, Navakarai",10.8556755,76.862332,6.0
Lakshmi Pazhamudir And Supermarket,coimbatore,"post Gas company, Mettupalayam Rd, Ranganayaki Nagar, Dhamu Nagar, Therkkuppalayam, Coimbatore, Tamil Nadu ",11.138138477319,76.9407310322839,6.0
Decathlon Bannerghatta,bengaluru,"Bannerghatta Main Rd, Kalena Agrahara",12.863595,77.590927,6.0
"MR Hyper Market, Wayanad Road",calicut,"8V9M+CM3, Kozhikode, Kerala ",11.3185163,75.8842814,6.0
KR Journey Planners,surat,"Beside Sahaj Super Store, Anand Mahal Rd, Honey Park, Adajan Gam, Adajan, Surat, Gujarat ",21.1483732,72.7654739,6.0
KR Journey,surat,"p767, Ashwini Kumar Road, New GIDC",21.2126944261511,72.8451179602812,6.0
Shiven Satellite Vision,goa,"City Plaza, Phase 2, Pedda, Margao, Goa ",15.2697635073183,73.9549504486853,6.0
Detailing Bull,gurugram,"F7, Shushant Lok 2 Near Hong Kong Bazar, Sector 57, Gurugram, Haryana 122011",28.4195244,77.0885144,6.0
R R Sales,guwahati,"Saraf Building, Near Police Reserve RLY gate, no 2, Assam Trunk Rd, Guwahati, Assam",26.1763362,91.7404708,6.0
"Vishnu Tradex, Shreekunj Elegance",ahmedabad,"2 SHREEKUNJ ELIGANCE, near SAHAJ PARADISE BANGLOW, Ahmedabad, Gujarat ",23.0735526,72.520875,6.0
Naksh Auto World,ghaziabad,"Maharaja Agarsain Marg, Mohan Meakin Society, Sector 5, Vasundhara, Ghaziabad, Uttar Pradesh 201012",28.6635603,77.3740057,6.0
Royal Global University,guwahati,"NH-37, opp. Tirupati Balaji Temple",26.112203,91.7241576,6.0
Loom Solar Warehouse,faridabad,"Plot No. 21, 1, Mathura Rd, Pocket 3, Rajiv Enclave, Sector 6, Faridabad, Haryana 121006",28.3520623,77.3007942,6.0
"Ather Space, Guwahati",guwahati,"2nd Floor, JKON building, opp. Sonaram School, Bharalumukh",26.172606,91.7293442,6.0
Guy Car  Steamer,bengaluru,"No 60 Next to Sobha Classic 83-B Narayanareddy Layout, Haralur Main Rd",12.904089,77.662251,6.0
AtherSpace Belgaum,belgaum,"Bellad Enterprises, Vengurla - Belgaum Rd, Vinayak Nagar, Vijaynagar, Belagavi",15.868772,74.487863,6.0
Ather Service Centre,guwahati,"House No 20,Janapath Lane,Ulubari",26.170766,91.7608176,6.0
Ather Space Vijayawada,vijayawada,"KP Nagar Main Rd, Gurunanak Nagar, K P Nagar, Benz Circle, Vijayawada, Andhra Pradesh ",16.5007264,80.6574292,6.0
Turf Trident,chennai,"56, Lakeview garden, Korattur",13.1221926,80.1890017,6.0
Ather Space Tirupati,tirupati,"Vedhavyasa Bhavan, AIR Bypass Road, Royal Nagar, Tirupati, Andhra Pradesh ",13.6226445,79.414697,6.0
Area 51 - The cafu00e9 hideout,visakhapatnam,"Area 51- The cafu00e9 hideout, Hill view conventions, IT Sez,Hill No.2 Plot-F,on the way to Mouri tech, Andhra Pradesh ",17.8083501,83.3888006,6.0
Ather Space  Aurangabad,aurangabad,"Gopinath Chambers, Adalat Rd, near Chunilal Petrol Pump, Konkanwadi, Aurangabad, Maharashtra ",19.871912330989,75.3251880766865,6.0
"Ather space, Malappuram",malappuram,"SH 72, Kizhakkethala, Down Hill, Malappuram, Kerala 676505",11.0522217,76.0753978,6.0
"Ather Space, Tirur",tirur,"Pookkayil, Tirur, Kerala ",10.9235812,75.9131205,6.0
Ather Space Kolhapur,kolhapur,"C.S. No. 195K/2K, Kavala Naka, E-Ward, Kolhapur ",16.7075794321683,74.2510693844606,6.0
AtherSpace Rajajinagar,bengaluru,"No. 0025 (Old no.1003), 59th C Cross, 4th M Block, Sriram Mandir, Dr.Rajkumar Road, Rajaji Nagar",12.982706,77.560699,6.0
"Radisson Resort, ECR",chennai,ECR,12.6238102,80.1947665,6.0
Nikshan Electronics,kannur,"Nikshan Arena, Bank Rd, Padanapalam, Kannur, Kerala ",11.868744605859,75.3660221268055,6.0
"E Planet, Thalassery",kannur,"AVK Nair Road, Pilakool, Thalassery, Kerala ",11.7455443615496,75.4950197030621,6.0
Oyo Soho,noida,"D-141, Block D, Sector 51, Noida, Uttar Pradesh 201301",28.58066,77.37497,6.0
M R A Restaurant,kannur,"Kasaragod - Kannur Rd, Trichambaram, Taliparamba, Kerala ",12.0256266201313,75.367177336021,6.0
"AIMA Charging Station, Karinganad",malappuram,"Karinganad, Vilayur PO, Pattambi Taluk",10.8878,76.189669,6.0
Kekiz Malleswaram,bengaluru,"No 280, Ira Arcade, 18th Cross, Sampige Road,  Malleswaram,",13.008305,77.571179,6.0
Muthiah Towers,tiruchirappalli,"Muthiah Towers, 1, Royal Rd, Cantonment, Tiruchirappalli, Tamil Nadu ",10.799797,78.6807052,6.0
"Chai Point, Bellandur",bengaluru,"4, Marathahalli - Sarjapur Outer Ring Rd, Koramangala 6 Block, Bellandur",12.922427,77.668422,6.0
HOTEL REDWINGS CASTLE,mumbai,"Near to Orion Mall/ New Panvel Bridge, Old, Mumbai - Pune Expy,",18.9945351530371,73.1151324189656,6.0
Radisson Bengaluru City Center,bengaluru,"2, Gangadhar Chetty Rd, Yellappa Chetty Layout, Sivanchetti Gardens, Halasuru",12.976339,77.619717,6.0
Ather Space - Dehradun,dehradun,"56, Rajpur Rd, near Hotel Madhuban, IAS Officers Colony, Kairwaan Gaon, Dehradun, Uttarakhand 248009, India",30.3382561,8.0584541,6.0
Mealodroma,delhi,"A6, 110027, Najafgarh Rd, Vishal Enclave, Rajouri Garden, Delhi, 110027",28.6486023,77.1147014,6.0
Hotel Om Navratna,mumbai,"1/766, Old Mumbai Pune Highway, Near Agarwal Movers & Packers Ltd, at post Chouk",18.9014249045997,73.2365788533079,6.0
Ather Space Mangalore,mangalore,"No 3-30-2399/2, Pound Graden, Kadri Road,  Behind City Hospital",12.8785935,74.8513216,6.0
Ather Space Kannur,kannur,"Crux Mobility Pvt Ltd, City Tower, Near Har Cars",11.874322,75.3872,6.0
"Ather Space, Thrissur",trichur,"Autostarke Energy Pvt Ltd, 14/3 A1, Puzhakkal",10.54281,76.184562,6.0
Hitech Motors,tirupati,"Kanigiri - Tirupathi Rd, SV Auto Nagar, Tirupati, Andhra Pradesh",13.6292765,79.4619883,6.0
"Ather Space, Palakkad",palakkad,"KVR Green Energy Pvt Ltd , TS2 Ventures , Mercy College Junction",10.770167,76.637861,6.0
Cashew Tree ,goa,"Vaddy, Candolim, Candolim, Goa",15.5162506,73.7684465,6.0
MMA Matrix Gym,kolhapur,"MMA Matrix Gym, 1st Floor, Desai House, 7th Ln,",16.6936726519418,74.2410299261698,6.0
Akki's Bistro,kolhapur,"CS No 1082, Chandrameela Building, Near Krishna temple, Mohite park, Kolhapur, Maharashtra 416012",16.6856931,74.2084223,6.0
Roy ka rasoi,siliguri,"Netaji Subhas Road, Ward 20, Subhas Pally, Siliguri, West Bengal",26.7055489,88.4380447,6.0
Hotel Kuppana,tirupati,"5th Cross Rd, Tirumala Reddy Nagar, Mangalam, Tirupati, Andhra Pradesh 517507",13.648073,79.446494,6.0
Guru Sweets & Snacks,siliguri,"Khaprail Bazar Near R.P Trading, Khopalasi, West Bengal",26.7618706,88.3388182,6.0
Hotel Rasraj Parking Zone,mumbai,"Gaurav Automobile Compound, ,Ramnath Rd, opp. BVM Multiplex,",18.6509966955593,72.8740709203267,6.0
Crazy Coffee,jaipur,"Shop no. 9, Vardhman Nagar, near PUNO 200ft By Pass, Ajmer Rd, Jaipur",26.8838799908114,75.7397918152921,6.0
Sultan of Flavours Restaurant,palakkad,"Stadium Bypass Rd, Sultanpet, Palakkad",10.7672515526727,76.6603123172791,6.0
Kalanthans Cafe,kochi,"Palarivattom, Kochi",10.0026011738437,76.3040071197043,6.0
Devaragam Hotel,trichur,"Outer Ring Road, Opp Railway Station, East Nada, Guruvayur",10.595564727206,76.0443370352623,6.0
Ather Space Thane,mumbai,"Shop No. 4, Mansarovar, Opp. TMC Building, Almeda Rd,",19.1981177009338,72.9674150562047,6.0
Irani Chai,bengaluru,"294, 15th Cross Rd, Sector 4, HSR Layout, Bengaluru",12.91371,77.644164,6.0
"BESCOM,  KR Circle",bengaluru,"KR circle, Nrupathunga Road, Nunegundlapalli,  Ambedkar Veedhi, Bengaluru",12.9757032,77.5877251,6.0
"Ather Space, Kollam",kollam,"Raj Plaza Building, Kilikkolloor P.O, Kollam ",8.89921411695274,76.6129967442303,6.0
"Naattarasan, Urapakkam",chennai,"No: 245, GST Road, Opp to Indian Oil Bunk, Urapakkam, Chennai, Tamil Nadu ",12.8570595,80.0694857,6.0
Hungry Hippo,visakhapatnam,"50-49-43/A, TPT Colony, Balayya Sastri Layout, Seethammadara, Visakhapatnam, Andhra Pradesh 530013",17.7407038627437,83.311685815344,6.0
F3 Drive-in,hyderabad,"near Fusion International School, Ameenpur, Miyapur, Telangana",17.5173192,78.3188293,6.0
"IOCL - COCO Niti Marg, Chanakyapuri",Delhi,"Niti Marg, ChanakyaPuri, New Delhi-110021",28.599629,77.195806,7.0
"SNEH DHABA, NH 1 Ganaur",Ganaur,"64th Milestone, NH-1, Ganaur, Sonipat, Haryana 131101",29.157569,77.035833,7.0
"Sara Automobile, Dobhi",Gaya,"Sara Automobile Pvt Ltd, Eicher agency,NH-2  Opp:  Punjab National Bank, Suramandal near check post, Dobhi,  Gaya  PIN u00e2u0080u0093 824201",24.525355,84.932182,7.0
"GUGNANI AUTOCARS, Pratap Nagari",Cuttack,"PLOT NO- 785, PRATAP NAGARI, CUTTACK. State: ODISHA, Pin: 753011",20.40517,85.879782,7.0
"Varenyam Motor Car, Industrial Area",Bhopal,"56-57 JK Road Govindpura, Sector A, Govindpura Industrial Area, Bhopal, Madhya Pradesh 462023",23.259006,77.456769,7.0
"Jaika Motors, Civil Lines",Nagpur,Jaika Motors Pvt Ltd.Post Box No.1 Commercial Road Civil Lines Nagpur 440001,21.155667,79.078708,7.0
"IOCL Kini Causway, Bandra",Mumbai,"36, SV Rd, Santosh Nagar, Bandra West, Mumbai, Maharashtra 400050",19.051601,72.838011,7.0
"IOCL Hundred Percent Filling & Service Station, Dwarka",Delhi,"Sector 9, Dwarka, New Delhi, Delhi 110073",28.578641,77.05962,7.0
"Adisakti Motors, Davangere",Davangere,"No 628/K24, Shramajeevi Building, PB Rd, beside Aradhya Steel Wire Ropes, Avaragere, Davanagere, Karnataka 577003",14.441957,75.95206,7.0
"True Sai Motors, Avaragere",Krishnagiri,"No 417A/1A Krishnagiri Chennai Highway, Pethanapalli, opposite to Hotel, Krishnagiri, Tamil Nadu 635001",12.5306064,78.2375165,7.0
"True Sai Motors, Narasothipatti",Salem,"No 73 Salem, Omalur Highway, next to Hotel Grand Estancia, Narasothipatti, Salem, Tamil Nadu 636004,636001",11.682985,78.1260402,7.0
"Vikarsh Nano technology, Dhangarwadi",Satara,"Vikarsh Nano technology & Alloys pvt ltd, Gat No 273&274, Dhangarwadi village Tal- Khandala, Shirwal Dist- Satara 412801",18.11289,73.98985,7.0
"SR Tranzcars, Saibaba Koil",Coimbatore,"1142-A, Mettupalayam Rd, Saibaba Koil, Coimbatore, Tamil Nadu 641043",11.022849,76.951635,7.0
"Lakshmi Motors, Ambattur",Chennai,"#79, 80,81, NEAR WAVIN BUS STOP, Ambattur Industrial Estate, Chennai, Tamil Nadu 600058",13.0883447,80.1704698,7.0
"Lakshmi Motors, Velachery",Chennai,"No 42, Velachery Main Rd, Guindy National Park, Guindy, Chennai, Tamil Nadu 600032",13.0080236,80.22165,7.0
"Lilium Park, SH 44",Ahmednagar,"Hotel Lilium Park State Highway 44, Opp. Lemon Tree Hotel, Ahmednagar, Maharashtra 414106",19.26433634,74.82719974,7.0
"Oberai Motors,  ISBT Rd",Dehradun,"Near, ISBT Chowk, Shimla Bypass Rd, Majra, Dehradun, Uttarakhand 248001",30.289739,77.998788,7.0
"Ashok Auto Sales, Civil Lines",Agra,"119-120/8, Sanjay Palace, Sanjay Place, Civil Lines, Agra, Uttar Pradesh 282002",27.200798,78.008796,7.0
"IOCL - MC2, Industrial Area II",Chandigarh,"Indian OIL - MC 2 , Industrial area Phase-II MC Site, CHANDIGARH TOZIRAKPUR ROAD AT INDUSTRIAL AREA, PHASE-II, CHANDIGARH (U.T.), Chandigarh, PIN: 160002",30.69649,76.79662,7.0
"IOCL - COCO WRD, Agarkar Nagar",Pune,"Agarkar Nagar, Pune, Maharashtra 411001",18.5269679,73.8655123,7.0
"KVR Dream vehicles, Vidya Nagar",Kasargod,"Panalam Nayamar Moola, Alampady Manya Road, Vidya Nagar, PO, Kasaragod, Kerala 671123",12.51382323,75.02713173,7.0
"Sree Auto, BH Road Tumakuru",Tumakuru,"No 1 BH Road Near Gubbi, Gate, Tumakuru, Karnataka 572107",13.344796,77.080192,7.0
"IOCL COCO Chengampalli, Salem-Kochi Highway",Chengampalli,"Salem - Kochi Hwy, Vadamugam Kangayapalayam, Tamil Nadu 638812",11.213022,77.441968,7.0
"Hotel Vididhi, Kothagudam",Madgulapally,"Survey No. 173/2, 174/6, State Highway 2 NAM Expressway, Miryalaguda Highway Near Madugulapally Toll Plaza Kothagudam, Village, Madgulapally, Telangana 508247",16.991031,79.44047,7.0
"Select Cars, Hyderabad Rd - Kothirampur",Karimnagar,"No 8-6-396, Hyderabad Rd, Kothirampur, Karimnagar, Telangana 505001",18.417928,79.13639,7.0
"MIDAS, Muzzafarnagar",Muzaffarnagar,"PLOT NO. 77-1 Delhi - Haridwar, Bypass, Hwy, Muzaffarnagar, Uttar Pradesh 251001",29.4585464,77.7397628,7.0
"MIDAS Auto, Industrial Area ",Haridwar,"No E17 Old, Industrial Area, Haridwar, Uttarakhand 249401",29.942456,78.144234,7.0
"Basudeb Auto Limited, Shanti Nagar",Ranchi,"Basudeb Auto, Shanti Nagar, Plot No 11, Kokar Industrial Area, Shanti Nagar, Ranchi, Jharkhand 834001",23.371302,85.350737,7.0
"Matsya Amazon Kitchens, Kurnool Rd",Kurnool,"NH 44; Bangalore - Hyderabad  highway, Kurnool Rd, Andhra Pradesh 518216",15.576915,77.93704,7.0
"Utkarsh Mototech, Assam Trunk Rd",Guwahati,"Kamakhya Gate, Swastik Ayodhya Complex, Assam Trunk Rd, Guwahati, Assam 781009",26.164406,91.715516,7.0
"Hotel Grand Leela Krishna, Bhimavaram",Bhimavaram,"Undi Rd, Balusumoodi, Bhimavaram, Andhra Pradesh 534202",16.5451748,81.5199403,7.0
"Jadhav Solar & Automotives, Badnera","Amravati, MH","Jadhav Solar & Automotives Pvt.  Ltd., Jadhav E-Vehicles, Ground floor, Rangoli Pearl Hotel, Nawathe Square, Badnera Road, Amravati, MH- 444607",20.909443,77.7522447,7.0
"IOCL - SUJIT AUTOMOBILES, Bangalore-Kanyakumari Road",Butibori,"Bangalore - Salem - Madurai - Kanyakumari Road, Butibori, Maharashtra 441108",20.92258656,78.99986387,7.0
"Tata Steel Car Parking, Northern Town",Jamshedpur,"Northern Town, Jamshedpur, Jharkhand 831001",22.800099,86.188305,7.0
"Sakchi - Parking, Basant Central",Jamshedpur,"Sakchi, Jamshedpur, Jharkhand 831001",22.802611,86.203633,7.0
"Ambagan - Parking, Jubliee Park gate",Jamshedpur,"Ambagan, Sakchi, Jamshedpur, Jharkhand - 831001",22.808483,86.198276,7.0
"Hotel Sanskruti , Trambakeshwar Rd",Nashik,"Trambakeshwar Rd, Belgaon Dhaga, Nashik, Maharashtra 422007",19.973146,73.68105,7.0
"IOCL Manjalpur, GIDC Rd Manjalpur",Vadodara,"312, GIDC Rd, Beside Om Pippadiya Hanumanji Mandir, Ghanshyam Nagar Society 2, Manjalpur, Vadodara, Gujarat 390011",22.271793,73.190795,7.0
"RKL TML Showroom, Sec 9 GIDA",Gorakhpur,"AL -4A, Sector 9 GIDA , Gorakhpur, Uttar Pradesh- 273209",26.743642,84.263369,7.0
"IOCL - Citi Fuels, Virender Nagar",Delhi,OPP.-VIRENDER NAGAR NEAR BHARATI COLLEGE NEW DELHI,28.622486,77.09547,7.0
"SRM Motors, Vikas Nagar",Lucknow,"11/CP-2, Tedhi Pulia Ring Rd, Vikas Nagar, Lucknow, Uttar Pradesh 226022",26.900894,80.964231,7.0
"Shree Dev Wheels, Acharya Nagar",Ayodhya,"Plot No 402 and 403 B Sultanpur Road, Acharya Nagar, near Avadh University, Ayodhya, UP 224001",26.755089,82.141261,7.0
"IOCL - Gay Service Station, Azadpur",Delhi,"Near Azadpur, New Delhi,110033",28.703312,77.181109,7.0
"Ace Kudale Cycles, Manjri  Bk",Pune,"Manjri Bk, Pune, Maharashtra 412307",18.4957722,73.97893593,7.0
"Hotel Dreamland, ST Main Market Mahabaleshwar",Mahabaleshwar,"BUS STAND, MAIN MARKET, behind S.T, Mahabaleshwar, Maharashtra 412806",17.92564438,73.65552014,7.0
"ARDEE MALL, Sec 52 Gurgaon",Gurgaon,"Ardee City Road, Sector 52, Gurgaon-122022",28.444672,77.08082,7.0
"Hotel Baba Ramdev, Sirohi",Sirohi,"Hotel Baba Ramdev Campus, Nh. 62, near Paladi (m), Vera Vilpur, Sirohi, Rajasthan 307043",24.973775,72.895964,7.0
"ABC Autolink, NH 64 Ranoli",Vadodara,"No 1401, Ranoli GIDC, Vadodara, NH 64, Gujarat 391350",22.403828,73.13455,7.0
"Brookfield, Powai",Mumbai,"Spectra, High St, Hiranandani Gardens, Powai, Mumbai, Maharashtra 400076",19.11637,72.91086,7.0
"Brookfield, Powai",Mumbai,"Pay & Park, Central Ave, Hiranandani Gardens, Powai, Mumbai, Maharashtra 400076",19.11644,72.90968,7.0
"MG Ranchi, Line Tank Road",Ranchi,"Near Firayalals Pulsar Plaza, Line Tank Rd, Ranchi, Jharkhand 834001",23.371745,85.326113,7.0
"MG Bhubaneswar, NH 16",Bhubaneswar,"Plot No. 86/88, Near Apex Institute of Technology & Management, Pahala, NH-16, Bhubaneswar, Odisha-752101",20.352134,85.8903743,7.0
"Ginger Nashik , Satpur Colony",Nashik,"Plot No P 20 (Part), Satpur MIDC Near Satpur MIDC Police Station (Near Bank of India, Branch Nashik, Trimbakeshwar Rd, MIDC, Satpur Colony, Nashik, Maharashtra 422007",19.991881,73.743904,7.0
"TML- Sterling Motors , Renuka Nagar",Nashik,"PB No 033, Old Agra Rd, Gadkari Chowk, Renuka Nagar, Nashik, Maharashtra 422001",19.9932,73.783133,7.0
"IOCL Kevadia, Garudeshwar",Kevadia,"Survey No u00e2u0080u0093 422, 423 Village u00e2u0080u0093 Kevadiya, Taluka u00e2u0080u0093 Garudeshwar District u00e2u0080u0093 Narmada, Gujarat, 393151",21.885704,73.688136,7.0
"Satish Motors, Wanjarwadi",Aurangabad,"Plot No72/1 Saharanpur, Wanjarwadi Aurangabad 431002",19.911983,75.232932,7.0
"Heritage Motors, Ghodbunder",Thane,"Rosa Vista, MH SH 42, opp. Suraj Water Park, Thane, Maharashtra 400607",19.25612,72.97145,7.0
"IOCL Karari Fuels, NH 44 Kishangarh",Kisangarh,"NH 44, Kishangarh chownk, Jalandhar - Pathankot Rd, Punjab 144301",31.431348,75.620357,7.0
"IOCL Royal Petro, NH 44",Karnal,"NH 44, Near The Royal Paradise Resort , Karnal- 132001",29.731581,76.976511,7.0
"Sagar Motors, Sector 5 Noida",Noida,"B-123, Udhyog Marg, opp. PayTM building, B Block, Sector 5, Noida, Uttar Pradesh 201301",28.59093,77.31969,7.0
"Smile Stone Motels, Kamargaon",Ahmednagar,"76/B, Nagar-Pune Road, Kamargaon, Ahmednagar,Maharashtra-411 005",18.9852363,74.5760075,7.0
"One Awadh Centre, Gomti Nagar",Lucknow,"384, Vibhuti Khand, Gomti Nagar, Lucknow, Uttar Pradesh 226010",26.86372513,81.01027566,7.0
"IOCL COCO u00e2u0080u0093 Central Jail RO, Rambagh",Indore,"Snehlataganj, Indore, Madhya Pradesh 452003",22.335789,73.173794,7.0
"IOCL - Vrindavan Fuels, Mangal Nagar,Manikbagh",Indore,"Manikbagh, Mangal Nagar, Indore, Madhya Pradesh 452014",22.6848351,75.8558249,7.0
"Chandrani Enterprises, Bogra",Bardhaman,"N/536 BOGRA CHATTI National Highway 2 Paschim Burdwan. , Bogra, Bardhaman- 713332",23.663888,87.057978,7.0
"SS Motogen, Barwadda",Dhanbad,"NH 2 Kashitand, Nag Nagar, Barwadda, Dhanbad, Jharkhand 826004",23.848551,86.441642,7.0
"TC Motors, Domjur",Howrah,"NH 16, Salap More, near Kolkata West International City, Domjur, Howrah, West Bengal 711403",22.614383,88.273187,7.0
"Rangeet Auto, NH 31",Coochbehar,"31-NH CHOKCHOKA, OPPOSITE PROVA AUTOMOBILE, NEAR CHECK POST, COOCHBEHAR, COOCH BEHAR, WEST BENGAL, 736101",26.323416,89.484913,7.0
"Rangeet Auto, Rumtek Road",Gangtok,"R.P. ALLEY COMPLEX, ADAMPOOL, RUMTEK ROAD, GANGTOK, EAST SIKKIM, SIKKIM, 737135",27.305524,88.585965,7.0
"Rangeet Auto, Sevoke Road",Siliguri,"Shop No 1 And 2, Orchid Building, Sevoke Road, Near Check Post, Near Vega Mall, Siliguri, West Bengal 734001",26.750937,88.439995,7.0
"Tata Steel, Park Street",Kolkata,"43, Jawaharlal Nehru Rd, Kankaria Estates, Park Street area, Kolkata, West Bengal 700071",22.547449,88.349602,7.0
"Orange Auto, Erragadda",Hyderabad,"8-3-165, Beside Gokul Theatre, Erragadda, Hyderabad u00e2u0080u0093 500018",17.454398,78.434575,7.0
"Orange Auto, Karkhana",Hyderabad,"Plot No 54, Gayatri Westend Kakaguda, Karkhana, Secunderabad - 500015",17.45848,78.5,7.0
"Orange Auto, Hafeezpet",Hyderabad,"16ABC, Mini Industrial estate, Hafeezpet, Hyderabad, Telangana 500049",17.490308,78.354536,7.0
"KRAFT AUTO, Bokaro Industrial Area",Bokaro,"Plot no.- II/A 88, Phase - II,Bokaro Industrial Area,Bokaro - Jharkhand 827014 ",23.66473,86.073024,7.0
"Lexus Motors, New Town",Kolkata,"Plot No IID/13, Major Arterial Road (North Extension, 14, Rajarhat Rd, AA II, Newtown, Kolkata, West Bengal 700156",22.620585,88.461154,7.0
"Shankar Motors, Patliputra Industrial Area",Patna,"Shankar Motors Patna, C1, behind P & M Mall, Patliputra Industrial Area, Patliputra Colony, Patna, Bihar 800013",25.634199,85105514.0,7.0
"IOCL Drive-In, Belgachia",Kolkata,"Khudiram Bose Road (Guchia Rd), Dutta Bagan, Belgachia, Kolkata, West Bengal 700037",22.607396,88.392281,7.0
"Four Points By Sheraton, Tonk Road",Jaipur,"No. 1, City Square, Vasundhara Colony, Tonk Road, Jaipur, Rajasthan, 302016",26.8643722,75.7957703,7.0
"Four Points By Sheraton Hotel, Nagar Road",Pune,"5th Milestone, Nagar Road, Pune - 411014",18.562826,73.922392,7.0
"Fairfield by Marriott,Gachibowli",Hyderabad,"Road No. 2, Financial District, Gachibowli, Hyderabad, Telangana - 500032",17.423858,78.347334,7.0
"Fairfield by Marriott, Mahindra World City",Chennai,"Near Main Entrance, Mahindra World City, Chennai - 603002",12.730596,80.00463,7.0
"Four Points by Sheraton, Chennai OMR",Chennai,"Survey No 169, Plot 1B and 1A, Rajiv Gandhi Salai, Kumaran Nagar, Sholinganallur, Chennai-600119,Four Points 1, Semmancheri, Chennai, Tamil Nadu 600119",12.875613,80.227372,7.0
"Fairfield by Marriott, Ashram Rd",Ahmedabad,"Ashram Rd, Satyawadi Society, Usmanpura, Ahmedabad, Gujarat 380013",23.0522787,72.5710882,7.0
"IOCL - Ruchika Service Station, Mayur Vihar",Delhi,"KONDLI GHARAOLI,  MAYUR VIHAR PH-III NEW DELHI-110096",28.6034988,77.3354221,7.0
"Sagar Motors, Dilshad Garden",Delhi,"No ZB/43 487 & ZB, 44 487, Dilshad Garden, New Delhi, Delhi 110095",28.676246,77.31768,7.0
"IOCL Laxmi Narayan Petroleum, Changodar",Changodar,"National Highway 8A, Changodar, Gujarat 382210",22.9378139,72.455668,7.0
"IOCL Om Petroleum, Kamod",Kamod,"Kamod, Gujarat 382427",22.9247437,72.5434955,7.0
"IOCL Omkar Petroleum, Subhanpura",Vadodara,"High Tension Rd, Subhanpura, Vadodara, Gujarat 390023",22.3216986,73.154986,7.0
"Lexican Motors, Matigara",Siliguri,"Reliance Industrial Consortium Ltd. NH 31 Baniakhari, Kusumnagar Landmark, beside Barsana Hotel, Matigara, Siliguri, West Bengal 734010",26.729623,88.373903,7.0
"IOCL Shanthi Social Services, Singanallur",Coimbatore,"128, 2247, Trichy Rd, Krishnapuram Medu, Singanallur, Tamil Nadu 641005",11.00269216,77.0387079,7.0
"Hotel Mamalla Heritage, Fisherman Colony",Mahabalipuram,"104 east raja street, Mahabalipuram, Tamil Nadu 603104",12.61860448,80.19400597,7.0
"Motel Mamalla, SH 49",Mahabalipuram,"Motel Mamalla No.77, East Coast Road, SH 49, Mahabalipuram, Tamil Nadu 603104",12.6325138,80.1958391,7.0
"Pumpkin Tales, Alwarpet",Chennai,"37, 20, Bheemanna Garden St, Alwarpet, Chennai, Tamil Nadu 600018",13.033655,80.255285,7.0
"Mahati Industries limited, Shankar Sheth Road",Pune,"32/33, Shankar Sheth Road, B/H S T Workshop, Shankar Sheth Road, Pune, Maharashtra-411037",18.4995583,73.8685639,7.0
"Blue Moon Highway Restaurant, Bangalore-Hyderabad Highway",Anantapuram,"NH 44; Bangalore - Hyderabad  highway, 116/1B, Midthuru, Peddavaduguru, Anantapuram, Andhra Pradesh 515405",15.02395,77.620628,7.0
"Dion Automotives, Ankuli Bye Pass Road",Berhampur,"Ankuli Bye Pass Road, Berhampur, Ganjam Dist ODISHA 760010",19.298988,84.831762,7.0
"Shyam Automotive, AB Road",Indore,"A B Road, Before Emerald Heights School, Indore, Madhya Pradesh 453331",22.6520302,75.821321,7.0
"IOCL - Trishul Service Station, Pimpri-Chinchwad",Pune,"T-163, MIDC Bhosari, Pune, MIDC, Bhosari, Pimpri-Chinchwad, Piune-411026",18.6209574,73.8299842,7.0
"Aavas Hotels & Resorts, NH 16 Velampalli",Ongole,"NH 16, Vijayawada - Nellore Hwy, Vellampalli (Maddipadu) Ongole,  Andhra Pradesh u00e2u0080u0093 523211",15.6382976,80.0167529,7.0
"Bahubali Motors, Transport Nagar",Raipur,"Mumbai - Kolkata Hwy, Beside M.P Dhaba, Transport Nagar, Tatibandh, Raipur, Chhattisgarh 492099",21.2567897,81.5594445,7.0
"Malik Cars, Old Bowenpally",Secunderabad,"Adj Service Road Sri Sai Enclave, Old Bowenpally, Secunderabad, Telangana 500011",17.478362,78.4737723,7.0
"Sairam Automobiles, Krishna Nagar",Bhilai,"Sairam auto G. E Road, Krishna Nagar, Supela, Bhilai, Chhattisgarh 490023",21.2165392,81.401487,7.0
"Sairam Automobiles, Light Industrial Area",Khursipar," Zone III, Light Industrial Area, Khursipar, Chhattisgarh 490011",21.206036,81.3418606,7.0
"Shankar Motors, Prem Nagar",Bhagalpur,"Ground Floor, Sabour Rd, near Engineering College, Prem Nagar, Bhagalpur, Bihar 812002",25.2522094,87.0450289,7.0
"IOCL - NAVABHARAGAVA FILLING STATION, Vijayawada - Hyderabad Hwy",Vijayawada,"Vijayawada - Hyderabad Hwy, Ibrahimpatnam, Andhra Pradesh 521456",16.5812639,80.5263493,7.0
"Pacific Mall, Tagore Garden",Delhi,"Najafgarh Rd, Tagore Garden, Tilak Nagar, New Delhi, Delhi 110018",28.6422188,77.1058913,7.0
"Pacific Mall, Netaji Subash Palace",Delhi,"Pitam Pura, New Delhi, Delhi 110034",28.6933409,77.1531325,7.0
"Pacific Mall,  Dwarka",Delhi,"Dwarka sector 21 metro station, PACIFIC MALL, Sector 22 Rd, Sector 21, Dwarka, New Delhi, Delhi 110077",28.5512199,77.056702,7.0
"Pacific Mall, Sahibabad",Ghaziabad,"Plot Alpha, Sahibabad Industrial Area Site 4, Sahibabad, Ghaziabad, Uttar Pradesh 201010",28.6461808,77.3207891,7.0
"Pacific Mall, Rajpur Road",Dehradun,"Pacific mall, Rajpur Rd, Jakhan, Dehradun, Uttarakhand 248001",30.3662595,78.070528,7.0
"Tristar Auto Agencies, RK Beach Junction",Vizag,"Beside Kali Matha Mandhir, RK Beach Junction, Visakhapatnam-530002",17.71241304,83.3184811,7.0
"Zostel, Dandeghar",Panchgani,"Panchgani, Wai, Main Road, Dandeghar, Maharashtra 412805",17.9335258,73.8158574,7.0
"Rama Automobiles, Patilwada",Pune,"Ground Floor Pune Nasik Highway, Manchar, Shevawadi, behind Morde Food Product Company, Patilwada, Pune, Maharashtra 410503",18.99132729,73.94277954,7.0
"Hotel Temple View, Sai Nagar",Shirdi,"Sai Murali Complex, Manmad Rd, opp. Sai Temple Nagar, Sai Nagar, Shirdi, Maharashtra 423109",19.7650352,74.4754592,7.0
"Gramps Auto, Bampada",Balasore,"NH 16 (Old NH 5), Bampada, Balasore. State: ODISHA, Pin: 756056",21.497869,86.88961,7.0
"Jagdalpur Motors, Geedam Road",Jagdalpur,"Geedam Rd, Pandripan, Chhattisgarh 492099",19.0657802,81.9635956,7.0
"Pragati Trading, NH 37",Jorhat,"NH37, Jorhat, Assam 785006",26.7470487,94.1680718,7.0
"Yaksh The Art People, Delhi-Jaipur Highway",Sayri,"Yaksh, The Art People, Delhi-Jaipur Highway, Syari, Rajasthan 303002",27.1590851,75.9603844,7.0
"Oberoi Mall, Goregaon",Mumbai,"Western Express Hwy, Yashodham, Goregaon, Mumbai, Maharashtra 400063",19.1737611,72.8600172,7.0
"Parin Motors, NH8 Gondal Highway",Rajkot,"149, Plot No 2, Survey No, NH 8B, Gondal Highway, near Parin Furniture, Rajkot, Gujarat 360004",22.225264,70.801197,7.0
"IOCL RO u00e2u0080u0093 Basanti Hwy, Bayarmari",Bayamari,"Plot 392&393 Mouza, Bayarmari, Nazat Dist. North 24 Paraganas - West Bengal 743442",22.4380501,88.763395,7.0
"Ashutosh Motors, near NHPC Godown",Nagaon,"Biroh Bebejia Sensowa, near NHPC Godown, Nagaon, Assam 782002",26.3123315,92.6401864,7.0
"Daspalla Hotels, Jubilee Hills",Hyderabad,"Daspalla Hotels u00e2u0080u0093 (Jublee Hill Resorts Pvt Ltd)- Rd Number 37, CBI Colony, Jubilee Hills, Hyderabad, Telangana 500033",17.4368304,78.3983261,7.0
"Hotel Greenland Towers, NH 6 & 16 ",Rupnarayanpur,"NH 6&16, Industrial Area, Rupnarayanpur, West Bengal 721301",22.380721,87.365968,7.0
"Trupti Enterprises, Bhagabanpur Industrial Area",Bhubaneswar,"IDCO, Plot No 16, 17, 32&33 Bhagabanpur Industrial Area, Bhubaneswar, Odisha 751019",20.238165,85.756643,7.0
"Trimurti Petroleum, Panvel",Navi Mumbai,"GUT NO.151/2, VILLAGE - AJIVALI, TALUKA - PANVEL, RAIGAD, AJIVALI, 410216",18.9563188,73.1626506,7.0
"HP Service Center, Sola ",Ahmedabad,"F.P. No 232/1, Solaroad, Ahmedabad 380061",23.0633903,72.5317625,7.0
"HP Autocare , Bodakdev",Ahmedabad,"JUDGES BUNGALOW ROAD, T VILLAGE : BODAKDEV , CITY : AHMEDABAD 380054",23.0332201,72.5137528,7.0
"Daisy Motors, TML - CV, Hisar",Hisar,"Daisy Motors, 12th KM Stone, Delhi-Hisar Bypass, Road, Hisar - 125001",29.1259617,75.8027817,7.0
"Shree Balaji Autowheels, Moradabad",Moradabad,"Ground Floor, Delhi Rd, opposite Circuit House, Majhola, Moradabad, Uttar Pradesh 244001",28.828917,78.7328429,7.0
"IOCL - Tikri Gas, Delhi",Delhi,"Rohtak Road, Block C, Tyagi Vihar, Ghevra, Delhi, 110072",28.6868847,76.9849286,7.0
"Manickbag automobiles, Udyambag",Belgaum,"No 691, Bemciel Industrial Estate Khanapur Road, NH4 A, Udyambag, next to Bemco, Belagavi, Karnataka 590008",15.8191673,74.4937744,7.0
"Manickbag automobiles, Vidya Nagar",Hubli,"VIDYA NAGAR, DIST : Hubli, Karnataka 580031",15.369541,75.119095,7.0
"Sonaee Veg Family Restaurant, Pune-Solapur Highway",Uruli Kanchan,"National Highway 65 Yavat, Uruli Kanchan, Maharashtra 412202",18.487405,74.146125,7.0
"IOCL - Hemkund, Pasonda",Ghaziabad,"Khasra No 1746/2,Village u00e2u0080u0093 Pasonda,Tehsil- Sadar,Dist u00e2u0080u0093 Ghaziabad-201005",28.6765653,77.341822,7.0
IOCL Risal Petro Delhi,Delhi,"Burari Rd, opposite Sta Tpt Authority, Laldora, Jharoda, Jharoda Majra Burari, New Delhi, Delhi 110084",28.7324265,77.1986248,7.0
IOCL Paul Motors Delhi,Delhi,"Main Road, Sat Guru Ram Singh Rd, MS Block, Block F, Mayapuri Industrial Area Phase II, Mayapuri, New Delhi, Delhi 110064",28.61986668,77.11398244,7.0
"Yash Motors, Chittorgarh",Chittorgarh,"Meera smiriti sansthan gram ochari, nimbahera Road, Ochari,  Chittorgarh, Rajasthan 312001",24.8276645,74.6272935,7.0
"Kaveri Auto Garage, Seelapadi",Dindigul,"478/1A2, Trichy Bypass, Seelapadi, Dindigul, Tamil Nadu, 624005",10.3811273,77.99681425,7.0
"Kaveri Auto Garage, Paravai Bit 1 village",Madurai,"New Survey No 146/2C,148/1A,149/1B2A, Paravai Bit 1 village, Madurai, 625402",9.9642326,78.0650107,7.0
"Key Motors, Bannerghatta Road",Bangalore,"#215/15, Arakere Gate, Bannerghatta Main Rd, Bengaluru, Karnataka 560076",77.597289,12.889141,7.0
"The Grand Legacy, Panchgani-Mahabaleshwar Road",Mahabaleshwar,"Panchgani-Mahabaleshwar Road, Post. Met-Gutad, behind Saj Resort by Club Mahindra, Mahabaleshwar, Maharashtra 412806",17.92655754,73.69586565,7.0
"Highway Grand World, Chennai-Tirupati Highway NH 716",Tirupati,"Chennai - Thiruttani - Renigunta Hwy, NH716 - Veerakaverirajupuram, Andhra Pradesh, Nagari, Andhra Pradesh 517590",13.29360934,79.58170947,7.0
"Hotel Sapthagiri Holiday Resorts,Tirupati u00e2u0080u0093 Bangalore  Highway",Chittoor,"NH140, Tirupati u00e2u0080u0093 Bangalore  Highway, Sy No: 1201&1189, B G Mittor Village, Tanepalli, Puthalapattu Mandal, Chittoor, Andhra Pradesh - 517127",13.37412051,79.09210293,7.0
"Hotel Sapthagiri Holiday Resorts,Tirupati u00e2u0080u0093 Bangalore  Highway",Gadanki,"NH140, Gadanki, Andhra Pradesh - 517112",13.4799438,79.1897903,7.0
"Hotel Artland, Old Digha Purba",Digha,"Old digha purba, Digha Barrister Colony Rd, beside seahawk, West Bengal 721428",21.624423,87.528599,7.0
"IOCL Sree Devi Prasad Services, Naamavaram",Naamavaram,"Naamavaram, Andhra Pradesh 531126",17.3736805,82.5862594,7.0
"Lankeswari Motors, Hatpada",Jeypore,"Plot No 576, 577 & 580 Hatpada, Jeypore, Odisha 764001",18.8580983,82.5899867,7.0
"Nandi Food Plaza, Nalagam palli",Chittoor,"NH 69 - 174 Nalagampalli Chittoor-Bangalore Highway Close to Bangarupalem, Village, Nalagam palli, Andhra Pradesh 517416",13.2035919,78.9415658,7.0
"River Bay Resorts, Gautami Ghat",Rajahmundry,"Hotel River Bay Resort, 5-1-36 to 43 Gautami Ghat, Rajahmundry-533101",16.9921196,81.7735774,7.0
"Hotel Vivanta, Patrapada",Bhubaneswar,"IDCO Plot No1/A,Bhagbanpur Industrial Estate, DN Square, Patrapada, Bhubhaneswar -751019",20.240856,86.758382,7.0
"Morya Transport Terminus, MIDC Bhosari",Pune,Plot no BGP 109 Village MIDC Bhosari Taluka Haveli Pune 411026,18.621396,73.8384375,7.0
"DN Group Corporate Office, Nayapalli",Bhubaneswar,"VIP-15, VIP Colony, IRC Village, Nayapalli, Bhubaneswar, Odisha 751015",20.296189,85.8040445,7.0
"GUGNANI AUTOCARS, Mancheswar Industrial Estate",Bhubaneswar,"PLOT NO.-S, 3/48, Block C, Sector A, Mancheswar Industrial Estate, Bhubaneswar, Odisha 751010",20.3066647,85.8528189,7.0
"GUGNANI TYRES, Nayapalli",Bhubaneswar,"uco bank, 1294, CRP - DAV Rd, Nilakantha Nagar, Nayapalli, Bhubaneswar, Odisha 751012",20.2854839,85.8093251,7.0
"DN Regalia Mall, Patrapada",Bhubaneswar,"IDCO Plot No1/A, Bhagbanpur Industrial Estate, DN Square, Patrapada, Bhubhaneswar 751001",20.240903,85.758056,7.0
"Trupti Automotives, Mohammed Jamalpur",Keonjhar,"Keonjhar - Ghatgaon - Panikoili Rd, Mohammed Jamalpur, Odisha 755015",20.9187324,86.2169827,7.0
"Trupti Automotives, Angul",Angul,"NH 55, TELCO CHOWK, NUAHATA, Banarpal, Angul, Odisha 759128",20.8317557,85.2416603,7.0
"Sarawgi Motors, Saukuchi",Guwahati,"Sarusajai Stadium Garalia NH 37, Basistha, Saukuchi, near National Games Stadium, Assam 781040",26.111877,91.759799,7.0
"Umaid Lake Resort, Kalakho ",Dausa,"Karuna Enterprises kalakho (Umaid Lake Palaceu00c2u00a0 Village post Kalakho, NH 21 District Dausa, Rajasthan-303304",26.912864,76.466964,7.0
"Rajshree Resort, Saladwas",Jaipur,"KHASRA NO.131/1 AND 132/1, VILLAGE SALADWAS, CHANDWAJI, N.H.8 TEHSIL AMER, JAIPUR, Rajasthan - 303113",27.2377252,75.9485975,7.0
"Bravia Hotel, Vaishali Nagar",Ajmer,"Bravia Hotel, Vaishali Nagar, near Urban Haat, Rajasthan 305004",26.487745,74.6293164,7.0
"Dusk View Resort, near Bisalpur Dam",Beesalpur,"Dusk View Resort Near Fishing Landing Center 1 km from Bisalpur Dam Towards Toda Rai Singh, Beesalpur, Rajasthan 304804",25.936068,75.458672,7.0
"Hotel Shemron, Neemrana",Shahjahanpur,"Hotel Shemron, NH-8 Shahjahanpur, Neemrana, Shahjahanpur, Rajasthan 301706",28.0088483,76.4639783,7.0
"Dakshin Motors, NH - 4",Hiriyur,"NH-4 , Pattrehalli adivala village, Hiriyur- 577598",13.9241147,76.6400077,7.0
"IOCL - KOORAPATI SERVICE STATION, Tirupati",Tirupati,"TIRUPATI URBAN AND MANDAL Air bye-pass road. Tirupati, Chittoor Dist ANDHRA PRADESH",13.6207096,79.3828146,7.0
"IOCL - Sai Krupa Filling Station, SH 26",Anantapur,"SH 26, Vajrakarur to Guntakal Road SURVEY No.401-AIu00e2u0080u008b, Anantapur Dist. ANDHRA PRADESH,515722",15.1462972,77.3774561,7.0
"IOCL - PIONEER AUTO SERVICE, Bagdogara",Darjeeling,BAGDOGRA PO: BAGDOGRA DT: DARJEELING; West Bengal PIN: 734422,26.7006026,88.3293524,7.0
"Goyal Coal Sizing, Pendridih",Bilaspur,"Village: Sara Pendridih Seepat, Bilaspur By-Pass, Chhattisgarh 495330",22.0136612,82.0487988,7.0
"Mr. Lalit Jenau00e2u0080u0098s Site, Panikoili",Jajpur,"Beside Prasanta Filling Station(BPCL), Plot 1632, Mouza, Baliposi, PO: Baliposi, PS: Sathipur, Panikoili District, Jajpur 755025",20.9238315,86.2494284,7.0
"Prince Guest House & Restaurant, Transport Nagar",Raipur,"In front of Parking No 6 Transport Nagar, Rawa bata, Raipur, Chhattisgarh 492003",21.3194434,81.6372966,7.0
"Sasya Auto Cars, Bellari X Roads - NH 44",Kurnool,"Renault Showroom, 45/142-70-5-B, NH44 Near APSP 2nd Battallion, Bellari X Roads, Kurnool, Andhra Pradesh 518003",15.8305662,78.0179892,7.0
"Sasya Automotives, Near EENADU Office - NH 44",Kurnool,"Isuzu Showroom, Survey No-131-1 & 133-1A NH44 Near EENADU Office, Kurnool, Andhra Pradesh 518003",15.8498643,78.0045003,7.0
"HPCL - Badarpur Service Station, Gazipur",Delhi,"Integrated Freight Complex, Mayur Vihar Phase III, Gharoli, Delhi, Uttar Pradesh 110096",28.6197025,77.3411839,7.0
"Sree Gokulam Motors, Kattuppakkam",Chennai,"no 2/232, Mount ponamalle road,Swaminatha nagar, Pushpa Nagar, Kattupakkam, Chennai - 600056",13.0417246,80.1258208,7.0
"Malayalam Vehicles, Aluva",Aluva,"Building No 18/615/1, 615/2 Sy No 176/2, 176/3, Aluva West, near Pulichode Signal, Kerala 683101",10.0999671,76.3476841,7.0
"Malayalam Vehicles, Vytila",Kochi,"Sharon Tower, No 52/3171, 3172, opposite Salafi Masjid, Vyttila, Ernakulam, Kerala 682019",9.9644345,76.3184956,7.0
"Taj Hotels Chikmagalur, KM Road",Chikmagalur,"KM Road - Jyothi Nagar post, Chikmagalur- 577102",13.3366283,75.8178783,7.0
"PNR Function Hall, Chennai-Ballary Highway",Proddatur,"D No 7/3109 Sy No 622, Beside IOCL petrol pump, Korrapadu Road, Andhrakesari Nagar, Proddatur Municipality, Andhra Pradesh 516360 ",14.7529922,78.5550768,7.0
"DLF - The Crest, Sec 43",Gurgaon,"DLF Phase 5, Sector 43, Gurugram, Haryana 122002",28.4438196,77.1117253,7.0
"The Gateway Hotel, Ambad",Nashik,"Ambad, Nashik, Maharashtra-422010",19.9594519,73.7591054,7.0
"AB Infra Limited, old MIDC",Latur,"Plot No- F-54, old MIDC, Latur- 413531",18.4159831,76.5356299,7.0
"Hansa Motors, Buttibori",Nagpur,"NH 07, Plot no-X-273, Near Rajnayan Petrol Pump, Buttibori, Nagpur-441122",20.9286205,79.001812,7.0
IOCL - Tyagi Brothers Service Station,Ghaziabad,"IOCL on Ghaziabad bulandshahar Road, Stone No 26. 850 Vill Chhapraula Distt GB Nagar",28.6195483,77.4838183,7.0
IOCL - Vibhor S Station,Ghaziabad,IOCL on Ghaziabad - Hapur  Road (NH-24) At Mauza Garhmukhteshwar Near KM Stone No. 87 Dist Ghaziabad (UP),28.7712124,78.0976854,7.0
IOCL - AAUI Service Station ,Delhi,IOCL at Plot No 1 I P Estate Ring Road New Delhi,28.6179662,77.2487894,7.0
IOCL - Agarwal  Service Station,Muzaffarnagar,"IOCL on Khatauli Near KM Stone NO 15.5  On NH -58 Meerut/ Delhi  Muzzaffarnagar Road, Khasra No 1745/0752, Dist Muzaffarnagar, State UP",29.4118349,77.7006719,7.0
"Hotel Suba International, Andheri East",Mumbai,"Saharu00c2u00a0 Road, Near Cigarret Factory, Chakala, Andheri East Mumbai 400099",19.1063175,72.8603219,7.0
"Hotel Suba Galaxy, Andheri East",Mumbai,"NS Phadake Marg, Opp Teli galli,Near Eastern expres Highway, Andheri East Mumbai 400069u00c2u00a0",19.1142415,72.8518766,7.0
"Hotel Suba Palace, Fort",Mumbai,"Apppllo Bunder Road, Near Gate way of India, fortu00c2u00a0 Mumbai 400039",18.9241214,72.8328155,7.0
"Hotel Suba Grand, Dahej",Bharuch,"jolva village , dahej, bharuch ,State u00e2u0080u0093 24 Gujarat 392135",21.7164114,72.6562979,7.0
"Hotel Suba Elite, Fatehganj Main Road",Vadodara,"near Parsi Agiyari , Fatehganj Main Road, Vadodara u00e2u0080u0093 390 002 Gujarat 390002",22.3205834,73.1883779,7.0
"Click Hotel, Rane Nagar",Nashik,"904, Mumbai - Agra National Hwy, opposite Orchid International, Rane Nagar, Nashik, Maharashtra 422009, India",19.9625471,73.7652956,7.0
"Click Hotel, Raja Park",Jaipur,"Udai Marg, Raja Park, Jaipur, Rajasthan 302007",26.8923514,75.8257073,7.0
"Click Hotel, Cidco",Aurangabad,"Phulambri - Sillod Rd, Hudco, Yadav Nagar, N 11, Cidco, Aurangabad, Maharashtra 431003",19.9116134,75.348291,7.0
"Click Hotel, Junagadh",Junagadh,"Near Railway Station,Junagadh, Gujratu00c2u00a0u00c2u00a0 362001",21.52840996,70.45845795,7.0
"Click Hotel, Bhuj",Bhuj,"opp. Bhuj railway compound,Bhuj, Gujarat 370001",23.2655334,69.6786728,7.0
"Devarana, Delhi-Dehradun Highway",Muzaffarnagar,"Devrana, Delhi Dehradun Highway NH58, Muzaffarnagar, UP 251203",29.3313177,77.721274,7.0
"Roshan Motors, Shahpura",Shahpura,"Roshan Motors, NH-8 Neelka, district, Shahpura, Rajasthan, Pin-303119",27.4914624,76.0530077,7.0
"Gardenia SPA & Resort, Sec 11",Haridwar,Plot No 1 Sector 11 SIDCUL Haridwar Uttarakhand -249403,29.9512388,78.0759131,7.0
"Hotel Flora, Shivalik Nagar",Haridwar,"M3, M4  Shivalik Nagar Haridwar Uttarakhand -249403",29.9276885,78.0648679,7.0
"Misty Mountain Teyla, Peermade",Kuttikkanam,"HXJC+526, Peermade, Kuttikkanam, Kerala 685531",9.5802797,76.9701859,7.0
"Click Collection, Sindhi Camp",Jaipur,"Plot No 1, 2, opposite Polovictory Cinema, Sindhi Camp, Jaipur, Rajasthan 302001",26.9206169,75.7975173,7.0
"Sree Venkateswara Motors, Dasnapur",Adilabad,"Plot No 8, Survey no - 21/4, industrial area, Dasnapur, Adilabad u00e2u0080u0093 504001",19.6560251,78.52951,7.0
Volltic DCS06,Bangalore,"GF, 11F Salarpuria GR Tech Park, Khatha No 69/3, Mahadevapura CMC Ground-8 &10 FL, Whitefield Road, Bengaluru, Karnataka 560066",12.98452275,77.74323914,13.0
Volltic DCS01,Bangalore,"infosys limited, Konappana Agrahara, Electronic City, Bengaluru, Karnataka 560100",12.85190327,77.66662247,13.0
Volltic DCS012,Bangalore,"Tesco Campus Rd, Nallurhalli, Whitefield, Bengaluru, Karnataka 560066",12.97720222,77.72974546,13.0
Volltic DCS015,Bangalore,"E-Zone Club, No, 23/24, Outer Ring Rd, Chinnapannahalli, Marathahalli, Bengaluru, Karnataka 560037",12.96365147,77.70295917,13.0
Volltic DCS017,Bangalore,"117 & 118, Divyasree Technopark Main Rd, EPIP Zone, Whitefield, Bengaluru, Karnataka 560066",12.96986878,77.72521742,13.0
Volltic DCS02,Bangalore,"Prestige Tech Park, 8th Floor, Etamin Block, Marathahalli - Sarjapur Outer Ring Rd, 2, Kadubeesanahalli, Bengaluru, Karnataka 560103",12.94340928,77.69041467,13.0
Volltic DCS09,Bangalore,"Embassy Golf Links Business Park, Challaghatta, Bengaluru, Karnataka 560071",12.9472482,77.64471171,13.0
Volltic DCS018,Bellary,"Siri enterprises,Post Box No. 9, District Bellary, Toranagallu, Karnataka 583275",15.18446555,76.66276174,13.0
Volltic DCS03,Gurgaon,"Baba mallah plot, near lakshya tent house, village wazirabad, sector 52, gurgaon, haryana",28.25547179,77.05044021,13.0
Volltic PCS01,Gurgaon,"285, Baharampur Naya Marg, Baharampur Naya, Sector 61, Gurugram, Haryana 122011",28.40501523,77.09266673,13.0
Volltic DCS04,Gurgaon,"Vatika City, Block W, sector 49, gurgaon, Haryana",28.40596414,77.04509603,13.0
Volltic DCS05,Gurgaon,"Building no. 9, Candor TechSpace, IT/ITES SEZ, Tikri, Sector 48, Gurugram, Haryana 122018",28.42487691,77.03101261,13.0
Volltic DCS011,Gurgaon,"Institutional Area, Sector 32, Gurugram, Haryana 122018",28.44588294,77.04060087,13.0
Volltic HR001,Gurgaon,"Plot No u0096 283, Sector u0096 7, IMT Manesar, Gurugram, Haryana 122050",28.37480792,76.91054184,13.0
Volltic DCS016,Hyderabad,"Waverock, Virtusa Polaris, Financial District, Nanakaramguda, Telangana 500032",17.41816383,78.34665104,13.0
Volltic PCS03,Indore,"Paschim vidyut vitran co Ltd, GPH compound, Indore, Pologround,madhya pradesh",22.73778248,75.8612835,13.0
Volltic PCS04,Mumbai,"Gala No14 A, KBM compound, military road, raje shivaji nagar, marol, andheri east, 400072",19.12012455,72.88724762,13.0
Volltic DCS08,New Delhi,"Golden Ikon Fleet Management, Iffco chowk delhi",28.52360775,77.08321547,13.0
Volltic DCS014,Noida,"139,140 Noida special economic zone, A block, Phase 2, Noida, Uttar pradesh",28.54498268,77.39461034,13.0
Volltic UJ001,Ujjain,"8 Ghatkarpar Marg, above Mayank Traders, Madhav Nagar, Ujjain, Madhya Pradesh 456001",23.179326,75.78437678,13.0
BYPL Patparganj,Delhi,"Near Swati Apartment, Mother Dairy Marg, I.P.Extension, Mandawali, New Delhi, Delhi 110092",28.6305311,77.2926978,14.0
DLF Gateway Charging Station,Gurgaon,"IndusInd Metro Station, DLF Cyber City, DLF Phase 2, Sector 24, Gurugram, Haryana 122022",28.49807984,77.09116915,14.0
Shree Siddhi Vinayak Indian Oil Petrol Pump,Ahmedabad,"Shree Siddhi Vinayak Indian Oil Petroleum Judges Bangla, Satya Marg, Bodakdev, Ahmedabad, Gujrat",23.04430424,72.51767735,8.0
COCO Vejalpur Ahmedabad,Ahmedabad,"Next to Sachin Towers, shyamal Cross Roads, Anand nagar Cross Roads, Ahmedabad, Gujrat",23.01303861,72.52421557,8.0
EESL yelahanka,Bangalore,"Singanayakanahalli, Bangalore, State Highway 9, Yelahanka Rd, Yelahanka, Karnataka 560064",13.15280614,77.56897045,8.0
BESCOM HSR Layout,Bangalore,"HSR Layout Bengaluru, Karnataka - 560001",12.911365,77.648946,15.0
BESCOM BTM Layout,Bangalore,"BTM Layout Bengaluru, Karnataka - 560001",12.916948,77.610212,15.0
BESCOM Murugeshpalya,Bangalore,"Murugeshpalya Bengaluru, Karnataka - 560001",12.95903244,77.66355582,15.0
BESCOM Indiranagar,Bangalore," Bengaluru, Karnataka 560001",12.964421,77.644132,15.0
BESCOM Katriguppe,Bangalore,"Katriguppe, Bengaluru, Karnataka - 560001",12.926063,77.547841,15.0
BESCOM Byatarayanapura,Bangalore,"Byatarayanapura, Bengaluru, Karnataka - 560001",12.94980783,77.54076228,15.0
BESCOM Corporate Office,Bangalore,"Nunegundlapalli, Ambedkar Veedhi, Bengaluru, Karnataka 560001",12.97610693,77.58824006,15.0
BESCOM Mahadevpura,Bangalore,"Mahadevpura, Bengaluru, Karnataka - 560001",12.9947017,77.70020485,15.0
BESCOM Banaswadi,Bangalore,"Banaswadi, Bengaluru, Karnataka - 560001",13.0202335,77.64092334,15.0
Jai Hanuman Indian Oil Petrol Pump,Bangalore,"Jai Hanuman Service Station, Indian Oil Petrol Pump, No 82/1, Nagawara Main Road, Nagawara",13.04139,77.62059,8.0
BESCOM Mathikere,Bangalore,"Mathikere  Bengaluru, Karnataka - 560001",13.037895,77.55769,15.0
BESCOM Yalhanka,Bangalore," Yalhanka Bengaluru, Karnataka - 560001",13.095602,77.594068,15.0
Fuel Zone -Indian Oil Petrol Pump,Bangalore,"Fuel Zone RO, Bharti Nagar, Hunasamaranahalli, Bengalurum Karnataka - 560045",13.14069,77.617988,8.0
IOCL AB Enterprises,Chennai,"Old Mahabalipuram Rd, Semmancheri, Chennai, Tamil Nadu 600119",12.87627,80.22709415,8.0
IOCL Ms Immanuel Agencies,Chennai,"1, Kamarajar Salai, K P Nagar, Ramapuram, Chennai, Tamil Nadu 600089",13.03301719,80.18431324,8.0
IOCL Ms SRI SAI Balaji Agencies,Chennai,"Ayyavoo Colony, Nelson Manickam Rd, Aminjikarai, Collectorate Colony, Balavinayagar Nagar, Chennai, Tamil Nadu 600029",13.07514384,80.21984698,8.0
EESL Chennai Metrol Alandur Station,Chennai,"Alandur, Metro Car Parking Chennai, Tamil Nadu 600016",13.00444547,80.20161257,8.0
EESL Saidapet Metro,Chennai,"C/20-C/19, NH 45, Todd Hunter Nagar, Nandanam, Chennai, Tamil Nadu 600015",13.02450612,80.22884568,8.0
EESL Chennai Metro Nandanam station,Chennai,"Anna Salai, CIT Nagar West, CIT Nagar, Chennai, Tamil Nadu 600035",13.03152957,80.2399704,8.0
EESL Koyambedu,Chennai,"Koyambedu, Chennai, Tamil Nadu 600107",13.07376771,80.19493137,8.0
EESL Thirumangalam Metro,Chennai,"2nd Ave, L Block, Kurinji Colony, Anna Nagar, Chennai, Tamil Nadu 600040",13.0854925,80.20160618,8.0
EESL Anna Nagar East station,Chennai,"A Block, Annanagar East, Chennai, Tamil Nadu 600102",13.08478145,80.21972007,8.0
EESL Chennai Egmore Metro,Chennai,"Egmore, Chennai, Tamil Nadu 600008",13.07936745,80.26146373,8.0
EESL High Court station,Chennai,"Esplanade Rd, Parrys, George Town, Chennai, Tamil Nadu 600104",13.08738029,80.2851703,8.0
EESL SDA Market,Delhi,"Unnamed Road, Block C 5, Hauz Khas Enclave, Hauz Khas, New Delhi, Delhi 110016",28.54873377,77.19657963,8.0
EESL R block GK1,Delhi,"Hansraj Gupta Rd, Greater Kailash I, Greater Kailash, New Delhi, Delhi 110048",28.55155916,77.24469874,8.0
KSEBL Palarivattom,Ernakulam,"Executive Enginer, Electrical Division, Ernakulam",10.01921939,76.30459452,16.0
Mahindra first choice ,Gurgaon,"PLOT NO-21,SECTOR-61, near HBR CHOWK, Gurugram, Haryana 122005",28.42061615,77.10537261,16.0
HAREDA EESL Panchkula,Panchkula,"Akshay Urja Bhawan, Plot No-1, Sector 17, Opp Agarwal Bhavan, Panchkula, Haryana 134109",30.76862873,76.85381552,8.0
Nagole Metro staff Parking,Hyderabad,"Inner Ring Rd, Opp. Uppal RTO office, Uppal Main Road, Hyderabad",17.391095,78.558504,8.0
Punjagutta Next Galleria Mall Parking,Hyderabad,"Level B1, Next Galleria Mall, Puynjagutta, Hyderabad, Telangana 5600082",17.428624,78.450418,8.0
Hitech City Next Galleria Mall Parking,Hyderabad,"Level B1, Hitech City Next Galleria Mall, Puynjagutta, Hyderabad, Telangana 5600082",17.44798402,78.38432828,8.0
Miyapur Metro Parking,Hyderabad,"Nadigada Tanda, Miyapur, Hyderabad, Telangana - 500049",17.49699433,78.37194716,8.0
ChargeNest Bank of Baroda,Jamshedpur,"Bank of Baroda Parking Site, Jamshedpur",22.7941,86.1838,8.0
TSUISL N Town Substation,Jamshedpur,"N Town Substation, Jamshedpur",22.82275277,86.18177379,8.0
ANERT-EESL Ernakulam Kerala,Kochi,"Shanmugham Road, Ernakulam, Marine Drive, Kochi, Kerala 682031",9.977005426,76.27780265,8.0
Masstech Controls Pvt Ltd,Kolkata,"Indian Oil Bhavan 2, Gariahat Road, Jodhpur Park, Kolkata, West Bengal - 700068",22.50955717,88.36672101,8.0
EESL Shapoorji Bus Terminus Newtown,Kolkata,"Action Area III, Newtown, New Town, West Bengal 700135",22.56979794,88.51722683,8.0
EESL Tata Memorial Cancer Hospital,Kolkata,"14, MAR(E-W), DH Block(Newtown), Action Area I, Newtown, Kolkata, West Bengal 700160",22.57724568,88.47966408,8.0
EESL Axis Mall,Kolkata,"CF Block(Newtown), Action Area I, Newtown, New Town, West Bengal 700156",22.57892795,88.46050484,8.0
EESL New Town,Kolkata,"Near Tank, No 3, Street Number 24, Action Area 1A, Newtown, West Bengal 700156",22.57885907,88.45300713,8.0
EESL Business Club New Town,Kolkata,"AE Block(Newtown), Newtown, New Town, West Bengal 700059",22.58558231,88.456438,8.0
EESL ECO Park Gate no 1 New Town,Kolkata,"Major Arterial Road(South-East, Biswa Bangla Sarani, AA II, Newtown, Kolkata, West Bengal 700156",22.60315379,88.46715353,8.0
EESL Gate no 6 Eco Park New Town,Kolkata,"Ghuni Rd, AA II, Deshbandhu Nagar, Newtown, New Town, West Bengal 700156",22.60762511,88.46341447,8.0
EESL Gate no 4 Eco Park New Town,Kolkata,"Jatragachhi, Deshbandhu Nagar, Rekjuani, New Town, West Bengal 700157",22.61075181,88.46672221,8.0
"EESL Adhoc New Central , HPCL, New town",Kolkata,"Akhankha ho petrol pump, Newtown, Kolkata, West Bengal 700056",22.61822126,88.46650934,8.0
KSEB electrical section Olayil,Kollam,"Salem - Kochi Hwy, Olayil, High School Jun, Kollam, Kerala 691009",8.892999143,76.57939218,17.0
Vijay Securities ,Mumbai,"35, Chandivali, Off, Saki Vihar Rd, Andheri (E, Mumbai, 400072",19.10514321,72.8869012,8.0
Masstech controls Pvt ltd,Mumbai ,"2/7 Meghal Industrial Estate, Devidayal Road, Mulund West, Mumbai, Maharashtra 400080",19.17674569,72.94574801,8.0
EESL Nagpur,Nagpur,"Nagpur Songaon, Maharashtra, Songaon Nagpur India - 440019",21.0870127,79.0636227,8.0
KSEB Nemom,Nemom,"Karamana to Nagercoil Main Road, Nemom, Kerala 695020",8.453971667,77.00415034,17.0
PTC  IGI Airport,New Delhi,"GI Airport, T3 Road, Indira Gandhi International Airport, New Delhi, Delhi - 110037",28.54851804,77.10435748,8.0
Atul Automobile Vasant Kunj,New Delhi,"Vasant Kunj Mall Road, Pocket 5, Sector C, Vasant Kunj, New Delhi, Delhi 110070",28.52290663,77.15668214,8.0
EV Plugin Charge Vasant Square Mall,New Delhi,"Vasant Kunj Marg, Pocket 5, Sector B, Vasant Kunj, New Delhi, Delhi 110070",28.52544024,77.15590041,8.0
EESL Malviya Nagar Delhi,New Delhi,"Guru Gobind Singh Marg, Old Market, Block C, Malviya Nagar, New Delhi, Delhi 110017",28.53646664,77.21145062,8.0
EESL PVR Priya Delhi,New Delhi,"61, Community Center, Basant Nagar, Basant Lok, Vasant Vihar, New Delhi, Delhi 110027",28.55773691,77.1579439,8.0
BRPL Nehru Place,New Delhi,"BSES Bhawan, near Kalkaji Mandir metro station, Nehru Place, New Delhi, Delhi 110019",28.5495423,77.2545699,8.0
EESL Aurbindo Market Place,New Delhi,"Block C 2, Bhim Nagri, Hauz Khas, New Delhi, Delhi 110016",28.55177869,77.2033166,8.0
EESL Safderjung Enclave,New Delhi,"Block B6, Humayunpur, Safdarjung Enclave, New Delhi, Delhi 110016",28.55917249,77.19648462,8.0
EESL N Block GK1,New Delhi,"N Block, Greater Kailash I, Greater Kailash, New Delhi, Delhi 110048",28.55560464,77.23371054,8.0
NDSE Grid BRPL,New Delhi,"South Extension, Block E, South Extension II, New Delhi, Delhi 110049",28.86883053,77.14376226,8.0
EESL Dilli Haat,New Delhi,"NDMC Parking, Dilli Haat, West Kidwai Nagar, New Delhi - 110023",28.57357604,77.207152,8.0
EESL Sarojini Nagar Market,New Delhi,"Lal. Sai Hanuman mandir, Sarojini Nagar Market, Sarojini Nagar, New Delhi, Delhi 110023",28.57729829,77.19690865,8.0
EESL Laxmi Bai Market,New Delhi,"26B, Sri Aurobindo Marg, Aviation Colony, INA Colony, New Delhi, Delhi 110003",28.577623,77.2038986,8.0
Indraprastha Gas Limited Shantipath,New Delhi,"Shantipath Road, Shantipath, near Rail Museum, Moti Bagh, New Delhi, Delhi 110021",28.58267379,77.17947959,8.0
EESL Charak Palika Hospital,New Delhi,"F 203, Moti Bagh 1, Block F, North West Moti Bagh, New Delhi, Delhi 110021",28.58704293,77.17767714,8.0
EESL Yashwant Place Market,New Delhi,"Yashwant Place, Satya Marg, Chanakyapuri, New Delhi, Delhi 110021",28.58556496,77.1913234,8.0
EESL PSOI Club,New Delhi,"PSOI Club Chanakyapuri, New Delhi, Delhi 110021",28.58664525,77.19360781,8.0
EESL Khanna Market 1,New Delhi,"NDMC Parking, Opposite Goel Opticals, Khanna Market, Aliganj, Lodhi Colony, New Delhi -110003",28.580532,77.221048,8.0
EESL Palika Maternity Hospital,New Delhi,"Palika Maternity Hospital, block 11, Lodhi Colony, Near Khanna Market, New Delhi - 110003",28.583518,77.222057,8.0
EESL Khanna Market 2,New Delhi,"NDMC Parking, Opposite Dory Pharmacy, Khanna Market, Aliganj Lodhi colony, New Delhi - 110003",28.584365,77.22054,8.0
EESL Maherchand market Delhi,New Delhi,"Double story Market, Maherchand Lodhi Road , New Delhi - 110003",28.581051,77.227075,8.0
EESL Jor Bagh Market,New Delhi,"NMDC Parking, Outside RWA Park, Jor Bagh Market, Jor Bagh Colony Road, New Delhi - 110003",28.588117,77.217564,8.0
EESL Lodhi Garden,New Delhi,"NMDC Parking, Gate no 1, Lodhi Gardens, Lodhi Estate, Lodhi Road New Delhi - 110003",28.590402,77.220192,8.0
BSES Hazrat Nizamuddin,New Delhi,"Nizamuddin Railway Station, Nizamuddin East, New Delhi -110013",28.5885055,77.2570236,8.0
EESL Malcha Marg Market,New Delhi,"NDMC Parking, Dharma Marg, block- Y, Diplomatic Enclave, Malcha Market, New Delhi - 110021",28.601809,77.186432,8.0
EESL Khan Market,New Delhi,"NDMC Parking, Khan Market, New Delhi - 110003",28.600324,77.226883,8.0
EESL Prithviraj Market,New Delhi,"NDMC Parking, Prithviraj Market, Prithviraj Ln, New Delhi - 110003",28.600735,77.226277,8.0
EESL Hotel Claridges,New Delhi,"NDMC Parking, Side of Hotel Claridges, Tees January Marg, Dr. APJ Abdul Kalam Road, New Delhi -110011",28.599477,77.215583,8.0
EESL Hotel Claridges,New Delhi,"NDMC Parking, Side of Hotel Claridges, Tees January Marg, Dr. APJ Abdul Kalam Road, New Delhi -110011",28.601201,77.215975,8.0
EESL Talkatora Stadium,New Delhi,"Talkatora stadium Presidents Estate, New Delhi - 110004",28.62576517,77.19489108,8.0
EESL Talkatora Garden,New Delhi,"Rashtrapati Bhawan, President's Estate, New Delhi, Delhi 110004",28.62394449,77.19509853,8.0
EESL Press Club,New Delhi,"1, Raisina Road, Near Central Secretariat Metro, Windsor Place, New Delhi, Delhi 110001",28.61743816,77.21362374,8.0
EESL Chelmsford Club,New Delhi,"Opposite CSIR Building, Rafi Marg, Sansad Marg Area, New Delhi, Delhi 110001",28.61919904,77.21252935,8.0
EESL Akashwani Bhawan,New Delhi,"Sansad Marg, Pandit Pant Marg Area, Sansad Marg Area, New Delhi, Delhi 110001",28.62237102,77.21148694,8.0
EESL Sansad Marg,New Delhi,"NDMC Parking, Outside Standard Chartered Bank, Sardar Patel Bhawan, Sansad Marg, New Delhi - 110001",28.62463712,77.21405159,8.0
EESL Bharat Sanchar Bhawan,New Delhi,"Outside Bharat Sanchar Bhawan, Ashoke Road, Janpath, New Delhi - 110001",28.62433889,77.21983712,8.0
EESL Fab India,New Delhi,"62, Janpath Rd, Atul Grove Road, Janpath, Connaught Place, New Delhi, Delhi 110001",28.62772522,77.21977647,8.0
EESL ICICI Bank Janpath,New Delhi,"No 82, Janpath Rd, Janpath, Connaught Place, New Delhi, Delhi 110001",28.62891677,77.21975289,8.0
EESL FICCI Chowk,New Delhi,"FICCI Chowk, Todermal Road Area, Mandi House, New Delhi, Delhi 110001",28.62703859,77.23189591,8.0
EESL Jain Bhawan,New Delhi,"Jain Bhawan, 12, Shaheed Bhagat Singh Marg, Gole Market, New Delhi, Delhi 110001",28.6340764,77.20743317,8.0
EESL Barakhamba,New Delhi,"Fire Brigade Lane, Barakhamba, New Delhi, Delhi 110001",28.62981766,77.22595347,8.0
EESL Gopal Das Building,New Delhi,"New Barakhamba Rd, Connaught Lane, Barakhamba, New Delhi, Delhi 110001",28.63143715,77.22343991,8.0
EESL HP Petrol Pump,New Delhi,"Radial Rd Number 7, Block E, Connaught Place, New Delhi, Delhi 110001",28.63195905,77.22212172,8.0
"EESL Block M, CP",New Delhi,"K-11, Connaught Cir, Connaught Lane, Barakhamba, New Delhi, Delhi 110001",28.63314358,77.22298998,8.0
EESL Shanker Market,New Delhi,"11, Shankar Market, Connaught Lane, Barakhamba, New Delhi, Delhi 110001",28.63382667,77.22352744,8.0
EESL KTM,New Delhi,"NDMC Parking, Opp South Indian Bank, Block - E , RR6, Middle Circle, connaught Place, New Delhi - 110001",28.63372677,77.22193874,8.0
EESL M Block,New Delhi,"NDMC Parking, Outside Westebd Vedi Tailors, Block M, Middle Circle, Connaught Place, New Delhi - 110001",28.63385213,77.2218576,8.0
EESL Snow White,New Delhi,"D-8, D Block, Connaught Place, New Delhi, Delhi 110001",28.63410545,77.22086228,8.0
EESL Croma,New Delhi,"Ground Floor, Odeon Cine Complex, Middle Cir, D Block, Connaught Place, New Delhi, Delhi 110001",28.63418123,77.22131977,8.0
EESL Ferns n Petal,New Delhi,"C-17.Inner Circle Opp.Odean Cinema, Rajiv Chowk, Connaught Place, New Delhi, Delhi 110001",28.63457602,77.22062451,8.0
EESL Van Heusen,New Delhi,"Ground & Mazanine Floor, Rajiv Chowk, Block A, Connaught Place, New Delhi, Delhi 110001",28.63296432,77.21796241,8.0
EESL Block B,New Delhi,"Shop No. B-29, Inner Circle, New Delhi, Delhi 110001",28.6319879,77.21694388,8.0
EESL PVR Plaza,New Delhi,"Plaza Mall, Connaught Cir, Block H, Connaught Place, New Delhi, Delhi 110001",28.63518078,77.21960047,8.0
EESL Block H,New Delhi,"Connaught Cir, Block H, Connaught Place, New Delhi, Delhi 110001",28.63455142,77.21791736,8.0
EESL Iqbal Bros,New Delhi,"Marina Arcade, Middle Cir, Sector 1, Block G, Connaught Place, New Delhi, Delhi 110001",28.6339199,77.21740165,8.0
EESL Block A,New Delhi,"9 A, Phelps Building, Inner Circle, Connaught Place, New Delhi, Delhi 110001",28.63259875,77.21833827,8.0
EV Plugin Charge Cross River Mall,New Delhi,"Cross River Mall, Plot No - 9B & 9C, Basement, 2, CBD Ground, Shahdara, New Delhi, Delhi 110032",28.65740137,77.30219421,8.0
EESL Adwant Chowk Noida,Noida,"Noida-Greater Noida Expy, Sector 142, Noida, Uttar Pradesh 201305",28.49920006,77.41280883,8.0
ESSL SPCI Noida,Noida,"Road Between sector 124 & 125 & Beside SPCI Sector Road, Noida UP - 201313",28.544704,77.327263,8.0
ESSL Sector 50 Market,Noida,"B Block, Sector 50, Noida, Uttar Pradesh 201303",28.57088871,77.36212105,8.0
EESL Sector 51 Noida Afinity Salon,Noida,"Shop No 2, 1st Floor, Block B1-A, Sector 51, Above IDBI Bank, Noida, Uttar Pradesh 201301",28.5774085,77.36097525,8.0
EESL Ganga Shopping Complex Noida,Noida,"29, Sector 50 Block, A Block Rd, A-Block, Sector 50, Noida, Uttar Pradesh 201303",28.56789299,77.33526717,8.0
EESL Kirti Mann Plaza Noida,Noida,"16-C Indian Bank, Block E, Sector 30, Noida, Uttar Pradesh 201303",28.57299555,77.34050954,8.0
EESL RTO Office Noida,Noida,"opposite NTPC, Block A, Sector 32, Noida, Uttar Pradesh 201301",28.58764829,77.35208677,8.0
EESL Shopprix Mall Noida,Noida,"Maharaja Agrasen Marg, A-Block, Sector 61, Noida, Uttar Pradesh 201307",28.59717534,77.36480344,8.0
EESL Opp Sasta Sundar Hospital Sector 58 Noida,Noida,"A 94/7, A Block, Sector 58, Noida, Uttar Pradesh 201301",28.60488569,77.35958439,8.0
EESL HCL Sector 8 Noida,Noida,"B-26, B Block, Sector 8, Noida, Uttar Pradesh 201301",28.59505075,77.33041905,8.0
EESL Tata Advance Systems Noida,Noida,"Near Tata Advance Systems Sector - 59, Noida , UP- 201301",28.5961692,77.32663,8.0
EESL Jain air Travels Sector 2 Noida,Noida,"Opp C-101 Jain Air Travels, Sector 2 , Noida",28.58486471,77.31503159,8.0
EESL Alka Cinema Noida,Noida,"Noida Authority Parking, Sector 15, Nithari, Noida Dadri, Gautam Buddha Nagar, UP -201301",28.58260686,77.31284358,8.0
EESL Electronic City Metro Station,Noida,"Electronic city Metro Station, Gate no 2, Sector 63, Noida UP - 201301",28.626475,77.375142,8.0
"EESL H- Block Market, Haldiram",Noida,"H- Block Market, Haldiram Car Parking, Sector 63, Noida 201301",28.6281915,77.375303,8.0
EESL Prayas Bhawan Naya Raipur,Raipur,"Public Parking, Prayas Bhawan, Sec -19, Atal Nagar, Nava Raipur",21.163948,81.788547,8.0
Anert -EESL Sangamukham Kerala,Thiruvananthapuram,"Thiruvananthapuram, Shangumukham, Kannanthura, Thiruvananthapuram, Kerala 695008",8.481360724,76.91248155,8.0
KSEBL Viyyur,Thrissur,"Padukad, Keltron Nagar, Kolazhy, Thrissur, Kerala 680010",10.56044924,76.21714424,17.0
ANERT EESL thycaucd ,Thiruvananthapuram,"State Council For Child Welfare, CV Raman Pillai Rd, Near Kerala, Housing Board, Thycaud, Thiruvananthapuram, Kerala 695014",8.492852084,76.95801444,8.0
ANERT Zivah EV charger,Thiruvananthapuram,"Vikas Bhavan P. O, Law College Rd, PMG, Thiruvananthapuram, Kerala 695033",8.50884848,76.94622254,8.0
EESL Mantralaya Naya Raipur,Raipur,"Sector 19, Kotara Bhantha, Naya Raipur, Chhattisgarh 492101",21.16012192,81.79515321,8.0
TS Transco Vidyut soudha,Hyderabad,"6-3-643, second floor, khairatabad rd, raj bhavan quarters colony, somajiguda, hyderabad,500004",17.41406061,78.45778047,18.0
TSIPARD ,Hyderabad,"Telnagana state institute of rural development - Police Quaters, Rajendranagar mandal, Hyderabad, Telangana 500030",17.31694482,78.40246655,18.0
HPCL Autocare Sajgaon,lonavala,"Dahivati Tarf Boreti, Maharashtra 410203",18.79320299,73.29699392,18.0
Lifeon Industries,navi mumbai,"D298, TTC Industrial area, turbhe",19.06895357,73.02251015,18.0
Relux Experience Centre (ABS e-auto & Charger),Chennai,"NO: 16/8, PRV Towers, GST Road, Guindy, Chennai, Tamil Nadu - 600 032",13.00777749,80.20730884,19.0
Hotel Aishwarya Bhavan (Safa Electric),Villupuram,"Chennai - Trichy Highway, Tindivanam, Tamil Nadu - 604001",12.24034498,79.66228159,19.0
Sihla Energy Sihla Energy,Malappuram,"Thrissur-Kunnakulam SH 69, Valayankulam, Kerala - 679591",10.73477485,76.04854399,19.0
Ammayii Hotel & Resorts (PKS Charging Station),Tiruvannamalai,"Old No: 80, New No: 40, Sannathi Street, Opp Karur Vysya Bank, Thiruvanamalai, Tamil Nadu - 606601",12.23639376,79.08960088,19.0
Hemank Auto Parts,Pune,"B-5 Electronic Estate,MIDC,Bhosari,Pune",18.621902,73.82497,18.0
"HPCL autocare,Sajgaon",Sajgaon,"Autocare centre,COCO VIII,Mumbai-Pune express.Khalapur Toll Naka Sajgaon",18.793453,73.297219,18.0
Hotel swagat INN,Amboli,"94, NH 48, opp. Tata Motors, Amboli, Gujarat 394150",21.30157137,72.95378153,18.0
MH|MUMBAI|POWAI#HIRANANDANI GARDENS,MUMBAI,"TECHNOLOGY ST,HIRANANADANI GARDENS,SAINATH NAGAR,POWAI,MUMBAI,MAHARASHTARA 400076",19.11999443,72.9141036,
MH|TALASARI|HOTEL SAHYADRI,MUMBAI,"HOTEL SAHYADRI,TALASARI,AJMER ROAD,ACHAD,MAHARASHTRA 401606",20.22117727,72.88122971,
"GJ|NAVSARI|NH 8,GRID ROAD",NAVSARI,"HOTEL  FUN CITY(PURE VEG),NH 8,GRID ROAD,BESIDE PEEDEE ELECTRONCS,KABILPORE,NAVSARI",20.94457359,72.962844,
"HONEST RESTAURANT NH8,MIYAGAM,MIYAGAM KARJAN,GUJARAT",KARJAN,"opposite bharthana village, near elentic tolnaka between baroda to bharuch, NH8, miyagam, Karjan, Gujarat 391240",22.02415767,73.11753277,
BESCOM HSR LAYOUT,BANGALORE,"HSR LAYOUT,BENGALURU,KARNATAKA 560001",12.91162361,77.64899678,16.0
BESCOM BTM LAYOUT,BANGALORE,"u00a016th Main, 100ft Ring Road, BTM 1st stage, Opp. Advitha Petrol Bunk, Bengaluru, Karnataka 560076",12.91895366,77.61247565,16.0
BESCOM KATRIGUPPE,BANGALORE,"KATRIGUPPE,BENGALURU,KARNATAKA 560001",12.93068034,77.57662739,16.0
BESCOM BYATARAYANAPURA,BANGALORE,"BYATARAYANAPURA,BENGALURU,KARNATAKA 560001",12.9499757,77.540718,16.0
BESCOM MURUGESHPALAYA,BANGALORE,"MURUGESHPALYA,ENGALURU,KARNATAKA 560001",12.95898377,77.66440273,16.0
BESCOM INDIRANAGAR,BANGALORE," HAL 2nd Stage, Kodihalli, Bengaluru, Karnataka 560008",12.96495904,77.64423453,16.0
BBMP CORPORATION OFFICE,BANGALORE,"29, Temple Rd, M S K Nagar, Yesvantpur Industrial Suburb, Yeswanthpur, Bengaluru, Karnataka 560022",13.02425398,77.53671856,16.0
SHIVAJINAGAR TTMC,BANGALORE," Bengaluru, Karnataka 562123",13.06689523,77.44430974,16.0
BESCOM BANASWADI,BANGALORE,"301-305, 5th D Main Rd, HRBR Layout 2nd Block, HRBR Layout, Kalyan Nagar, Bengaluru, Karnataka 560043",13.02043003,77.64093356,16.0
BESCOM MAHADEVAPURA,BANGALORE,"ITPL Main Rd, Vigneshwar Nagar, Devasandra Industrial Estate, Krishnarajapura, Bengaluru, Karnataka 560048",12.99493599,77.69924534,16.0
BESCOM YALHANKA,BANGALORE,"SUGAPPA LAYOUT,EAST COLONY,YELAHANKA",13.09596479,77.59452594,16.0
BESCOM JALAHALLI,BANGALORE,"JALAHALLI O &M ,NEAR POLICE STATION,HMT GROUND,BANGALORE",13.05335357,77.54322724,16.0
BESCOM MATHIKERE,BANGALORE,"MATHIKERE,BENGALURU,KARNATAKA 560001",13.03823943,77.55775104,16.0
BESCOM -PEENYA SRS O&M,BANGALORE,"SRS Rd, Yeshwanthpur Suburb II Stage, Yesvanpur Surburb, Peenya, Bengaluru, Karnataka 560058",13.03211103,77.52748284,16.0
EESL High court station,Chennai,High Court Metro Station Chennai (CMRL),13.088249,80.285359,16.0
EESL Chennai Egmore metro,Chennai," Chennai Egmore metro, Chennai (CMRL)",13.079097,80.261538,16.0
EESL Saidapet Metro station,Chennai,Saidapet Metro station,13.0237,80.2282,16.0
EESL Tirumangalam Metro station,Chennai,Tirumangalam Metro station,13.0853,80.2016,16.0
EESL Thirumangalam Metro,Chennai,Tirumangalam Metro station,13.0853,80.2016,16.0
EESL Chelmsford Club,Delhi,"Outside Chelmsford Club/ Opposite CSIR Building, Rafi Marg, Sansad Marg Area, New Delhi 110001",28.61826041,77.21256986,16.0
u00a0EESL Sushma Swaraj Bhawan,Delhi,"Susma swaraj Bhawan, MEA, New Delhi",28.59583333,77.18055556,16.0
EESL Delhi Haat,Delhi,"NMDC Parking, Dilli Haat, West Kidwai Nagar, New Delhi 110023",28.572793,77.208662,16.0
EESL Chelmsford Club,Delhi,"Back of Hotel Claridges Near NDMC Power Sub nStation, Tees January Marg, nDr. APJ Abdul Kalam Road, New Delhi- 110003",28.61826041,77.21256986,16.0
EESL Legislative Assembly Goa,Goa,"GDA, Goa",15.51047222,73.83722222,16.0
ANERT-EESL Ernakulam Kerala,Kochi,"KTDC Tourist Reception Centre Shanmugham road, Ernakulam, Marine drive, Kochi Kerala-682031",9.977164,76.27777,16.0
HAREDA EESL Panchkula,Panchkula,"HAREDA, Akshay Urja Bhawan , Institutional plot No.1 Sector-17 Panchkula , 134109 Haryana",30.695929,76.834874,16.0
ANERT-EESL AUTOKAST Kerala,Perunnermangalam,"AUTOKAST premises, South East End adjacent to NH 66, Mararikulam North Village, Perunnermangalam, Muriyil.",9.63628,76.3352,16.0
ANERT-EESL Sangamukham Kerala,Thiruvanthapuram,"Sanghumukham DTPC office, Shanghumukham beach, thiruvananthapuram,Kerala- 605007",8.481159,76.912456,16.0
ANERT-EESL Thycaud Kerala,Thiruvanthapuram,"State Council For Child Welfare, CV Raman Pillai Rd, Near Kerala, Housing Board, Thycaud, Thiruvananthapuram, Kerala 695014",8.4927752,76.9572956,16.0
KSEB NEMOM,THIRUVANANTHAPURAM,NEYYATTINKARA,8.460016017,77.00402472,16.0
KSEBL OLAI,THIRUVANANTHAPURAM,"NH 66, T D Nagar, Olayil, High School Jun, Kollam, Kerala 691009",8.892952791,76.57878733,16.0
KSEBL PALARIVATTOM,THIRUVANANTHAPURAM,"Palarivattom - Edappally Rd, Sonia Nagar, Palarivattom, Ernakulam, Kerala 682565",10.00552573,76.3050448,16.0
KSEBL VIYYUR,THIRUVANANTHAPURAM,"H668+2VH, Padukad, Keltron Nagar, Kolazhy, Thrissur, Kerala 680010",10.56052307,76.2172408,16.0
KSEBL NALLALAM,THIRUVANANTHAPURAM,"Modern Bazar, Nallalam, Kozhikode, Kerala 673018",11.20838069,75.80848587,16.0
KSEBL CHOVVA,THIRUVANANTHAPURAM,"Kannur - Kuthuparamba Rd, Elayavoor, Kerala 670331",11.86893912,75.40316573,16.0
MG AHMEDABAD MAKARBA,AHMEDABAD,"PLOT NO 2,GROUND FLOOR,SURVEY NO 841/1 AND 2,10,SIGNATURE 1 ,NEAR OLD RAILWAY LINE,SG HIGHWAY,MAKARBA,GUJARAT 3850051 AHMEDABAD",22.996681,72.498226,20.0
MG BENGALURU,ELECTRONIC CITY,"195/6/2,WARD NO 192,BHARATENA AGRAHARA,LAVA KUSHA NAGAR,HOSUR ROAD,KARNATAKA 560100 BENGALURU",12.865032,77.657853,20.0
MG GURGAON SECTOR 15,GURUGRAM,"32,MILESTONE,EXPERION CENTER,SECTOR 1,NH-8,HARYANA 122001 GURUGRAM",28.462298,77.048472,20.0
IOC MADINAGUDA,HYDERABAD,"SURVEY NO 98 MIYAPUR MAIN ROAD,MADINAGUDA HAFEEZPET,TELENGANA 500050 HYDERABAD",17.494851,78.336467,20.0
HMR MADHAPUR,HYDERABAD,"PLOT NO 735 ROAD NO 37 AND 38LEFT LANE AFTER CROMA,CBI COLONY JUBLI HILLS,HYDERABAD.TELENGANA 500033",17.435968,78.40003,20.0
MG HYDERABAD JUBILEE HILLS,HYDERABAD,"8-2-120/86, 10A, opposite Hotel park hyatt, Rd no2, Banjara hills, hyderabad, 500033",17.523923,78.430328,20.0
HMR BEGUMPET,HYDERABAD,"7-1-22/A Begumpet flyover, Leelanagar, Ameerpet, Telanagana 500016",17.438229,78.457263,20.0
IOC BEGUMPET,HYDERABAD,"BEGUMPET,HYDERABAD,TELENGANA,INDIA,TELENGANA,500016,HYDERABAD",17.444838,78.466949,20.0
MG MOHALI SECTOR 82,MOHALI ,"MG MOHALI,PLOT NO 3,JANATA INDUSTRIAL ESTATE SECTOR 82,SAS NAGAR,MOHALI,PUNAB,PUNJAB,160082 MOHALI",30.661356,76.731482,20.0
MG DELHI SHIVAJI MARG,NEW DELHI,PLOT NO 13 SHIVAJI MARG DELHI 110015 NEW DELHI,28.66196,77.152242,20.0
MG DELHI LAJPAT NAGAR,NEW DELHI,"A-14, Ring Road, Lajpat nagar, Delhi 110024",28.564863,77.236743,20.0
McDonalds,Kolhapur,"Shop No 1C, Hissa No 1, Plot No 1/K1, next to Klin Fuel Technology, Sarnobatwadi Kolhapur Maharashtra 416004",16.6869187,74.2703805,21.0
Hotel Marigold,Hyderabad,"Ameerpet Rd, Leela Nagar, Begumpet, Hyderabad, Telangana 500016",17.437257,78.4522943,21.0
BSES RAPID CHARGING ZONE,Patparkang,"Narwana,Patparkang road,I-P Extension",28.62145,77.293556,14.0
RR Charging Station (RR Charging Station),Ambur,"No: 19,IELC Complex, MC Road, Ambur, Tamil Nadu - 635802",12.77988445,78.71776971,19.0
Hotel Sangeetha (Duriyam Charging Station),Namakkal,"NH 44, Namakkal - Karur Tollgate, Tamil Nadu - 637207",11.19362344,78.10483415,19.0
Hotel Temple City Lake (Inn KSN Charging Station),Madurai,"Trichy - Madurai Highway, Valaichcherippatti, Tamil Nadu - 625104",9.987081053,78.24154444,19.0
Alps Residency - A Bergamont Group of Hotel-,Krishnagiri,"Bangalore Bye Pass Road Near Toll Plaza, Krishnagiri, Tamil Nadu-635001",12.54250304,78.20153274,19.0
Sri Durga Bhavan Elite (Devika Yogaraajan Charging Station),Vellore,"Near HP Petrol Pump, Pallikonda, Tamil Nadu, 635809",12.9023796,78.93386744,19.0
AIMA Charging Station ,Palakkad,"Naduvattam, Kringanad Rd, VIlayur ",10.887677,76.189595,19.0
Bhimas Residency Hotel ,Tirupati,"19-3-41 Renigunta Road, near Ramanuja Circle",13.62754649,79.43056383,19.0
RMS Towers (Ero_G Electric Charging Station),Erode,"NH544, Kovai to Salem Road, Solipalayam, ",11.30199446,77.60004376,19.0
Hotel JAS,Visakhapatnam,"NH45 Kagitha Village Near Vempadu Toll Gate Nakkapalli, Mandalam, Visakhapatnam",17.39957297,82.68113802,19.0
Unger India pvt India,GURUGRAM,"71, Udyog Vihar Phase 1, Udyog Vihar, Sector 19, Gurugram, Haryana 122016",28.499,77.08356,13.0
Paschim Vidyut Vitaran Pologround,UJJAIN,"GPH Compound, Polo Ground, Indore, Madhya Pradesh 452003",23.24006,75.78122,13.0
ADYAR ANANDA BHAVAN,ATTUR,"NH9,Thulakanoor Village,Salem District,Attur,TamilNadu",11.591985,78.627219,11.0
SREE ANNAPOORNA HOTEL,AVINASHI,"NH544,AVINASHI BYE PASS ROAD,AVINASHI,TAMILNADU 641654",11.175093,77.263374,11.0
VR MALL WHITEFIELD,BANGALORE,"Whitefield Main Road,Mahadevapura,Bengaluru,Karnataka 560048",12.996362,77.695802,
THE FORUM MALL,BANGALORE,"B1-12,Parking,Hosur road,Koramangala,Bengaluru,Karnataka 560095",12.934801,77.610918,11.0
Kanthari Restaurants & Banquets,Changanassery,"Bypass Road, near AKM school, Changanassery, Kerala 686101",9.4551752,76.5425594,11.0
BROOKFIELDS MALL ,COIMBATORE,"Dr Krishnasamy Mudaliyar Rd, Brookefields, Sukrawar Pettai, R S Puram West, Coimbatore, Tamil Nadu 641001",11.008935,76.95954,11.0
HiLITE Mall,Kozhikode,"G1003, NH 66, Kozhikode Bypass, Poovangal, Kozhikode, Kerala 673014",11.2484737,75.8335122,11.0
HOTEL SURYA COMPLEX,KRISHNAGIRI,"NH44,Bangalore Highway,Pollupalli,Krishnagiri,TamilNadu 635115",12.582141,78.157101,11.0
MALL OF MYSORE,MYSURU,"MG Road,Indira Nagar Extension,Nazarbad Mohalla,Mysuru,Karnataka 570010",12.298073,76.664021,11.0
SHREE SARAVANA BHAVAN,SANKAGIRI,"Near Sankagiri Toll Gate, NH-47 Salem-Kanyakumari Hwy, Vaikundam, Sankari, Tamil Nadu 637103",11.519342,77.935042,11.0
Aswins Veg Restaurant,Perambalur,"NH 45, Kalpady Road, Eraiyasamuthiram, Perambalur, Tamil Nadu 621113",11.2064644,78.8812406,11.0
Cafu00e9 Udupi Ruchi,Ulundurpet,"102/19, Chennai Trichy NH Sengurichi, Village, Ulundurpet, Tamil Nadu 606115",11.7194357,79.3364597,11.0
Grand mall,Kochi ,"Panvel - Kochi - Kanyakumari Hwy, Toll Junction, Edappally, Kochi, Kerala 682024",10.0243734,76.3088679,11.0
Hotel Kodai International,Kodaikanal,"17/328, Laws Ghat Rd, Kodaikanal, Tamil Nadu 624101",10.2428087,77.4983634,11.0
Hotel Kadamba ,Banglore,"Hotel Kadamba Veg, 272/2, Nice Road Junction, Bangalore, SH17, Bengaluru, Karnataka 560060",12.9019627,77.468995,11.0
Annapoorna Cafe,Angamali,"69FG+56H, Karukutty, Kerala 683572",10.2230435,76.3755255,11.0
D square Mall,Shoolagiri,"Dhiviyam Square Food Court, NH - 7 Hosur - Krishnagiri Highway, Sundagiri, Shool, Tamil Nadu 635117",12.6462747,78.0470111,11.0
Hotel Devaragam,Guruvayur,"Outer Ring Road, Opp Railway Station, East Nada, Guruvayur, Kerala 680101",10.5955128,76.0443322,11.0
Gokul Oottupura NH 47 Veetarian Restaurant,Kochi ,"NH bypass, near Modern Lights, Padivattom, Edappally, Ernakulam, Kerala 682024",10.0111333,76.3123714,11.0
ADAYAR ANANDA BHAVAN,THINDIVANAM,"Swastiks enterpreneurs,NH45,Chennai-Trichy highway,NallathurThindivanam,Tamilnadu 604307",12.297694,79.73365,11.0
Adyar Ananda Bhavan I Navakkarai,Walayar,"Adyar Ananda Bhavan Restaurant, 285, Palakkad Main Rd, MahendraMedu, Navakarai, Coimbatore, Tamil Nadu 641105",10.8559461,76.8625309,11.0
Adyar Ananda Bhavan I Rasipuram,Rasipuram,"Adyar Ananda Bhavan Restaurant, NH44, Brindavan Garden, Salem-Madurai Rd, Athanur, Tamil Nadu 637401",11.4922712,78.1535774,11.0
Ganpat Grand I Palani,Palani,"Circle, 167/1, Adivaram Itteri Road Near Balaji Bhavan, Palani, Tamil Nadu 624601",10.4425816,77.5203903,11.0
Aasai Aasai Anandha Bhavan | Omalur,Omalur,"Aasai Aasai Anandha Bhavan Delight, A/C Pure Veg Restaurant, NH - 44, Bangalore, to, Salem Highway, Omalur, Tamil Nadu 636455",11.7592238,78.4273441,11.0
Hotel Temple City I Thirumangalam,Thirumangalam,"Hotel Temple City, NH 44, Madurai to Virudhunagar Highways Melanesaneri Sivarakottaim, Madurai, Tamil Nadu 625706",9.7590386,77.9791582,11.0
Hotel Paakashala I Yediyur,Yediyur,"Paakashala @ Yediyur, Koppa Bangalore Mangalore Highway, NH75, Kunigal, Karnataka 572142",12.9902212,76.8816809,11.0
A S M ABDUL CADER AND CO,CHENNAI,"A S M ABDUL CADER AND CO, DOOR NO 355 CEMENT ROAD, ALANDUR, MEENAMBAKKAM,CHENNAI, TAMIL NADU, 600016",12.99431,80.18706,10.0
"BP,GHAR-MARAIMALAI NAGAR",CHENGALPATTU,"BP,GHAR-MARAIMALAI NAGAR, SY NO 336/6 ( PART ), NH-45, GST RO, MARAIMALAI NAGAR, CHENGALPATTU, TAMILNADU, 603209",12.78326,80.01671,10.0
SAKTHI MADUMALAR AGENCIES,CHENGALPATTU,"SAKTHI MADHUMALAR AGENCIES, NH-45 CHENNAI-TRICHY HIGHWAY, MELMARUVATHUR, CHENGALPATTU, TAMIL NADU, 603319",12.43395,79.83235,10.0
SRI VENNI AGENCIES,VILLUPURAM,"Bharat Petroleum Dealers, SY NO 52/6B1 & 52/7A1, NH38, Chennai Trichy Highway, CHINNAVALAVANUR, VILLUPURAM, TN-604302",12.16381,79.61146,10.0
RAVIE AGENCIES,VILLUPURAM,"Bharat Petroleum Dealers, SY NO 148/1, NH38, Chennai Trichy Highway, V. SALAI, VIKRAVANDI, VILLUPURAM, TN-605652",12.06382,79.54755,10.0
BP-ULUNDURPET,KALLAKURICHI,"Bharat Petroleum Companyu00a0Owner retail outlet, Next to Ulundurpet Toll, NH38, CHENNAI-TRICHY HIGHWAY, SENGURICHI VILLAGE, KALLAKURICHI Dt, TN-606115",11.71881,79.33575,10.0
BP-TRICHY,TRICHY,"Bharat Petroleum Company owner retail outlet, S.No-489/5B, NH38, CHENNAI-TRICHY HIGHWAY, SANNAMANGALAM, Trichy, TN-621104",11.03248,78.80801,10.0
KARTHIK AGENCIES,TRICHY,"Bharat Petroleum Dealers, S.No-456/6, 5B, NH38, CHENNAI-TRICHY HIGHWAY, SIRUGANUR, LALGUDI TK, Trichy, TN-621105",11.00462,78.78876,10.0
SRI RAJAN ENTERPRISES,MADURAI,"Sri Rajan Enterprises, BPCL Dealers, Surakundu village, Melur - Madurai road, NH 38, Melur, Madurai 625106",10.02184,78.31352,10.0
BP-OTHAKKADAI,MADURAI,"BP Othakadai, BPCL Retail Outlet, Kodikulam Village, Madurai - Melur NH 38, Madurai 625104",9.9445,78.15418,10.0
GJ | Ahmedabad | Abhinav Girls Hostel Bodakdev,Ahmedabad,"Bodakdev, Ahmedabad, Gujarat 380054",23.058,72.5001,24.0
Hotel Bliss | Tirupati,Tirupathi,"Hotel Bliss, 19-3-45, Near Ramanuja Circle, Renigunta Rd, Tirupati, Andhra Pradesh 517501",13.6253731,79.4322333,11.0
"Jayalakshmi Auto, Gudavalli",Vijayawada,"Jayalakshmi Auto Enterprises Pvt Ltd, Survey no 3/142 , Gudavalli Junction, Vijayawada rural, Krishna District ,521104",16.5129225,80.7497565,7.0
"Garuda Food Court, Komirepalle",Komirepalle,"NH 16 Gundugolanu, Komirepalle, Andhra Pradesh 534427",16.778579,81.221054,7.0
"Shiv Shanker Motors, Gajuwaka",Vizag,"Sobha Square, Vishwaswaraya Nagar, Gajuwaka, Vishakhapatanam-530012",17.68429,83.185923,7.0
"Shiv Shanker Motors, Kancharpalem",Vizag,"C 24, Industrail Estate, Kancharapalem, Vishakhapatnam u00e2u0080u0093 530010",17.738719,83.26258,7.0
"Croma u00e2u0080u0093 MVR Complex, Waltair Uplands",Vizag,"Ground & First floor, MVR # 10-1-39/B&C, Siripuram Cir, opp. Rock Park, Waltair Uplands, Visakhapatnam, Andhra Pradesh 530003",17.725417,83.315175,7.0
"IOCL - KOORAPATI SERVICE STATION, Tirupati",Tirupati,"TIRUPATI URBAN AND MANDAL Air bye-pass road. Tirupati, Chittoor-517502",13.6207096,79.3828146,7.0
IOCL - TIRUMALA AGENCIES,Peddapuram,"Sy No 164, Peddapuram Bye-Pass Village/Mandal, East Godavari-533437",17.0758862,82.1217314,7.0
"Ashutosh Motors, Lokhra",Guwahati,"NH-37, Chariali, Lokhra, Guwahati, Assam 781028",26.111365,91.746149,7.0
"BHASIN VENTURES, Telibandha",Raipur,"NH-6, NEAR CHOKRA NALA, Labhandi Rd, opp. M.S. PETROL PUMP P.O, Ravigram, Telibandha, Raipur, Chhattisgarh 492006",21.2378172,81.6896148,7.0
GJ | Chikhali | Chikhli - Hotel Empire,Gujarat,"Hotel Empire, PO- Rola, Via- Dungri, NH-8, Gujarat 396375",20.6909,72.9496,24.0
"Live Box Hyphen, Sahastradhara Road",Dehradun,"LivBox Dehradun, Plot No-13,14&15, IT PARK, Sahastradhara Road, Dehradun uttrakhand 248001 ",30.364799,78.0853527,7.0
EESL Chelmsford Club,Delhi,"Outside Chelmsford Club/ Opposite CSIR Building, Rafi Marg, Sansad Marg Area, New Delhi 110001",28.61826041,77.21256986,8.0
u00c2u00a0EESL Sushma Swaraj Bhawan,Delhi,"Susma swaraj Bhawan, MEA, New Delhi",28.59583333,77.18055556,8.0
EESL Delhi Haat,Delhi,"NMDC Parking, Dilli Haat, West Kidwai Nagar, New Delhi 110023",28.572793,77.208662,8.0
EESL Chelmsford Club,Delhi,"Back of Hotel Claridges Near NDMC Power Sub nStation, Tees January Marg, nDr. APJ Abdul Kalam Road, New Delhi- 110003",28.61826041,77.21256986,8.0
"GO AUTO/ Treo Tata, Safdargunj",Delhi,"A-2/14, Safdarjung Enclave, , Delhi, Delhi - 110029",28.56483,77.18891,7.0
"Autovikas, Motinagar",Delhi,"Block B, No. 57, Rama Rd, Moti Nagar, Block B, Najafgarh Road Industrial Area, New Delhi, Delhi 110015",28.66078,77.1536,7.0
"Westside, Lajpat Nagar",Delhi,"A-15, Alankar Cinema Building, Feroze Gandhi Marg, Lajpat Nagar III, New Delhi 110024",28.56817,77.24112,7.0
"IOCL - WELCOME MOTORS, Saket",Delhi,SAKET DISST. CENTRE SAKET N.DELHI - 110017,28.5279341,77.2156347,7.0
"Malwa Automobiles, Rohini",Delhi,"Showroom, No. A1, 16, Prashant Vihar Sector 14 Rohini, New Delhi - 110085",28.709289,77.135499,7.0
"IOCL - Nineteenth Hole Service Station, Dr Zakir Hussain Ro",Delhi,"DR. ZAKIR HUSSAIN ROAD NEAR GOLF COURSEN DELHI LOCK ID NO. I 343,110003",28.60259,77.237904,7.0
"IOCL - Sabarwal Service Station, RK Puram",Delhi,"Tamil Sangam Marg, Sector 5, Rama Krishna Puram, New Delhi-110022",28.564625,77.177461,7.0
"AIRIA MALL, Sec 68 Sohna Road",Gurgaon,"Sector 68, Sohna Road, Gurgaon 122018n",28.383022,77.05228,7.0
"IOCL - Jai Sai Motors, Okhla Phase 1",Delhi,"Okhla Phase - 1, near Hotel Crown Plaza, New Delhi, Delhi 110020",28.527674,77.273003,7.0
"IOCL - COCO, Jungpura",Delhi,"Lala Lajpat Rai Marg, Jangpura, Nizamuddin West, New Delhi- 110014",28.587135,77.241353,7.0
"IOCL - Irwin Petrol Pump, Connaught Place",Delhi,"Baba Kharak Singh Marg, Connaught Place, Hanuman Road Area, Connaught Place, New Delhi, Delhi 110001",28.62932,77.21262,7.0
"IOCL - RK Service Station, ChanakyaPuri",Delhi,"Vinay Marg, ChanakyaPuri, New Delhi - 110021",28.58342,77.191319,7.0
"IOCL - Intimate Filling Station, Soami Nagar",Delhi,"Panchsheel Marg, Soami Nagar North, New Delhi- 110049",28.543012,77.220429,7.0
"True North, Mayapuri",Delhi,"A1/1 Mayapuri, Industrial Area, Phase 1, New Delhi 110064",28.633301,77.126961,7.0
IOCL Bedi Saxena Delhi,Delhi,"B-88-5, 86-5, Sat Guru Ram Singh Rd, Block B, Mayapuri Industrial Area Phase I, Mayapuri, New Delhi, Delhi 110064",28.627092,77.121841,7.0
AARGO CSC MINTO ROAD,NEW DELHI,"CSC NDMC CENTER MINTO ROAD OPPOSITE K BLOCK, NEW DELHI,NEW DELHI,110001",28.63547,77.2213,22.0
"IOCL - Citi Fuels, Virender Nagar",Delhi,OPP.-VIRENDER NAGAR NEAR BHARATI COLLEGE NEW DELHI-110058,28.622486,77.09547,7.0
"Vardhaman Times Plaza, Pitampura",Delhi,"LG 1, Vardhaman Times Plaza, Plot No. 13, Saint Nagar Delhi, Pitampura, Delhi - 110034",28.6874177,77.1341163,7.0
"HPCL - Delhi Punjab Fuel Station, Singhu Border",Delhi,"15/1 Gt.karnal RD. Singhu Border, Po, Narela, Delhi, 110040",28.8558802,77.1245004,7.0
"DLF - The Camellias, Golf Course Road",Gurgaon,"The Camellias, Golf Course Road , Gurgaon - 122009",28.451114,77.100126,7.0
IOCL - AAUI Service Station ,Delhi,IOCL at Plot No 1 I P Estate Ring Road New Delhi-110002,28.6179662,77.2487894,7.0
"Ginger Hotel, Sector- 63",Noida,"Ginger Hotel Noida East East - Block-H, Sector- 63, Noida 201301",28.6257406,77.3753188,7.0
"Vatika Market Place I, Sector 84",Gurgaon,"Sector 84, Gurugram, Haryana 122004",28.4022133,76.969045,7.0
"Vatika Market Place II, Sector 83",Gurgaon,"Sector 83, Gurugram, Haryana - 122004",28.391085,76.97266,7.0
"Worldmark 2, Aerocity",Delhi,"Worldmark Aerocity, New Delhi  - 110037",28.5494799,77.1213702,7.0
"Worldmark 3, Aerocity",Delhi,"Worldmark Aerocity, New Delhi  - 110037",28.5516849,77.1216672,7.0
"Worldmark Gurgaon, Sector 65",Gurgaon,"Worldmark Gurgaon Maidawas Rd, Sector 65, Gurugram, Haryana 122001",28.3977181,77.0715213,7.0
"Sree Gokulam Motors, Kolancherry",Kochi,"NO - S-375 2-2, Block no 43, Puthupanam,puthrikka panchayat, puthen cruz PO, Ernakulam,682311",9.976850008,76.45768854,7.0
EESL Legislative Assembly Goa,Goa,"GDA, Goa",15.51047222,73.83722222,8.0
"Terry's Super Market, Porvorim",Goa,"H.No. B 50 Bardez, Alto- Betim Porvorim, Goa 403521",15.50636,73.82488,7.0
"Priority Auto lincs, Taleiga",Goa,"Survey no.166/1, New Taleigao bypass road, Opp.Taleigao Community Centre. Taleiga- Goa-403002",15.469336,73.820463,7.0
"HONEST RESTAURANT NH8,MIYAGAM,MIYAGAM KARJAN,GUJARAT",KARJAN,"opposite bharthana village, near elentic tolnaka between baroda to bharuch, NH8, miyagam, Karjan, Gujarat 391240",22.0242,73.1175,24.0
"Ginger Vastrapur, Drive In Road",Ahmedabad,"Behind Himalaya Mall, Drive In Road, Ahmedabad - 380015",23.04626,72.53069,7.0
"Westside, Ellisbridge",Ahmedabad,"Ground Floor, Abhijeet V, Netaji Rd Ellisbridge Opp. Mayor Bungalow, Ellisbridge, Ahmedabad, Gujarat 380006",23.02938,72.56142,7.0
"Progressive Cars, SG Highway",Ahmedabad,"G-9, Shapath V, Beside Hotel Crowne Plaza, Near Karnavati Club , SG Highway, Ahmedabad, Gujarat  - 380015",23.014261,72.503947,7.0
"Riya Autolink, Ambli BRTS Bus Stand",Ahmedabad,"Near Devkutir Bunglow, Opp Bopal Ambli BRTS Bus Stand, Iscon-Bopal Road, Ahmedabad, Gujarat - 380058",23.02558,72.47991,7.0
"Pramukh Auto, Umiya Nagar",Surat,"Plot No. 409/27-A, Umiya Nagar Society,Near Chosath Jogni Mata Temple,Udhna Magdalla Road,Surat-394210",21.164948,72.835879,7.0
"Jai Ganesh, Kothariya",Rajkot,"Jai Ganesh MG. Opp Krishna Park , Rajkot-Gondal Highway ,Kothariya, Rajkot-360003",22.227526,70.801092,7.0
"Shreeji Automart, Piplod",Surat,"04 A/B, Shreeji House,Opp. Big Bazar,Dumas Road, Piplod,Surat-395002",21.159829,72.770603,7.0
"Ahmedabad One Mall, Vastrapur",Ahmedabad,"Plot No. 216, T. P. Scheme 1, Near Vastrapur Lake, Vastrapur, Ahmedabad u00e2u0080u0093 380054 ",23.0397522,72.5318124,7.0
"IOCL - Sardar Petro Station, Bakrol",Ahmedabad,"M/s Sardar Petrol Station, Near Toll Plaza Ring Road, Bakrol-Bardrabad, Daskroi, Ahmedabad-382433",22.935404,72.520954,7.0
Comfort Inn Legacy By One Earth,Rajkot,"Comfort Inn Legacy By One Earth Panchnath Road, Limda Chowk, Rajkot Gujrat-360001",22.2967048,70.7991222,7.0
HAREDA EESL Panchkula,Panchkula,"HAREDA, Akshay Urja Bhawan , Institutional plot No.1 Sector-17 Panchkula , 134109 Haryana",30.695929,76.834874,8.0
"Vatika City Point, Sec 25",Gurgaon,"Mehrauli-Gurgaon Rd, Heritage City, Sector 25, Gurugram, Haryana 122002",28.4811468,77.0831202,7.0
"IOCL - Tapan Auto, NH 22",Barog,"National Highway 22, Beside Tapan, Barog, Himachal Pradesh 173211",30.8873188,77.0879411,7.0
"Croma, Ramanthapur",Hyderabad,"Croma, Unit No. 2 & 3, Ground Floor, Plot Survey No. 46, Pragathi Nagar, Ramanthapur Main Road, Ramanthapur, Telangana, Hyderabad - 500013",17.499345,78.541866,7.0
"Arise Autoz, Narwal Byepass",Jammu,"Arise Autoz Pvt Ltd, Mailk Market , Narwal Byepass Jammu-180016",32.70661,74.89568,7.0
"Asia One Earth, Jammu Tawi",Jammu,"Asia One Earth, Jammu Tawi, Nehru Market, Jammu tawi, Jammu & Kashmir-180004",32.713043,74.8598406,7.0
"ASL Motors, Industrial Area",Jamshedpur,"A-7, 2nd Phase, Industrial Area, Adityapur, Jamshedpur u00e2u0080u0093 832109",22.79094,86.14731,7.0
"Ginger Hotel, Bistupur Main Road",Jamshedpur,"Ginger Hotel Jamshedpur Opp. Voltas Building, Bistupur Main Road, Jamshedpur - 831001 Tel: 0657 666 3333",22.78778833,86.18442833,7.0
THE FORUM MALL,Banglore,"B1-12,Parking,Hosur road,Koramangala,Bengaluru,Karnataka 560095",12.934801,77.610918,11.0
MG BENGALURU,Banglore,"195/6/2,WARD NO 192,BHARATENA AGRAHARA,LAVA KUSHA NAGAR,HOSUR ROAD,KARNATAKA 560100 BENGALURU",12.865032,77.657853,20.0
BESCOM HSR LAYOUT,Banglore,"HSR LAYOUT,BENGALURU,KARNATAKA 560001",12.91162361,77.64899678,15.0
BESCOM BTM LAYOUT,Banglore,"u00c2u00a016th Main, 100ft Ring Road, BTM 1st stage, Opp. Advitha Petrol Bunk, Bengaluru, Karnataka 560076",12.91895366,77.61247565,15.0
BESCOM KATRIGUPPE,Banglore,"KATRIGUPPE,BENGALURU,KARNATAKA 560001",12.93068034,77.57662739,15.0
BESCOM BYATARAYANAPURA,Banglore,"BYATARAYANAPURA,BENGALURU,KARNATAKA 560001",12.9499757,77.540718,15.0
BESCOM MURUGESHPALAYA,Banglore,"MURUGESHPALYA,ENGALURU,KARNATAKA 560001",12.95898377,77.66440273,15.0
BESCOM INDIRANAGAR,Banglore," HAL 2nd Stage, Kodihalli, Bengaluru, Karnataka 560008",12.96495904,77.64423453,15.0
BBMP CORPORATION OFFICE,Banglore,"29, Temple Rd, M S K Nagar, Yesvantpur Industrial Suburb, Yeswanthpur, Bengaluru, Karnataka 560022",13.02425398,77.53671856,15.0
SHIVAJINAGAR TTMC,Banglore," Bengaluru, Karnataka 562123",13.06689523,77.44430974,15.0
BESCOM BANASWADI,Banglore,"301-305, 5th D Main Rd, HRBR Layout 2nd Block, HRBR Layout, Kalyan Nagar, Bengaluru, Karnataka 560043",13.02043003,77.64093356,15.0
BESCOM MAHADEVAPURA,Banglore,"ITPL Main Rd, Vigneshwar Nagar, Devasandra Industrial Estate, Krishnarajapura, Bengaluru, Karnataka 560048",12.99493599,77.69924534,15.0
BESCOM YALHANKA,Banglore,"SUGAPPA LAYOUT,EAST COLONY,YELAHANKA",13.09596479,77.59452594,15.0
BESCOM JALAHALLI,Banglore,"JALAHALLI O &M ,NEAR POLICE STATION,HMT GROUND,BANGALORE",13.05335357,77.54322724,15.0
BESCOM MATHIKERE,Banglore,"MATHIKERE,BENGALURU,KARNATAKA 560001",13.03823943,77.55775104,15.0
BESCOM -PEENYA SRS O&M,Banglore,"SRS Rd, Yeshwanthpur Suburb II Stage, Yesvanpur Surburb, Peenya, Bengaluru, Karnataka 560058",13.03211103,77.52748284,15.0
Hotel Mayura Veg I Yediyur,Yediyur,"Hotel Mayur, Chakenahalli, Nh 75, Bangalore - Mangalore Hwy, Jaladagere, Karnataka 572142",12.9877075,76.8744784,11.0
HOTEL SKY BIRDS I HASSAN,Hassan,"HOTEL SKY BIRDS, railway station, opp. Ranganathapura, Shanthigrama, Karnataka 573201",12.9873093,76.2061067,11.0
Indradhanush Restaurant I Mudagere,Mudagere,"Indradhanush Restaurant, Bangalore, SH17, Channapatna, Karnataka 571501",12.6395692,77.1413769,11.0
"Adishakti, Veeranpalya",Bangalore,"#56, Opposite Lumbini Gardens, Veeranna Palya Ring Road , Veeranna Palya, Arabic College Post, Bengaluru, Karnataka - 560045",13.04279,77.6093,7.0
"AB Infra Limited, old MIDC",Bangalore,"No.46, 10th Cross Rd, West of Chord Road 2nd Stage, West of Chord Road, IInd Stage, Basaveshwar Nagar, Bengaluru, Karnataka 560079",12.99929,77.54963,7.0
"Key Motors, Kanakapura",Bangalore,"No 71/1A & 71/7, Jaraganahalli Village Opp Temple Tree Apartment, Kanakapura Rd, Manjunath Garden, JP Nagar Phase 6, J. P. Nagar, Bengaluru, Karnataka 560078",12.90392,77.57349,7.0
"Ginger Whitefield, SAP Labs Rd",Bangalore,"128, EPIP Phase II, &, SAP Labs Rd, Opp. KTPO, EPIP Zone, Whitefield, Bengaluru, Karnataka 560066",12.97692,77.71861,7.0
"Ginger Koramangala, Domlur",Bangalore,"Inner Ring Road, Opp. Maruthi Infotech Koramangala, 100 Feet Rd, Krishna Reddy Layout, Amarjyoti Layout, Domlur, Bengaluru, Karnataka 560071",12.95234,77.63997,7.0
"Prerna Motors, Kudlugate",Bangalore,"NO.55, HOSUR MAIN ROAD, KUDLUGATE, HONGASANDRA, NEXT TO OZONE TECH PARK, Kudlu Gate, Garebhavipalya, Garvebhavi Palya, Bengaluru, Karnataka 560068",12.89083,77.63821,7.0
"KHT, Whitefield",Bangalore,"No. 736, Vijayalakshmi Square, Kundalahalli Main Road, , Bengaluru, Karnataka - 560 066",12.96684,77.71657,7.0
"Kropex, Electronics City",Bangalore,"No 49/1, Hosur Main Road, Singasandra, Bangalore Urban, Bengaluru, Karnataka - 560068",12.872053,77.651174,7.0
"Dyuthi Automobiles, Hunsur Road",Mysuru,"Plot No. 201/1&2, Hunsur Road,Mysore, Karnataka, 570017",12.3255681,76.6102634,7.0
"Jubilant Autoworks, Padukodi",Mangalore,"Survey No. 38, Village, 2, Kuloor - Kavoor Rd, Kuloor, Padukodi, Mangalore, Karnataka 575013",12.923728,74.831066,7.0
"Urs Kar motors, New Kantharaj Road",Mysuru,"Urs Kar, CH 11, New Kantharaj Urs Rd, Mysuru, Karnataka 570004",12.2951473,76.6415085,7.0
"Kalinga Tavern Residency, Hatna",Hatna,"Bandadka - Bengaluru Rd, Hatna, Karnataka 571432",12.9770904,76.8311918,7.0
"Automatrix - Hassan, Bangalore-Mangalore Highway",Hassan,"Bangalore - Mangalore Hwy, NH 8, Thanniruhalla, Hassan Rural, Karnataka 573201",12.9952076,76.07946736,7.0
"Click Hotel, Sadahalli",Bangalore,"35, Down Town Park 1. Sadahalli Main Gate. Shittigere Village. Bangalore North Taluka, 562157",13.192134,77.646586,7.0
"Ginger Hotel, Near Kottara Chowki Junction",Mangalore,"Ginger Hotel Mangalore Near Kottara Chowki Junction, Mangalore 575006 Tel: 0824 666 3333",12.90902658,74.83596972,7.0
"SVS Tyres, sastapur - NH 65",Basavakalyan,"KIADB Industrial Area, Near Fire Station, NH 65 Sastapur, Bangla Basawakalyan 585327",17.8218258,76.9393922,7.0
ANERT-EESL Ernakulam Kerala,Kochi,"KTDC Tourist Reception Centre Shanmugham road, Ernakulam, Marine drive, Kochi Kerala-682031",9.977164,76.27777,8.0
ANERT-EESL AUTOKAST Kerala,Perunnermangalam,"AUTOKAST premises, South East End adjacent to NH 66, Mararikulam North Village, Perunnermangalam, Muriyil.",9.63628,76.3352,8.0
ANERT-EESL Sangamukham Kerala,Thiruvanthapuram,"Sanghumukham DTPC office, Shanghumukham beach, thiruvananthapuram,Kerala- 605007",8.481159,76.912456,8.0
ANERT-EESL Thycaud Kerala,Thiruvanthapuram,"State Council For Child Welfare, CV Raman Pillai Rd, Near Kerala, Housing Board, Thycaud, Thiruvananthapuram, Kerala 695014",8.4927752,76.9572956,8.0
KSEB NEMOM,Thiruvanthapuram,NEYYATTINKARA,8.460016017,77.00402472,17.0
KSEBL OLAI,Thiruvanthapuram,"NH 66, T D Nagar, Olayil, High School Jun, Kollam, Kerala 691009",8.892952791,76.57878733,17.0
KSEBL PALARIVATTOM,Thiruvanthapuram,"Palarivattom - Edappally Rd, Sonia Nagar, Palarivattom, Ernakulam, Kerala 682565",10.00552573,76.3050448,17.0
KSEBL VIYYUR,Thiruvanthapuram,"H668+2VH, Padukad, Keltron Nagar, Kolazhy, Thrissur, Kerala 680010",10.56052307,76.2172408,17.0
KSEBL NALLALAM,Thiruvanthapuram,"Modern Bazar, Nallalam, Kozhikode, Kerala 673018",11.20838069,75.80848587,17.0
KSEBL CHOVVA,Thiruvanthapuram,"Kannur - Kuthuparamba Rd, Elayavoor, Kerala 670331",11.86893912,75.40316573,17.0
"CoastLine Garages, NH 47 Muttom",Kochi,"Opposite Metro Pillar no 155 , NH 47, Muttom , Near Aluva , Cochin-683106",10.077281,76.337656,7.0
"CoastLine Garages, Kannur Road",Kozhikode,"Opposite West Hill Post Office, Kannur Road , West Hill P.O , Kozhikode-673005",11.282287,75.770054,7.0
"Marina Motors, Pantheerankavu",Kozhikode,"Bye Pass Road, Pantheerankavu, Kozhikode-673019",11.217,75.85801,7.0
"IOCL - JRO Pongam, Thrissur",Kizhakkummuri,JUBILEE RETAIL OUTLET KORATTY SOUTH POST THRISSUR DISTRICT-680308,10.245487,76.369589,7.0
"Sree Gokulam Motors, Nettoor",Kochi,"No. 10, 256/C, Survey No 1562/1, NH47, Bye Pass Road, Nettoor, Kochi-682040",10.039145,76.315574,7.0
"Hyson Motors, Punkunnam",Thrissur,"Guruvayur Rd, Puzhakkal, Punkunnam, Thrissur, Kerala 680002",10.540817,76.189423,7.0
"KVR Dream vehicles, Nadal",Kannur,"Ground Floor, Kizhunna - Kadappuram Rd, Chirakku Thazhe, Nadal, Kerala 670007",11.83301,75.42643,7.0
"Muthoot Automotive, Mevaram",Kollam,"Machoos Properties, Bypass, near Medicity Hospital, Mevaram, Kollam, Kerala 691020",8.87386,76.64112,7.0
"IOCL - SR Adhoc u00e2u0080u0093 COCO, Vytilla",Kochi,"Bus Stop, Janatha, Sahodaran Ayyappan Rd, Janatha Junction, Vyttila, Ernakulam, Kerala 682019",9.9685,76.312879,7.0
"Gokulam Grand, Kovalam",Trivandrum,"TC 63, 512 TO 523, Beach Rd, Kovalam, Kerala 695527",8.390198,76.976356,7.0
"Gokulam Sabari, Guruvayur",Thrissur,"North, Outer Ring Rd, Kuppaayil, Guruvayur, Kerala 680101",10.596516,76.04243,7.0
"Sree Gokulam Motors, Edapally",Kochi,"Skyline Gateway Apartments, Pathadipalam, Edappally, Ernakulam, Kerala 682033",9.9261126,76.317879,7.0
"Misty Mountain Teyla, Mundakayam",Kottayam,"Mundakayam Glenrock office, Mundakayam, Kottayam, 686512",9.5447482,76.877561,7.0
"Ginger Hotel, Kazakuttom",Trivandrum,"Ginger Hotel Trivandrum Electronics Technology Park, Technopark Campus, Club House, Kazakuttom, Trivandrum - 695581 Tel: 0471 666 3333",8.5615919,76.8763933,7.0
GJ | Limbdi | HFM (Highway Food Mall) ,Gujarat,"Highway Food Mall, Nr. Limbdi Over Bridge, National Highway No.8A, Limbdi u00e2u0080u0093 363421.",22.5676,71.7741,24.0
"Hriday Cars, AB Road",Indore,"1/2-Anoop Nagar,AB Road Indore-452001",22.7307225,75.8893731,7.0
"IOCL COCO u00e2u0080u0093 Extoll College Br., Bhawadita Kalan",Bhopal,"80/2/1/1/2 Bhawadiya Kalan, Bhopal 462026",23.182404,77.432496,7.0
"CR - Bhandup Station, Bhandup East",Mumbai,"Bhandup Station East, near Kotak Mahindra ATM, Bhandup, Bhandup East, Mumbai, Maharashtra 400042",19.1420246,72.937755,7.0
"Hotel Suba Galaxy, Andheri East",Mumbai,"NS Phadake Marg, Opp Teli galli,Near Eastern expres Highway, Andheri East Mumbai 400069",19.1142415,72.8518766,7.0
MH|MUMBAI|POWAI#HIRANANDANI GARDENS,MUMBAI,"TECHNOLOGY ST,HIRANANADANI GARDENS,SAINATH NAGAR,POWAI,MUMBAI,MAHARASHTARA 400076",19.12,72.9141,24.0
MH|TALASARI|HOTEL SAHYADRI,MUMBAI,"HOTEL SAHYADRI,TALASARI,AJMER ROAD,ACHAD,MAHARASHTRA 401606",20.2212,72.8812,24.0
"GJ|NAVSARI|NH 8,GRID ROAD",NAVSARI,"HOTEL  FUN CITY(PURE VEG),NH 8,GRID ROAD,BESIDE PEEDEE ELECTRONCS,KABILPORE,NAVSARI",20.9446,72.9628,24.0
"Select Cars, Sanath Nagar",Hyderabad,"B-51, APIIC Rd, IDA Kukatpally, Sanath Nagar, Hyderabad, Telangana 500018",17.45608,78.44656,7.0
"Select Cars, Alkapuri",Hyderabad,"ALKAPURI X ROADS, Nagole, Hyderabad, Telangana 500068",17.3649,78.55747,7.0
"Ginger Mumbai, Andheri East",Mumbai,"Teli - Gali Road, Andheri (East), Mumbai - 400069",19.11599,72.85018,7.0
"Tata Power RS, Versova",Mumbai,"KL Walawalkar Marg, Sahayog Nagar, Bhudargarh Colony, Andheri West, Mumbai, Maharashtra 400102",19.13052,72.83056,7.0
"Inderjit Cars, Andheri West",Mumbai,"1059/1060, Adarsh nagar, near infinity mall, Off New Link Road, Andheri West, Mumbai, Maharashtra 400053",19.14207,72.83241,7.0
"Heritage Motors, Panchpakhadi",Thane,"3/4, Meena Apartment, Panchpakhadi, Eastern Exp Highway, Thane West u00e2u0080u0093 Pokran Upvan, Thane - 400606",19.1972,72.96321,7.0
"Tata Power, Vikhroli",Mumbai,"The Tata Power Company Limited, 400 kV Project, Vikhroli Sub Station, Godrej Soap Premises, Vikhroli (East), Mumbai 400079",19.095269,72.926195,7.0
"SAB Motors, Patel Nagar",Ghaziabad,"G-94, Patel Nagar - III, Ghaziabad, Uttar Pradesh - 201001",28.67458,77.42895,7.0
"Multitech Motors, Sec 27 Faridabad",Faridabad,"Sector 19, Faridabad, Haryana 121002",28.41873,77.31114,7.0
"Sparsh , Garg Plaza - Dwarka",Delhi,"RZ A- 70, Garg Plaza, Dabri - Palam Road, Dwarka, Delhi, Delhi - 110043",28.60585,77.08133,7.0
"Rudra Motors, Wagholi",Pune,"Gat No.1343/A, Near Ubale Nagar Bus Stop, Wagholi-412207",18.57391,73.9589,7.0
"Bafna, Tathawade",Pune,"Gate No. 129/2B/1, Mumbai Bangalore Express Highway,Ashok Nagar, Tathawade, Pune-411033",18.62343,73.74568,7.0
"Croma Pune, Aundh",Pune,"Survey No.127/2B/1A Nanasaheb Gaikwad Information Technology Park ITI Road, Near, Sarjaa Rd, Aundh, Pune,411007",18.55368,73.80696,7.0
"Godrej One, Vikhroli",Mumbai,"4 Wheeler Parking area Godrej One Pirojshanagar, Eastern Express Highway, Vikhroli u00e2u0080u0093 East, Mumbai u00e2u0080u0093 400079",19.0925655,72.9223514,7.0
"Inderjit Cars, Mira Road",Thane,"Platinum Building, Ground Floor,Opp. Pleasant Park,Next To Brand Factory Showroom,Mira Road-401107",19.277922,72.880256,7.0
"IOCL, Breach Candy",Mumbai,"Bhulabhai Desai Road, Breach Candy, near Tata Garden, Mumbai, Maharashtra 400026",18.96555,72.80346,7.0
"Puneet, Prabadevi",Mumbai,"Lloyds Centre Point, Appasaheb Marathe Marg, Dadar West, Prabhadevi, Mumbai, Maharashtra 400025",19.01296,72.82652,7.0
"SAB Motors, Loni Road - Industrial Area",Ghaziabad,"CF 1-1/1 to 1/5 Harsha Compound, Site II, Loni Road Industrial Area, Mohan Nagar, Ghaziabad, Uttar Pradesh - 201007",28.683213,77.377082,7.0
"Croma, L.B. Nagar",Hyderabad,"CROMA, Ground Floor,D.V.Cascade,Plot 59A,59/B,59/C,59/D In Survey 9/9,Saroornagar Village,L.B.Nagar - 500074",17.352657,78.546636,7.0
"Sai Baba, Theregaon",Pune,"5/4, Nakhate Nagar,Kalewadi Main Road,Theregaon,Pune-411033",18.611143,73.783103,7.0
"Sridha Motors, Chakan",Chakan,"GAT NO. 143/3, PUNE-NASHIK HIGHWAY WAKI (KH), Maharashtra 410501",18.77893,73.87099,7.0
"Bikanerwala, NH 48 Panchgaon",Panchgaon,"55th Mile Stone, NH 48, Kukrola, Panchgaon, Gurugram, Pin-122001",28.323394,76.901196,7.0
"IOCL - COCO, Prabhadevi",Mumbai,"Plot No, P. N. 1207, CADELL RD. MUMBAI, PRABHADEVI CADEL RD., MUMBAI - 400022",19.018857,72.831076,7.0
"Nangia Cars, Hinghna",Nagpur,33B 1/4 Hinghna MIDC Opp Nangia Speciality Hospital Nagpur 440028 ,21.13459,79.004423,7.0
"Jitendra Wheels, Ambad",Nashik,"B-88 MIDC AMBAD, Mumbai Agra highway,Next to Hotel gateway Nashik-  422010",19.950077,73.749175,7.0
"Tata Power, Dharavi Colony",Mumbai,"Tata Power Dharavi Colony labour camp dharavi ,Matunga ,Mumbai 400019",19.034402,72.85284,7.0
"Unique Automobiles, MIDC Shiroli",Kolhapur,"S.No 592,H.No 4481 1st Stop MIDC Shiroli(P) Tal-Hatkanangale, Dist-Kolhapur-416122",16.753021,74.279095,7.0
"Dhoot Motors, Adalat Road",Aurangabad,"ABC Complex, Adalat Road, Aurangabad, Maharashtra 431005Second location for survey : Adalat Road, Next to High Court, Aurangabad, Maharashtra 431005",19.872922,75.318613,7.0
"Nathani Heights, Mumbai Central",Mumbai,"Junction of Bellasis Road and Dr D.B. Marg , Mumbai Central, Mumbai 400008",18.9688627,72.8207138,7.0
"Amanora Mall Big Bazar Parking, Hadapsar",Pune,"Crescent Rd, Amanora Park Town, Hadapsar, Pune, Maharashtra 411028",18.51873971,73.936184,7.0
"Amnora Sport Arena, Hadapsar",Pune,"Amanora Township , Hadpasar , Pune 411028",18.51566576,73.94607248,7.0
"CSMT Station, Fort",Mumbai,"Chhatrapati Shivaji Maharaj Terminus, Fort, Mumbai, Maharashtra 400001",18.9453551,72.8383287,7.0
"Mahanagar Gas Limited, Wadala",Mumbai,"MGL Terminal, opposite Anik Depot, Wadala, Mumbai, Maharashtra 400022",19.0472567,72.8783829,7.0
"IOCL COCO, BKC",Mumbai,"Bandra Kurla Complex, New Coco At, C-67, Bharat Nagar Rd, G Block BKC, Bandra Kurla Complex, Bandra East, Mumbai, Maharashtra 400051",19.0599578,72.8647916,7.0
"Vivera Hotels & Resorts, Loc 1, Narketpally",Suryapet,"NH 65, Narketpally, Telangana - 508254",17.212796,79.166746,7.0
"Highway Hospitality, Rajugari Thota",Suryapet,"NH 65, Rayangudem Village, Suryapet, Telangana-508213",17.1525348,79.5699188,7.0
"Zenith Chemical Works Pvt Ltd, Andheri East",Mumbai,"Zenith Chemical Works Pvt Ltd. Plot No. B.6, Cross Road B, MIDC Marol, Andheri East residing at Mumbai-400093",19.1157451,72.8682563,7.0
"Panchjanya Motors, Bhosari",Pune,"Wakad - Bhosari BRTS Road, Century Enka Colony, Bhosari, Pimpri-Chinchwad,Maharashtra 411039",18.61547,73.84618,7.0
"Panchjanya Motors, Chinchwad",Pune,"No 49, Block D2, MIDC Ador Power Station, Chinchwad, Ram Nagar, Chinchwad, Pune,Maharashtra 411039",18.648576,73.798872,7.0
"Hotel Sai International Yelur, Sangali",Yelur,"Pune Bangalore Highway (NH-4, Vasant Park Chougle Plot, Yelur, Maharashtra 415411",16.956461,74.275721,7.0
"Sangam Hotel, Pune- Bangalore Road",Karad,"NH 4, Pune-Bangalore Road, Near Kolhapur Naka, Karad, Maharashtra 415110",17.2737243,74.1802756,7.0
"Amrai Hotel & Resort , NH 4 Shendre",Satara,"KG.NO 207/B, Plot No-1&2, Near National Highway No-4, Shendre, Satara, Maharashtra 415002",17.63820763,74.01209174,7.0
"AH Group, Hinjewadi Phase I",Pune,"Aditya Infotech Park ,SBI Bank ,Phase I , Hinjewadi Pune 411057",18.589877,73.7383657,7.0
"IOCL Kini Causway, Bandra West",Mumbai,"36, SV Rd, Santosh Nagar, Bandra West, Mumbai, Maharashtra 400050",19.051601,72.838011,7.0
"IOCL - COCO ALE 101, Mohabbatpur",Mainpuri,IndianOil Petrol pump at Km Stone 101.2 LHS Village Mohabbatpur Tehsil karhal Distt Mainpuri - 205268,26.968708,79.019513,7.0
"Uniworld City, New Town",Kolkata,"Uniworld City, Newtown, New Town, West Bengal 700156",22.561997,88.492903,7.0
"Jadhav Solar & Automotives, Badnera",Amravati,"Jadhav Solar & Automotives Pvt.  Ltd., Jadhav E-Vehicles, Ground floor, Rangoli Pearl Hotel, Nawathe Square, Badnera Road, Amravati, MH- 444607",20.909443,77.7522447,7.0
"Datson Electronics, Gorhe",Pune,"M/s. Datson Electronics pvt ltd Gat.No.30. Sinhagad Road , Gorhe Budruk .Tal- Haveli Next To Savali Resort , Off Sinhagad Road . Village Gorhe . Pune - 411025",18.423343,73.754875,7.0
"Hare Krishna Mahindra, Mulund West",Mumbai,"Building, Plot 1, Udyog Kshtra, Mulund Goregaon Link Rd, near D Mart Mulund, Salpa Devi Pada, Mulund West, Mumbai, Maharashtra 400080",19.163979,72.938751,7.0
"Smile Stone Motels, Kamargaon",Ahmednagar,"76/B, Nagar-Pune Road, Kamargaon, Ahmednagar,Maharashtra-411005",18.9852363,74.5760075,7.0
"IOCL COCO Palayamputhur, Palyampudur",Palyampudur,"Dharmapuri Main Road, Palayampudur, Tamil Nadu 636807",12.0243727,78.0979115,7.0
Hotel Mamalla,Siliguri,"Reliance Industrial Consortium Ltd. NH 31 Baniakhari, Kusumnagar Landmark, beside Barsana Hotel, Matigara, Siliguri, West Bengal 734010",26.729623,88.373903,7.0
"Daspalla Hotels, Suryabagh",Vizag,"Hotel Daspalla Visakhapatnam, 28-2-48, Suryabagh, Jagadamba Junction,A P 530020",17.7105539,83.3008275,7.0
"TDI Business Centre, Mohali",Mohali,"TDI Business Centre, Sector 118, TDI City, Mohali - 160055",30.7366917,76.6803752,7.0
"Click Hotel, Rane Nagar",Nashik,"904, Mumbai - Agra National Hwy, opposite Orchid International, Rane Nagar, Nashik, Maharashtra 422009",19.9625471,73.7652956,7.0
"Aurangabad Smart City, Himayat Bagh",Aurangabad,"V8VH+HMJ, Himayat Bagh, Aurangabad, Maharashtra 431004",19.8942375,75.3280838,7.0
"Navagauri Tyres, MIDC",Baramati,"MIDC Baramati Plot No. 237, near Hindustan Cattle feed Baramati- 413133",18.206925,74.6085667,7.0
MH | Nashik | Nashik | Car mall,Maharashtra,"CAR MALL, Buddha Vihar, Pathardi Phata, Nashik, Maharashtra 422010",19.9519,73.7541,24.0
"Dion Automotives,Samantarpur",Bhubaneswar,"Plot No 2175, 3766, Lewis Road, Samantarapur, Old Town, Bhubaneswar, Odisha 751002",20.227001,85.840966,7.0
"Lankeswari Motors, NH 6 - Gopalpalli Chowk",Sambalpur,"National Hwy, 06, Near Gopalpalli Chowk, Sambalpur, Odisha 768006",21.498344,83.956558,7.0
"Trupti Automotives, NH 16 - Manguli Chowk",Cuttack,"NH16, Manguli Chowk, Odisha 754025",20.529316,85.949237,7.0
"Trupti Automotives, NH 53 - Duburi",Kalinganagar,"Duburi, Kalinga Nagar Tata Steel Area, Odisha- 755026",20.9502562,85.989753,7.0
"CSM Technologies, Khorda",Bhubaneswar,"E/56, Infocity, Chandrasekharpur Industrial Area, Khorda, Bhubaneswar, Odisha-751024",20.3395267,85.80065,7.0
"CSM Technologies, Acharya Vihar",Bhubaneswar,"OCAC(Odisha Computer Application Centre) Building, Plot No N-1/7-D, Acharya Vihar, Khorda, Bhubaneswar, Odisha-751013",20.2996381,85.8309336,7.0
"Samal Equip, Nuahata",Angul,"Nuahata, Odisha 759128",20.832862,85.2382584,7.0
"Ginger Hotel, Nayapalli",Bhubaneswar,"Ginger Hotel Bhubaneshwar Opp. Nalco Headquarter,Jayadev Vihar, Nayapalli, Bhubaneshwar 751013",20.3,85.82,7.0
"Holiday Villa, Poladpur Road",Pune,"T-163, MIDC Bhosari, Pune, MIDC, Bhosari, Pimpri-Chinchwad, Piune-411026",18.6209574,73.8299842,7.0
"FPL Vehicles, Ariyankuppam",Puducherry,"No.1 Cuddalore, Puducherry ECR Main Road , Ariyankuppam , Puducherry-605007",11.8945141,79.8026819,7.0
"Gitansh Motors, GT Road Jugiana",Ludhiana,"GT Road Jugiana,adjoining indian oil petrol pump,ludhiana-141010",30.857873,75.936632,7.0
"RSA Motors, Industrial Area II",Chandigarh,"Plot No.40, Industrial Area, Phase II, chandigarh - 160002",30.6990516,76.7855313,7.0
"IOCL - COCO IT Park, Bhagwanpura",Chandigarh,"IT HABITAT, Rajiv Gandhi Chandigarh Technology Park, Bhagwanpura, Chandigarh- 160101",30.731143,76.836682,7.0
"IOCL - COCO 65, Sec -65",Mohali,"631 A, Sector 65, Sahibzada Ajit Singh Nagar, Punjab-160062",30.679836,76.746633,7.0
"Dada Motors, Heera Singh Nagar",Ludhiana,"Heera Singh Nagar, Jalandhar Bye Pass, Ludhiana-141008",30.9491373,75.826643,7.0
"One Earth Avaas, Amritsar",Amritsar,"One Earth Avaas, BBK DAV College,12 Lawrence Road, Dayanand Nagar, Amritsar, Punjab -143001",31.6461759,74.878269,7.0
"Shiv Shanker Motors, Hukumpet",Rajahmundry,"110-4-7, NH 16 Hukumpet, Aditya Nagar, Bommuru, Rajahmundry-533103",16.9833296,81.7980427,7.0
"GPS Automobiles, Tonk Road",Jaipur,"Plot No. 2& 3/4, Choudhary Charan Singh Colony, Tonk Road, Jaipur, 302029",26.833144,75.7951,7.0
"Chambal Motors, Madri Industrial Area",Udaipur,"CP-6/CP-7, Madri Industrial Area - 313001",24.574885,73.746285,7.0
"GPS Automobile, Parbatpura",Ajmer,G.P.S. Automobiles pvt. Ltd. ; Jaipur Ajmer express highway near municipal trenching ground Parbatpura Ajmer- 305002,26.4267566,74.6819745,7.0
"Shree Shyam Motors, VKI Area",Jaipur,"E(5) B, Road no 1C, VKI area, Jaipur - 302013",26.972289,75.777332,7.0
"First Mobital, Tonk Road",Jaipur,"G1-211, Sitapura Industrial Area, behind genpect Tonk Road, Jaipur - 302022",26.7775967,75.8392813,7.0
"Roshan Motors, Adarsh Nagar",Jaipur,"No B, 7, Govind Marg, Saket Colony, Adarsh Nagar, Jaipur, Rajasthan 302004",26.9013221,75.8354512,7.0
"Chambal MotoCorp, Surajpole",Udaipur,"Plot No 3 and, 4, Panchsheel Marg, Surajpole, Udaipur, Rajasthan 313001",24.581106,73.696687,7.0
"Yash Motors, Subhash Nagar",Bhilwara,"3, Ajmer Rd, Subhash Nagar, Bhilwara, Rajasthan 311001",25.38240223,74.61958377,7.0
JhalamandGarh Jodhpur,Jodhpur,"Post Office Jhalamand, Jodhpur, Rajasthan 342005",26.20977,73.0650083,7.0
RnB Shanti Seva Niketan,Salasar,"MDR2, Salasar , Rajasthan 332318",27.7363007,74.7426386,7.0
"Ginger Hotel, Civil Lines",Jaipur,"Ginger Hotel Jaipur Geejgarh House, Civil Lines, Hawa Sadak, Jaipur 302006 Tel: 0141 4666 333",26.9013484,75.7850126,7.0
"Sp Motors, Madri",Udaipur,"E-110 Main Bypass Road, Mewar Industrial Area, Madri, Udaipur-313003",24.57444,73.72351,7.0
"Visvakarma Hotel, Jhunhunnu",Sikar,"Visvakarma Hotel, NH 11 NH52, Near Ganpati Dham, Sargoth, Sargoth Via Reengus, Sikar Rajasthan 332404",27.3449069,75.6020031,7.0
GJ | Surat | Kamrej ,Surat,"Block number 552-553 IRB Compound opp Mansarovar Residency NH 8 Kamrej, Surat 394185",21.221,72.8733,24.0
Cafu00c3u00a9 Udupi Ruchi,Ulundurpet,"102/19, Chennai Trichy NH Sengurichi, Village, Ulundurpet, Tamil Nadu 606115",11.7194357,79.3364597,11.0
EESL High court station,Chennai,High Court Metro Station Chennai (CMRL),13.088249,80.285359,8.0
EESL Chennai Egmore metro,Chennai," Chennai Egmore metro, Chennai (CMRL)",13.079097,80.261538,8.0
EESL Saidapet Metro station,Chennai,Saidapet Metro station,13.0237,80.2282,8.0
EESL Tirumangalam Metro station,Chennai,Tirumangalam Metro station,13.0853,80.2016,8.0
EESL Thirumangalam Metro,Chennai,Tirumangalam Metro station,13.0853,80.2016,8.0
Radisson Blu Resort Temple Bay I Mamallapuram,Mahabalipuram,"Radisson Blu Resort Temple Bay Mamallapuram, 57 Covelong Road, Dist, Mahabalipuram, Tamil Nadu 603104",12.6238399,80.1945931,11.0
Spencer Plaza Mall | Chennai,Chennai,"Spencer Plaza Mall, 768-769, Anna Salai, Chennai, Tamil Nadu 600002",13.0615444,80.2614559,11.0
"LAKSHMI Motors, Thoraipakkam",Chennai,"118, Okkiam, Thoraipakkam, Chennai, Tamil Nadu - 600097",12.92976,80.23164,7.0
"Ginger Vadapalani, NGO Colony",Chennai,"61, Inner Ring Rd, Thiru Nagar Colony, NGO Colony, Vadapalani, Chennai, Tamil Nadu 600026",13.05647,80.21116,7.0
"Gurudev Tata Motors, Arumbakkam",Chennai,"Old No 90, New Number 1090, E.V.R. Periyar High Road, Arumbakkam, Chennai, Tamil Nadu - 600106",13.07656,80.2021,7.0
"FPL Vehicles, Annasali",Chennai,"NO. 824/2, Annasali Nandnam, Chennai, Tamil Nadu, 600035",13.03001,80.24211,7.0
"PPS Motors, Chinniyampalayam",Coimbatore,"No-138, Avinashi Road, Chinniyampalayam, Coimbatore-641062",11.04991,77.05765,7.0
"PPS Motors, Thirumangalam",Madurai,"Shed No. D-23, Nilaiyur First Bit, Uchapatti Village,Thirumangalam, Madurai-625402",9.862428,78.021557,7.0
"FPL Vehicles, Perumugai",Vellore,"33/5A1, Chennai Bangalore Highway, perumugai, Vellore-632009",12.945336,79.200662,7.0
"Sree Gokulam Motors, Zamin Pallavaram",Chennai,"Sree Gokulam Motors, No 93, 3C, 200 Feet Radial road, Zamin Pallavaram, Chennai - 600117",12.950258,80.176003,7.0
"Vivera Hotels & Resorts, Bhuvanagiri",Bhuvanagiri,"NH 163, Ragari, near IT College, Bhuvanagiri, Telangana 508116",17.522471,78.924306,7.0
"Tanishq, Cathedral road Gopalpuram",Chennai,"No.100, Cathedral Rd, Gopalapuram, Chennai, Tamil Nadu 600086",13.04774,80.25418,7.0
"Chima Cars, Kappalur",Madurai,"H-14, H-14A, SIDCO INDUSTRIAL ESTATE UCCHAPATTI, Kappalur, Tamil Nadu 625008",9.938364,78.150085,7.0
"Gateway Coonoor - IHCL SeleQtions, Coonoor",Ooty,"Upper, Coonoor, Tamil Nadu 643101",11.3459974,76.801575,7.0
"Tejaswi Motors, Madhapur",Hyderabad,"Plot No. 4/14, Opp. Cyber Towers, KPHB Road, Madhapur, Hyderabad, Telangana - 500081",17.45345,78.38334,7.0
"Venkataramana Motors, ECIL",Hyderabad,"Plot No 11, Victory Plaza, ECIL X Roads, Hyderabad, Telangana - 500062",17.48081,78.57715,7.0
"Westside, Somajiguda",Hyderabad,"PLOT NO.6-3, Kmc Retail Mall, CIRCLE, 1112, near KIRTILAL JEWELLERS, Somajiguda, Hyderabad, Telangana 500082",17.4226,78.46136,7.0
"Croma, Attapur",Hyderabad,"Sirimalle Square Plot Nos. 8, 9, 10 Survey No. 523/B, Pillar No. 160 Attapur, Rajendranagar mandal, Hyderabad, Telangana 500048",17.359176,78.426285,7.0
"Croma, Kompally",Hyderabad,"Ratna Arcade, Ground Floor Survey No. 128 National Highway 44, Beside, Sree Vensai Towers, Ruby Block, Kompally, Secunderabad, Telangana 500014",17.531882,78.485644,7.0
"Sarath City Capital Mall, Whitefields",Hyderabad,"Sarath City Capital Mall, Whitefields, Gachibowli-Miyapur Road, Hyderbad 500084",17.457774,78.36396,7.0
"7 Food Court, NH 65 -Rayangudem",Suryapet,"NH - 65, Rayangudem Village Suryapet Mandal, Suryapet, Telangana 508213",17.150628,79.577475,7.0
AARGO ASLI PAPPU DHABA,KOSI KALAN,"NEAR KOTWAN POLICE CHOWKI,UP BORDER,KOSI KALAN,KOSI KOTWAN,UTTAR PRADESH",27.832687,77.418785,22.0
"Sagar Motors EV, Surajpur",Noida,"E-36, Site-4, UDSIDC, Surajpur Kasna Road, (Near Pari Chowk), Noida, Uttar Pradesh - 201310",28.45782,77.52322,7.0
"Society Motors, MACROBERTGANJ",Kanpur,"12/483, Macrobert Ganj, Kanpur, Uttar Pradesh - 208001",26.482346,80.329394,7.0
"Beeaar Autowheels, Chinhat",Lucknow,"Milestone No.u00c2u00a0111, Faizabad Road, Chinhat, Lucknow (UP) 227105",26.872061,81.036465,7.0
"NRL Cars, Nagla Padi",Agra,"404, Nagla Padi, Near Arvind Hyundai 282005",27.21132,77.99742,7.0
"Keshav Raj, Rampur Road",Bareilly,"Keshav Raj Automobiles Private Limited, 4.5 KM Rampur road, C. B Ganj Bareily-243001",28.382444,79.3860164,7.0
"Puneet Automobiles, Faizabad Road",Lucknow,"403-407, Tiwariganj Near BBD University, Faizabad Road, Lucknow - 226028",26.892843,81.0728,7.0
IOCL - Tyagi Brothers Service Station,Ghaziabad,"IOCL on Ghaziabad bulandshahar Road, Stone No 26. 850 Vill Chhapraula Distt GB Nagar-201009",28.6195483,77.4838183,7.0
IOCL - Vibhor S Station,Ghaziabad,IOCL on Ghaziabad - Hapur  Road (NH-24) At Mauza Garhmukhteshwar Near KM Stone No. 87 Dist Ghaziabad-245205,28.7712124,78.0976854,7.0
IOCL - Agarwal  Service Station,Muzaffarnagar,"IOCL on Khatauli Near KM Stone NO 15.5  On NH -58 Meerut/ Delhi  Muzzaffarnagar Road, Khasra No 1745/0752, Dist Muzaffarnagar-251003",29.4118349,77.7006719,7.0
"Bikano Restaurant, NH-58",Muzaffarnagar,"Bikano Restaurant, NH-58 Rampur Tiraha Roorkee Road Muzaffarnagar-251202",29.5248148,77.7195782,7.0
"Fun & Food Carnival, NH 58",Muzaffarnagar,"Fun & Food carnival, Bhainsi NH-58 National Highway Khatauli, Muzaffarnagar-251201",29.3097043,77.7221041,7.0
"GenX Agra, NH 19",Agra,"NH19, SikandraBainpurMustkil, Agra, Uttar Pradesh 282007",27.22078133,77.93095398,7.0
"GenX Le Crescent, Indirapuram",Ghaziabad,"Plot No, II, Mall Rd, Ahinsa Khand 2, Indirapuram, Ghaziabad, Uttar Pradesh 201014",28.6466309,77.384303,7.0
GenX Corbett Tiger Den,Ramnagar,"Village: PattaPani, Belparao, Ramnagar, Uttarakhand 244715",29.313755,79.1950917,7.0
Sparsh Hotels by Clarks Collection,Bareilly,"OPP.SURESH SHARMA NAGAR CHAURAHA, PILIBHIT BY-PASS ROAD,Bareiily., Bareilly u00e2u0080u0093 243001",28.3826,79.386066,7.0
"Grand Vehicles, Mahobewala",Dehradun,"Saharanpur Road, Mahobewala Chowk, Dehradun, Uttarakhand 248002",30.2683877,77.984897,7.0
"One Earth Haridwar, Motichur",Haridwar,"One Earth Haridwar near, dudhadhari chowk, Motichur, Haridwar, Uttarakhand 24941",29.9787383,78.1818067,7.0
"Gardenia SPA & Resort, Sec 11",Haridwar,Plot No 1 Sector 11 SIDCUL Haridwar Uttrakhand-249403,29.9512388,78.0759131,7.0
"Hotel Flora, Shivalik Nagar",Haridwar,"M3, M4  Shivalik Nagar Haridwar Uttrakhand-249403",29.9276885,78.0648679,7.0
Clarks Collection Epicure,Dehradun,"Chakarata Road Clarks Collection Epicure, Nanda Ki Chowki, Dehradun, Uttarakhand248007",30.3430197,77.9539417,7.0
"Auto Hi-Tech, Southern Avenue",Kolkata,"No 34 A, Chandra Nath Roy Rd, near Anandadham, Topsia, Kolkata, West Bengal 700039",22.531074,88.385612,7.0
"Banerjee Automobiles, NH 2 Chandul",Bardhaman,"Ferighat Parking, NH2, Fagupur PO, Burdhaman(purba) Chandul Mouza West Bengal - 713101n",23.2738959,87.8094992,7.0
"IOCL RO u00e2u0080u0093 Basanti Hwy, Bayarmari",Bayarmari,"Plot 392&393 Mouza, Bayarmari, Nazat Dist. North 24 Paraganas - West Bengal 743442",22.4380501,88.763395,7.0
The Golkonda Hotel,Hyderabad,"The Golkonda Hotel, Ambedkar Nagar, Masab Tank, Hyderabad Telangana 500004",17.4,78.45,21.0
Sri Sai Dhaba - Jedcharla,Palem,"CW8R+Q54, Telangana 509219 Jedcharla Telangana 509219",16.42,77.94,21.0
Palm Meadows,Hyderabad,"Palm Meadows Rd, Laxmi Nagar Colony, Kompally Hyderabad Telangana 500100",17.56,78.48,21.0
Sohini Tech Park,Hyderabad,"Nanakramguda Road, Financial district, Gachibowli Hyderabad Telangana 500032",17.42,78.35,21.0
Hotel Gangothri,Kodikonda,"Kodikonda Checkpost (V), Chilamathur (Mandal), Anantapur Andhra pradesh 515601",13.83,77.74,21.0
Exotikka Restaurant,Ananthapur,"survey no- 155, NH44, beside TATA show room. Kakkala palli village Anantapur 515001.",14.65,77.58,21.0
"Magenta TTC, Turbhe",Navi Mumbai,"Magenta House, D-285, TTC Industrial Area, nTurbhe, Near Unitech Motors, Navi Mumbai, Maharashtra",19.0685788,73.022744,18.0
The Fern An Ecotel Hotel,Lonavala,"84/1 to 4/2, Valvan, Maval, Lonavla, nMaharashtra 410401",18.76284112,73.4267514,18.0
"Hotel Fern Zinc, Whitefield",Bengaluru,"1528, Channasandra Main Rd, beside Global nSchool, Vijayanagara, Whitefield, Bengaluru, nKarnataka 560067",12.9778518,77.7566714,18.0
Amanora Park Town,Pune,"Amanora Park Town, Amanora, Magarpatta nRd, Hadapsar, Pune, Maharashtra, 411028",18.51848416,73.94137686,18.0
Xavier Institute of Engineering,Mumbai,"Opposite S.L.Raheja Hospital, Mahim nCauseway, Mahim (West), Raheja Hospital nMarg, Mumbai, Maharashtra 400016",19.04527839,72.84168159,18.0
"HPCL auto care, Sajgaon",Sajgaon,"Sajgaon HPCL petrol pump, Mumbai-Pune nExpressway",18.79344,73.297239,18.0
"UK 27, The Fern",Belgavi,"UK27, Fern, Ayodhya Nagar, Sadashiv Nagar, nBelagavi",15.87491249,74.51340824,18.0
Fern Residency Karad,Karad,"The Fern Residency,NH-4 At Munde, Tal, nKarad",17.2976094,74.16633302,18.0
"Anjappar Chettinad A/C Restaurant, Nazarathpettai",Chennai,"NH 48, Nazarathpettai, Tamil Nadu 600123",13.04691388,80.0793241,19.0
"Ocean Spray Resort, Manjakuppam",Pondicherry,"No: 7, 8, 9, SH 49, Manjakuppam, Tamil Nadu 60430",12.06587465,79.88027083,19.0
"Prashanth Charging Station, Chidambaram",Chidambaram,"SH 212, Kadavul Nagar,",11.40802995,79.67390344,19.0
Hotel Gem Park,Ooty,"Sheddon Road, Pudumund Ooty Tamilnadu 643001",11.42,76.7,11.0
Hotel Aryaas Veg | Pallikonda,Pallikonda,"HOTEL ARYAAS, NH-4, Veppangal, Pallikonda, Tamil Nadu 635809",12.9071309,78.9620183,11.0
Hotel Sri Nanjundeshwara I Tumkur,Tumkur,"Hotel Nanjundeshwara, Veg Restaurant, NH 48, Sannappana Palya, Pandithanahalli, Karnataka 572104",13.2852419,77.1829955,11.0
Cassia Restaurant I Alappuzha,Alappuzha,"Cassia Restaurant, NH -47, Kommady, Alappuzha, Kerala 688008",9.5188743,76.3274171,11.0
Wyte Portico Hotel I Adoor,Adoor,"Wyte Portico Hotel, High School Jn, Karuvatta, Adoor, Kerala 691523",9.1621728,76.7219365,11.0
Hotel Kalyan Grand I Vandalur,"Vandalur, Chennai","Kalyan Grand - a business hotel, 247 Grand Southern Trunk Rd, Next to Vandalur Zoo, Chennai, Tamil Nadu 600048",12.8735113,80.0785537,11.0
Hotel Subbanna | Karur,Karur,"Madurai Byepass Road Service Road, L G B Nagar, Tamil Nadu 639001",10.9577783,78.0605855,11.0
A S M ABDUL CADER AND CO,CHENNAI,"A S M ABDUL CADER AND CO, DOOR NO 355 CEMENT ROAD, ALANDUR, MEENAMBAKKAM,CHENNAI, TAMIL NADU, 600016",12.99431,80.18706,23.0
"BP,GHAR-MARAIMALAI NAGAR",CHENGALPATTU,"BP,GHAR-MARAIMALAI NAGAR, SY NO 336/6 ( PART ), NH-45, GST RO, MARAIMALAI NAGAR, CHENGALPATTU, TAMILNADU, 603209",12.78326,80.01671,23.0
SAKTHI MADUMALAR AGENCIES,CHENGALPATTU,"SAKTHI MADHUMALAR AGENCIES, NH-45 CHENNAI-TRICHY HIGHWAY, MELMARUVATHUR, CHENGALPATTU, TAMIL NADU, 603319",12.43395,79.83235,23.0
SRI VENNI AGENCIES,VILLUPURAM,"Bharat Petroleum Dealers, SY NO 52/6B1 & 52/7A1, NH38, Chennai Trichy Highway, CHINNAVALAVANUR, VILLUPURAM, TN-604302",12.16381,79.61146,23.0
RAVIE AGENCIES,VILLUPURAM,"Bharat Petroleum Dealers, SY NO 148/1, NH38, Chennai Trichy Highway, V. SALAI, VIKRAVANDI, VILLUPURAM, TN-605652",12.06382,79.54755,23.0
BP-ULUNDURPET,KALLAKURICHI,"Bharat Petroleum Company Owner retail outlet, Next to Ulundurpet Toll, NH38, CHENNAI-TRICHY HIGHWAY, SENGURICHI VILLAGE, KALLAKURICHI Dt, TN-606115",11.71881,79.33575,23.0
BP-TRICHY,TRICHY,"Bharat Petroleum Company owner retail outlet, S.No-489/5B, NH38, CHENNAI-TRICHY HIGHWAY, SANNAMANGALAM, Trichy, TN-621104",11.03248,78.80801,23.0
KARTHIK AGENCIES,TRICHY,"Bharat Petroleum Dealers, S.No-456/6, 5B, NH38, CHENNAI-TRICHY HIGHWAY, SIRUGANUR, LALGUDI TK, Trichy, TN-621105",11.00462,78.78876,23.0
SRI RAJAN ENTERPRISES,MADURAI,"Sri Rajan Enterprises, BPCL Dealers, Surakundu village, Melur - Madurai road, NH 38, Melur, Madurai 625106",10.02184,78.31352,23.0
BP-OTHAKKADAI,MADURAI,"BP Othakadai, BPCL Retail Outlet, Kodikulam Village, Madurai - Melur NH 38, Madurai 625104",9.9445,78.15418,23.0
Charge Zone,Vapi,"GJ | Vapi |Shanti-Complex ,Shanti Complex, Beside King Ford Near Jalaram Temple, NH-8, Vapi, Gujarat 396191",20.38000422,72.914853,24.0
Charge Zone,Kasara,"MH | Kasara | Hotel Vrundavan,Hotel Vrindavan, Mumbai nasik highway,near indian petrol pump,mukhavane,kasara, dist thane, Kasara, Maharashtra 421601",19.62751783,73.44803503,24.0
Charge Zone,Sangli,"MH | Sangli | Mehta Petroleum,Miraj Rd, Samasta nagar, Miraj, Maharashtra 416410",18.79104859,73.29845541,24.0
Charge Zone,Mumbai,"MH | Mumbai | The Westin Mumbai Powai Lake,The Westin Mumbai Powai Lake  Kailash Nagar, Morarji Nagar, Powai, Mumbai, Maharashtra 400076",19.133659,72.900817,24.0
Charge Zone,Mumbai,"MH | Mumbai | NSCI - Worli,NSCI, Lala Lajpatrai Marg, Lotus Colony, Worli, Mumbai, Maharashtra 400018",18.9862222,72.8149436,24.0
Charge Zone,Behror,"RJ | Behror Village | Hotel Express Highway,National Highway 8, Delhi - Jaipur Expy, Behror, Rajasthan 301701",27.857413,76.2640464,24.0
Charge Zone,Aligarh,"UP | Aligarh | Hotel Food Bell,Ogarnagala Rajoo, Opposite Reliance fuel point, Uttar Pradesh 202136",28.0236646,77.9738421,24.0
Charge Zone,Bengaluru,"KA | Bengaluru | Marriott Hotel Whitefield ,Plot No 75, 8th Rd, EPIP Zone, Whitefield, Bengaluru, Karnataka 560066",12.9792332,77.728456,24.0
Tata Power ,Kolkata,"IOCL COCO Opp Nature Park, Makalhati MAuza, Makalhati Mauza, Kolkata, West Bengal 700088",22.52299,88.29081,7.0
Tata Power ,Durgapur,"Kejriwal Castings, Gopalpur, Kejriwal Castings Limited, Bamunara, Gopalpur Road, Gopalpur, Durgapur, West Bengal 713212",23.498815,87.377675,7.0
Tata Power ,Digha,"Le ROI, Digha, 3, Multi - MFC, Ambition Hotels Pvt Ltd, Digha Railway Station, West Bengal-721463",21.623312,87.508939,7.0
Tata Power ,Rudrapur,"Ginger Hotel, Patnanagar, Ginger Hotel Pantnagar Plot No. 1, Commercial Sector, IIE, SIDCUL Pantnagar, Rudrapur 263153",29.006961,79.401351,7.0
Tata Power ,Nainital,"Le ROI, Corbett, Village Dhikuli, Le Roi Resort, Nainital, Uttarakhand - 244715",29.458587,79.145012,7.0
Tata Power ,Haridwar,"Le ROI, Haridwar, Multifunctional Complex, Haridwar Railway Station 249401",29.947655,78.155635,7.0
Tata Power ,Haridwar,"Hyphen Grand, near Radisson, Hyphen Grand Hotel, Pentagon Mall ,Sidcul Industrial Area, near Radisson, Haridwar, Uttarakhand 249403",29.947749,78.075249,7.0
Tata Power ,Noida,"Shiva Motocorp, Sec-5 , Shiva Motocorp - A Unit of Narnoli Apparels Pvt. Ltd.  Plot A-108, Jaguar Land-rover showroom, Sector-5, Noida - 201301",28.592257,77.322172,7.0
Tata Power ,Noida,"IOCL - COCO EPE Aurangpur, Gautam Budh Nagar, Plot No, CH-95, 600, VILLAGE-AURANGPUR, On Eastern Peripheral Expressway, , Gautam Buddha Nagar,UP- 201301",28.346036,77.513608,7.0
Tata Power ,Meerut,"Hyphen Premier Hotel, Major Dhyanchand Nagar, Hyphen Premier Hotel, Shopprix Mall, Hapur Bypass Delhi, Delhi - Meerut Expy, Major Dhyanchand Nagar, Meerut, Uttar Pradesh 250001",28.9482803,77.6754855,7.0
Tata Power ,Lucknow,"Pinnacle by 1589 Hotels, LDA Colony, Sector D, C.P. - 151, Parag Rd, near Power House Chauraha, Sector D1, LDA Colony, Lucknow, Uttar Pradesh 226012",26.7737236,80.9005077,7.0
Tata Power ,Agartala,"Ginger Hotel, Airport Road, Ginger Hotel Agartala Khejur Bagan, Airport Road, Barjala Mouja, Agartala 799006",23.8620683,91.2822391,7.0
Tata Power ,Hyderabad,"Srinidhi Service Station, Nizampet, Survey No:305 part, Village: Nizampet, Mandal: Qutbullapur, District: Rangareddy, Telangana.Pin 500049",17.517565,78.380926,7.0
Tata Power ,Hyderabad,"Kona Vijay Shankar Filling Station, Bahadurpally, Plot Nos. 50, 51, 52 Part 53 Part, 54, 55, Survey No. 227/1, Bahadurpalle Village, Quthbullapur Mandal, Medchal Malkajgiri  District, Telangana State. PIN 500043",17.561621,78.4303171,7.0
Tata Power ,Hosur,"True Sai, Agraharam, Survey No 46/ 1A and 47/1A Thorapalli Agraharam, Hosur, Tamil Nadu 635109",12.7170751,77.876026,7.0
Tata Power ,Jaipur,"Clarks Collection, Govindpuri, 18, New Sanganer Rd, RoopVihar, Goverdhan Colony, Shiva Colony, Govindpuri, Jaipur, Rajasthan 302019",26.88776,75.7680401,7.0
Tata Power ,Jaipur,"Akar Fourwheels, Jhotwara, Niwaru Rd, Kumasiya, Shivaji Nagar, Jhotwara, Jaipur, Rajasthan 302012",26.9142719,75.7533201,7.0
Tata Power ,Ajmer,"Mudgal Motors, Parbatpura, Mudgal motors, Jaipur Road Bypas, Parbatpura, Ajmer Rajasthan -305002",26.409926,74.661819,7.0
Tata Power ,Amritsar,"IOCL Mahal FS, Sultanwind, SULTANWIND, FROM TARA WALA FLY OVER TO TARN TARAN ROAD, TEHSIL & DISTT. AMRITSAR- 143001",31.599201,74.89145,7.0
Tata Power ,Kalinganagar,"Ginger Hotel, Nuagan, Ginger Hotel Kalinganagar SH 20, Nuagan, Odisha 755026",20.97918833,86.0273,7.0
Tata Power ,Port Blair,"Gennext Motors , Pahargaon, Ground Floor New, Pahargaon, Port Blair, Andaman and Nicobar Islands 744103",11.630305,92.724835,7.0
Tata Power ,Guwahati,"Ginger Hotel, Borbari, Ginger Hotel GuwahatiI HM Campus, VIP Road, Upper Hengrabari, Borbari, Guwahati 781036",26.1474785,91.8145291,7.0
Tata Power ,Purnea,"Shankar Motors, NH 31 Kishanganj Road, NH 31 Kishanganj Road, Damka, near Gulabbagh, Purnea, Bihar 854326",25.7952561,87.5593019,7.0
Tata Power ,Raipur,"Le ROI, Raipur, Raipur Railway Station, Loco Colony, Gudhiyari, Raipur, Chattisgarh - 492009",21.255366,81.62943,7.0
Tata Power ,Pune,"Hotel Swamiraj Executive, Pune-Solapur Highway, Hotel Swamiraj Executive, Opposite to Saradewadi Toll Plaza,, Pune-Solapur Highway,Indapur, Pune, Maharashtra 413106",18.095949,75.068207,7.0
Tata Power ,Pune,"Balajee Auto, Aundh, Phase 2, Siddarth Nagar Society, Aundh, Pune, Maharashtra 411007",18.567199,73.812297,7.0
Tata Power ,Panvel,"Hotel Pravin , Vishrali Naka, Pravin Smruti, Service Rd, Subhash Nagar, Vishrali Naka, Old Panvel, Navi Mumbai-410206",18.98164,73.11555,7.0
Tata Power ,Navi Mumbai,"Fortune Cars, Navi Mumbai, Plot No. D-400, TTC Industrial Area, MIDC, Near Uran Phata Signal, Nerul, Navi Mumbai, Maharashtra - 400706",19.03639,73.029907,7.0
Tata Power ,Delhi,"MVID MCD Hospital, Mukherjee Nagar, MVID MCD Hospital Parking, Tagore Park Extension, Mukherjee Nagar, Delhi, 110009",28.7036992,77.2044734,7.0
Tata Power ,Delhi,"Naniwala Bagh Commercial Complex, Azadpur, Commercial Complex, Gopal Nagar, Azadpur, New Delhi, Delhi 110009",28.709831,77.17765,7.0
Tata Power ,Delhi,"Netaji Subash Place, Pitampura, MCD, Netaji Subhash Place, Pitampura, Delhi, 110034",28.6912791,77.1523963,7.0
Tata Power ,Nagpur,"RawMatt CNG Filling Station, Wadi, Old Wadi Naka, No. 10, Amravati Rd, Wadi, Nagpur, Maharashtra 440023",21.154062,79.013159,7.0
Tata Power ,Mumbai,"The Taj Mahal Palace, Colaba, In front of Times Building , Apollo Bandar, Colaba, Mumbai, Maharashtra 400001",18.92279506,72.83351898,7.0
Tata Power ,Delhi,"Parking Near Manglam Place, Rohini, MCD parking Near Mangalam Palace, Rohini Sector 3, 110085",28.6981417,77.1164514,7.0
Tata Power ,Delhi,"PVR Naraina, Commercial Complex, Community Center, Goswami Girdhari Lal Marg, Industrial Area Phase I, Block B, Naraina Industrial Area Phase 1, Naraina, New Delhi, Delhi 110028",28.6321091,77.1372683,7.0
Tata Power ,Mumbai,"Seven Hills Hospital, Andheri East, SevenHills Health City, Marol Maroshi Road, Andheri East, Mumbai, Maharashtra 400059",19.118831,72.87823,7.0
Tata Power ,Delhi,"Ssensse Hotel, Sec 25, PLOT NO.28, POCKET 5A, SECTOR 25, ROHINI NEW Delhi 110085",28.735847,77.093263,7.0
Tata Power ,Delhi,"Tanga Stand, Moti Nagar, MCD Parking, Tanga Stand Road, Motinagar metro station, Moti Nagar, Delhi, 110015",28.6591233,77.1436388,7.0
Tata Power ,Delhi,"Videocon Tower, Jhandewalan, E3/15, Block E3, Jhandewalan Extension, Jhandewalan, New Delhi - 110005",28.6449172,77.2025135,7.0
Tata Power ,Mumbai,"IOCL Sahara Hospitality, Vile Parle, opp. Domestic Airport, Navpada, Vile Parle East, Vile Parle, Mumbai, Maharashtra 400099",19.094122,72.85223,7.0
Tata Power ,Ahmedabad,"EV Capital Ram Nagar, Sabarmati, 3HGQ+QV6, Ram Nagar, Sabarmati, Ahmedabad, Gujarat,380005",23.076996,72.5896645,7.0
Tata Power ,Ahmedabad,"Ginger Hotel, DriveIn Road, Ginger Hotel Ahmedabad Behind Himalaya Mall, DriveIn Road, Ahmedabad 380015",23.047141,72.531013,7.0
Tata Power ,Ahmedabad,"IOCL Ashtavinayak Petroleum, Hirapur, Survey No.836, Hirapur Chaukadi, Village, Hirapur, Gujarat 382435",22.922329,72.711943,7.0
Tata Power ,Ahmedabad,"Riya Autolink, Bodakdev, Near Rajpath Club,SG Highway,Ahmedabad,Gujarat-380054",23.03577,72.51,7.0
Tata Power ,Ahmedabad,"Yash Motors, Narol, Opp mayauri trading company, near asopalav hotel, narol cross road, narol - pin - 382405",22.973461,72.582288,7.0
Tata Power ,Rajkot,"IOCL Motamawa, Kalavad Road, Near Saraza, Opp Cosmoplex Cinema, Kalavad Rd, Rajkot, Gujarat 360005",22.269902,70.741577,7.0
Tata Power ,Vapi,"Ginger Hotel, Salvav, Ginger Hotel Vapi Dream Honda, Opp. Empress Mall, NH-08, Salvav, Vapi, Gujarat-396191",20.414322,72.91809,7.0
Tata Power ,Faridabad,"AutoVikas, Sec -5, Plot no-2 Sector- 5 North India Compound, 20/3, Mathura Road Faridabad-121005",28.3628,77.314851,7.0
Tata Power ,Mumbai,"CR - Lokmanya Tilak Station, Kurla, Outside Platform 1, Beside LTT Pay and Park, LTT Station, Pipeline Rd, Tilak Nagar, Kurla, Mumbai, Maharashtra 400089",19.068262,72.890964,7.0
Tata Power ,Chouk,"Chowk Highway Service Centre, Old Mum-Pune highway, Nadhal, NH 48, Chouk,, Old Mumbai - Pune Hwy, Maharashtra 410206",18.90173,73.23436,7.0
Tata Power ,Ahmednagar,"Lilium Park, SH 44, Hotel Lilium Park State Highway 44, Opp. Lemon Tree Hotel, Ahmednagar, Maharashtra 414106",19.26433634,74.82719974,7.0
Tata Power ,Bhopal,"Hriday Cars, Hoshangabad Road, Near Shiv Mandir , Ahmedpur Kalan Hoshangabad Road Bhopal 462026",23.1891128,77.4515544,7.0
Tata Power ,Pathanamthitta,"MK Motors, Churulikkodu Pathanamthitta, Milan Plaza, Churulikkodu, Pathanamthitta, Kerala 689668",9.2744022,76.7637408,7.0
Tata Power ,Munnar,"Gokulam Park Munnar, Power House Road, South Chithirapuram, Power House Road, Munnar - 685565",10.0297934,77.0458592,7.0
Tata Power ,Gurgaon,"Vatika Town Square II, Sector 82, Sector 82, Vatika India Next, Haryana -122004",28.3904593,76.9592003,7.0
Tata Power ,Gurgaon,"Zedex TATA, Sec 48, GF-26, NIHO Scottish Mall, Sector 48, P.S. - Badshahpur, District - Gurugram 122001",28.411072,77.040546,7.0
Tata Power ,Jammu,"Le ROI, Jammu, Railway Station, Jammu, Jammu & Kashmir - 180003",32.7064117,74.8792033,7.0
Tata Power ,Mangalore,"Auto Matrix, Bejai, Manjusha Building, Bejai, Mangalore, Karnataka 575004",12.885716,74.843476,7.0
